{
"type": "FeatureCollection",
"name": "stasiun_roof_polygons",
"crs": { "type": "name", "properties": { "name": "urn:ogc:def:crs:OGC:1.3:CRS84" } },
"features": [
{ "type": "Feature", "properties": { "Nama_Stasiun": "Cipete Raya", "Tipe": "MRT", "roof_area_m2": 7018.4527969758001 }, "geometry": { "type": "MultiPolygon", "coordinates": [ [ [ [ 106.7976291, -6.2786957 ], [ 106.7974778, -6.2786558 ], [ 106.7975824, -6.2782639 ], [ 106.7977337, -6.2783038 ], [ 106.7976291, -6.2786957 ] ] ], [ [ [ 106.797049, -6.2785904 ], [ 106.7966207, -6.2785534 ], [ 106.7966463, -6.2782988 ], [ 106.7970653, -6.2783127 ], [ 106.797049, -6.2785904 ] ] ], [ [ [ 106.7975292, -6.2780505 ], [ 106.7973523, -6.278681 ], [ 106.7972059, -6.2792028 ], [ 106.7969812, -6.2791404 ], [ 106.7971235, -6.2786329 ], [ 106.7973031, -6.2779936 ], [ 106.797412300000019, -6.277605 ], [ 106.7976367, -6.2776673 ], [ 106.7975292, -6.2780505 ] ] ], [ [ [ 106.7971422, -6.278275 ], [ 106.7970014, -6.2782363 ], [ 106.797047, -6.2780723 ], [ 106.7971878, -6.278111 ], [ 106.7971422, -6.278275 ] ] ] ] } },
{ "type": "Feature", "properties": { "Nama_Stasiun": "ASEAN", "Tipe": "MRT", "roof_area_m2": 4089.0194380445851 }, "geometry": { "type": "Polygon", "coordinates": [ [ [ 106.798556, -6.2379518 ], [ 106.798557200000019, -6.2384081 ], [ 106.7985598, -6.2394342 ], [ 106.7983343, -6.2394348 ], [ 106.7983319, -6.2384058 ], [ 106.7983308, -6.2379524 ], [ 106.798556, -6.2379518 ] ] ] } },
{ "type": "Feature", "properties": { "Nama_Stasiun": "Boulevard Utara", "Tipe": "LRT", "roof_area_m2": 10747.934987242103 }, "geometry": { "type": "MultiPolygon", "coordinates": [ [ [ [ 106.9068607, -6.1605276 ], [ 106.9069239, -6.1604299 ], [ 106.9071229, -6.1605572 ], [ 106.9071079, -6.1605804 ], [ 106.9070876, -6.1606118 ], [ 106.9070598, -6.1606549 ], [ 106.9070238, -6.1606319 ], [ 106.9068922, -6.1608353 ], [ 106.9068288, -6.1607947 ], [ 106.906763, -6.1608963 ], [ 106.906808900000016, -6.1609257 ], [ 106.9067203, -6.1610627 ], [ 106.905906, -6.1605419 ], [ 106.9058478, -6.1604397 ], [ 106.9058114, -6.1603387 ], [ 106.9058068, -6.1602514 ], [ 106.9058098, -6.1601701 ], [ 106.9058323, -6.1601035 ], [ 106.9058903, -6.1600059 ], [ 106.9060993, -6.1596812 ], [ 106.906138200000015, -6.1596507 ], [ 106.90618640000001, -6.1596329 ], [ 106.9062341, -6.1596348 ], [ 106.9062866, -6.1596591 ], [ 106.9063234, -6.1596948 ], [ 106.9063413, -6.1597532 ], [ 106.9064974, -6.1597236 ], [ 106.906854700000011, -6.1591213 ], [ 106.9069051, -6.1590352 ], [ 106.9069451, -6.158969 ], [ 106.9070183, -6.159014 ], [ 106.9069789, -6.15908 ], [ 106.9069274, -6.1591666 ], [ 106.906585, -6.159742 ], [ 106.9065808, -6.1597802 ], [ 106.9065645, -6.1598197 ], [ 106.9065807, -6.1598401 ], [ 106.9065353, -6.1598899 ], [ 106.9064712, -6.1599202 ], [ 106.9063444, -6.1599607 ], [ 106.906347, -6.1599926 ], [ 106.9064046, -6.1600245 ], [ 106.9063482, -6.1601225 ], [ 106.9063579, -6.1601533 ], [ 106.906378, -6.1601737 ], [ 106.906396, -6.1601509 ], [ 106.9064201, -6.1601348 ], [ 106.9064482, -6.160127 ], [ 106.9064772, -6.1601283 ], [ 106.9065044, -6.1601385 ], [ 106.9065271, -6.1601566 ], [ 106.906543, -6.1601808 ], [ 106.9065505, -6.1602087 ], [ 106.906548900000018, -6.1602376 ], [ 106.9065384, -6.1602646 ], [ 106.9065222, -6.1602849 ], [ 106.9065009, -6.1602998 ], [ 106.9064762, -6.1603083 ], [ 106.9064502, -6.1603096 ], [ 106.9064248, -6.1603035 ], [ 106.9064021, -6.1602907 ], [ 106.9063903, -6.1603173 ], [ 106.9063916, -6.1603513 ], [ 106.906411, -6.1603763 ], [ 106.9064117, -6.160412 ], [ 106.906379, -6.16046 ], [ 106.9063698, -6.1605297 ], [ 106.906716, -6.1607512 ], [ 106.9068607, -6.1605276 ] ] ], [ [ [ 106.9057327, -6.15949 ], [ 106.9055852, -6.159402 ], [ 106.9056529, -6.15929 ], [ 106.9058003, -6.1593781 ], [ 106.9057327, -6.15949 ] ] ], [ [ [ 106.9057937, -6.15937 ], [ 106.9056642, -6.1592927 ], [ 106.9057085, -6.1592193 ], [ 106.905838, -6.1592967 ], [ 106.9057937, -6.15937 ] ] ], [ [ [ 106.9058507, -6.159284 ], [ 106.9057248, -6.1592088 ], [ 106.905789, -6.1591027 ], [ 106.905914800000019, -6.1591778 ], [ 106.9058507, -6.159284 ] ] ] ] } },
{ "type": "Feature", "properties": { "Nama_Stasiun": "Boulevard Selatan", "Tipe": "LRT", "roof_area_m2": 1677.7889494676856 }, "geometry": { "type": "Polygon", "coordinates": [ [ [ 106.8998803, -6.16847 ], [ 106.8999869, -6.1685342 ], [ 106.8996818, -6.1690353 ], [ 106.8994594, -6.1689015 ], [ 106.8997059, -6.1684967 ], [ 106.8998216, -6.1685663 ], [ 106.8998803, -6.16847 ] ] ] } },
{ "type": "Feature", "properties": { "Nama_Stasiun": "Pulomas", "Tipe": "LRT", "roof_area_m2": 4279.7764093830929 }, "geometry": { "type": "MultiPolygon", "coordinates": [ [ [ [ 106.893632, -6.1773907 ], [ 106.893768, -6.177464699999989 ], [ 106.8937001, -6.177588 ], [ 106.8935641, -6.177514 ], [ 106.893632, -6.1773907 ] ] ], [ [ [ 106.8937802, -6.1773939 ], [ 106.8936553, -6.177326 ], [ 106.8937639, -6.1771287 ], [ 106.8938888, -6.1771966 ], [ 106.8937802, -6.1773939 ] ] ], [ [ [ 106.8935621, -6.1767764 ], [ 106.8936143, -6.1767905 ], [ 106.8936302, -6.1767597 ], [ 106.8936506, -6.1767527 ], [ 106.8937072, -6.1767615 ], [ 106.8937479, -6.1767967 ], [ 106.8937656, -6.1768442 ], [ 106.8937382, -6.1768767 ], [ 106.8937443, -6.1768873 ], [ 106.8937744, -6.1769541 ], [ 106.8937664, -6.1770081 ], [ 106.8933964, -6.1775695 ], [ 106.893360800000011, -6.1775755 ], [ 106.8933049, -6.1775796 ], [ 106.8932622, -6.1775816 ], [ 106.8932104, -6.1775806 ], [ 106.8931789, -6.1775604 ], [ 106.8931545, -6.1775371 ], [ 106.8931513, -6.1774962 ], [ 106.8931229, -6.1774659 ], [ 106.8931069, -6.1774157 ], [ 106.8930985, -6.1773891 ], [ 106.893501, -6.1767808 ], [ 106.8935363, -6.1767783 ], [ 106.8935621, -6.1767764 ] ] ] ] } },
{ "type": "Feature", "properties": { "Nama_Stasiun": "Equestrian", "Tipe": "LRT", "roof_area_m2": 976.58049769043691 }, "geometry": { "type": "Polygon", "coordinates": [ [ [ 106.8910706, -6.1837701 ], [ 106.8910277, -6.1842981 ], [ 106.8908776, -6.1842861 ], [ 106.8909205, -6.1837581 ], [ 106.8910706, -6.1837701 ] ] ] } },
{ "type": "Feature", "properties": { "Nama_Stasiun": "Velodrome", "Tipe": "LRT", "roof_area_m2": 5037.5157864915163 }, "geometry": { "type": "MultiPolygon", "coordinates": [ [ [ [ 106.8916411, -6.192084 ], [ 106.8916426, -6.1922802 ], [ 106.8914416, -6.1922817 ], [ 106.8914401, -6.1920855 ], [ 106.8916411, -6.192084 ] ] ], [ [ [ 106.8913422, -6.1926373 ], [ 106.8912841, -6.1926371 ], [ 106.891265, -6.192637 ], [ 106.8912536, -6.192637 ], [ 106.891005, -6.1926361 ], [ 106.8909634, -6.1926359 ], [ 106.8909655, -6.1920919 ], [ 106.8909657, -6.1920345 ], [ 106.8909667, -6.1917544 ], [ 106.8911347, -6.191755 ], [ 106.8911357, -6.1914888 ], [ 106.891146, -6.1914888 ], [ 106.8912646, -6.1914893 ], [ 106.8912796, -6.1914893 ], [ 106.8912786, -6.1917576 ], [ 106.8913454, -6.1917579 ], [ 106.8913422, -6.1926373 ] ] ] ] } },
{ "type": "Feature", "properties": { "Nama_Stasiun": "Pegangsaan Dua", "Tipe": "LRT", "roof_area_m2": 62562.62723732899 }, "geometry": { "type": "Polygon", "coordinates": [ [ [ 106.9148954, -6.1584387 ], [ 106.9148942, -6.1586017 ], [ 106.914958500000012, -6.1586051 ], [ 106.9151048, -6.158761 ], [ 106.9151027, -6.1589366 ], [ 106.9141843, -6.1589287 ], [ 106.9141599, -6.1589222 ], [ 106.9141414, -6.1589058 ], [ 106.9140821, -6.158708 ], [ 106.9140775, -6.1586719 ], [ 106.9140834, -6.158419 ], [ 106.9141131, -6.1559013 ], [ 106.9143286, -6.1559055 ], [ 106.9143296, -6.155631 ], [ 106.9143447, -6.1555661 ], [ 106.9143654, -6.1555021 ], [ 106.9144118, -6.1554376 ], [ 106.9144601, -6.1553814 ], [ 106.9145224, -6.1553426 ], [ 106.914591, -6.1553193 ], [ 106.9146805, -6.1553101 ], [ 106.9147561, -6.1553096 ], [ 106.915430300000011, -6.1553164 ], [ 106.915430700000016, -6.1555833 ], [ 106.9152171, -6.1555786 ], [ 106.9152162, -6.1558152 ], [ 106.9149201, -6.1558151 ], [ 106.9149196, -6.155917 ], [ 106.9149202, -6.1561428 ], [ 106.9149266, -6.1584387 ], [ 106.9148954, -6.1584387 ] ] ] } },
{ "type": "Feature", "properties": { "Nama_Stasiun": "Manggarai", "Tipe": "LRT", "roof_area_m2": 1322.8325717598864 }, "geometry": { "type": "MultiPolygon", "coordinates": [ [ [ [ 106.844663200000014, -6.2085434 ], [ 106.8445965, -6.2087209 ], [ 106.8444427, -6.2086638 ], [ 106.8445094, -6.2084863 ], [ 106.844663200000014, -6.2085434 ] ] ], [ [ [ 106.844490400000012, -6.2083979 ], [ 106.8444059, -6.2086482 ], [ 106.8442659, -6.2085997 ], [ 106.8443249, -6.2084317 ], [ 106.8443562, -6.2084425 ], [ 106.8443873, -6.2083596 ], [ 106.844490400000012, -6.2083979 ] ] ], [ [ [ 106.8443121, -6.2084035 ], [ 106.844229, -6.2086274 ], [ 106.8441312, -6.2085916 ], [ 106.8441431, -6.2085593 ], [ 106.8440695, -6.2085329 ], [ 106.844139200000015, -6.2083409 ], [ 106.8442142, -6.2083677 ], [ 106.8442519, -6.2083813 ], [ 106.8443104, -6.2084026 ], [ 106.8443121, -6.2084035 ] ] ] ] } },
{ "type": "Feature", "properties": { "Nama_Stasiun": "Matraman", "Tipe": "LRT", "roof_area_m2": 725.55149136777891 }, "geometry": { "type": "MultiPolygon", "coordinates": [ [ [ [ 106.8501364, -6.2025878 ], [ 106.8500571, -6.2026346 ], [ 106.8499567, -6.2024665 ], [ 106.850036, -6.2024197 ], [ 106.8501364, -6.2025878 ] ] ], [ [ [ 106.850398900000016, -6.2023964 ], [ 106.8503115, -6.2024623 ], [ 106.8502566, -6.2023904 ], [ 106.850344, -6.2023245 ], [ 106.850398900000016, -6.2023964 ] ] ], [ [ [ 106.8505184, -6.202235 ], [ 106.8504079, -6.2023105 ], [ 106.8503038, -6.2021724 ], [ 106.8504127, -6.2020925 ], [ 106.8505184, -6.202235 ] ] ], [ [ [ 106.8501384, -6.2019689 ], [ 106.8500577, -6.2019957 ], [ 106.8500284, -6.2019089 ], [ 106.8501091, -6.201882 ], [ 106.8501384, -6.2019689 ] ] ] ] } },
{ "type": "Feature", "properties": { "Nama_Stasiun": "Pasar Pramuka", "Tipe": "LRT", "roof_area_m2": 1120.8300233590753 }, "geometry": { "type": "MultiPolygon", "coordinates": [ [ [ [ 106.8589904, -6.1960931 ], [ 106.8590138, -6.1961459 ], [ 106.8589316, -6.1961704 ], [ 106.8588956, -6.1961443 ], [ 106.8588373, -6.1961699 ], [ 106.8588128, -6.1961149 ], [ 106.8588815, -6.1960847 ], [ 106.858879, -6.1960789 ], [ 106.8589756, -6.1960364 ], [ 106.8589992, -6.1960893 ], [ 106.8589904, -6.1960931 ] ] ], [ [ [ 106.8589857, -6.1960373 ], [ 106.8590384, -6.1960194 ], [ 106.8590699, -6.1961114 ], [ 106.8590172, -6.1961293 ], [ 106.8589857, -6.1960373 ] ] ], [ [ [ 106.8589918, -6.1960271 ], [ 106.858971, -6.1959611 ], [ 106.8590145, -6.1959476 ], [ 106.8590353, -6.1960136 ], [ 106.8589918, -6.1960271 ] ] ], [ [ [ 106.8591438, -6.1958693 ], [ 106.8591741, -6.1959627 ], [ 106.8591073, -6.1959841 ], [ 106.8590769, -6.1958907 ], [ 106.8591438, -6.1958693 ] ] ], [ [ [ 106.8586431, -6.1956017 ], [ 106.8586028, -6.1954297 ], [ 106.8587363, -6.1953988 ], [ 106.8587765, -6.1955708 ], [ 106.8586431, -6.1956017 ] ] ], [ [ [ 106.8587747, -6.1955574 ], [ 106.8587065, -6.195237 ], [ 106.8588149, -6.1952142 ], [ 106.8588831, -6.1955346 ], [ 106.8587747, -6.1955574 ] ] ] ] } },
{ "type": "Feature", "properties": { "Nama_Stasiun": "Pramuka BPKP", "Tipe": "LRT", "roof_area_m2": 132.94591945057599 }, "geometry": { "type": "Polygon", "coordinates": [ [ [ 106.8705782, -6.1915373 ], [ 106.870676, -6.1915315 ], [ 106.8706826, -6.1916422 ], [ 106.8705849, -6.191648 ], [ 106.8705782, -6.1915373 ] ] ] } },
{ "type": "Feature", "properties": { "Nama_Stasiun": "Rawamangun", "Tipe": "LRT", "roof_area_m2": 176.16060518654277 }, "geometry": { "type": "Polygon", "coordinates": [ [ [ 106.8826814, -6.1928257 ], [ 106.8828202, -6.192835 ], [ 106.8828132, -6.1929382 ], [ 106.8826744, -6.1929289 ], [ 106.8826814, -6.1928257 ] ] ] } },
{ "type": "Feature", "properties": { "Nama_Stasiun": "Stasiun LRT Rawamangun", "Tipe": "LRT", "roof_area_m2": 176.16060518654277 }, "geometry": { "type": "Polygon", "coordinates": [ [ [ 106.8826814, -6.1928257 ], [ 106.8828202, -6.192835 ], [ 106.8828132, -6.1929382 ], [ 106.8826744, -6.1929289 ], [ 106.8826814, -6.1928257 ] ] ] } },
{ "type": "Feature", "properties": { "Nama_Stasiun": "Stasiun LRT Manggarai", "Tipe": "LRT", "roof_area_m2": 1322.8325717598864 }, "geometry": { "type": "MultiPolygon", "coordinates": [ [ [ [ 106.844663200000014, -6.2085434 ], [ 106.8445965, -6.2087209 ], [ 106.8444427, -6.2086638 ], [ 106.8445094, -6.2084863 ], [ 106.844663200000014, -6.2085434 ] ] ], [ [ [ 106.844490400000012, -6.2083979 ], [ 106.8444059, -6.2086482 ], [ 106.8442659, -6.2085997 ], [ 106.8443249, -6.2084317 ], [ 106.8443562, -6.2084425 ], [ 106.8443873, -6.2083596 ], [ 106.844490400000012, -6.2083979 ] ] ], [ [ [ 106.8443121, -6.2084035 ], [ 106.844229, -6.2086274 ], [ 106.8441312, -6.2085916 ], [ 106.8441431, -6.2085593 ], [ 106.8440695, -6.2085329 ], [ 106.844139200000015, -6.2083409 ], [ 106.8442142, -6.2083677 ], [ 106.8442519, -6.2083813 ], [ 106.8443104, -6.2084026 ], [ 106.8443121, -6.2084035 ] ] ] ] } },
{ "type": "Feature", "properties": { "Nama_Stasiun": "Stasiun LRT Pramuka BPKP", "Tipe": "LRT", "roof_area_m2": 132.94591945057599 }, "geometry": { "type": "Polygon", "coordinates": [ [ [ 106.8705782, -6.1915373 ], [ 106.870676, -6.1915315 ], [ 106.8706826, -6.1916422 ], [ 106.8705849, -6.191648 ], [ 106.8705782, -6.1915373 ] ] ] } },
{ "type": "Feature", "properties": { "Nama_Stasiun": "Stasiun LRT Pasar Pramuka", "Tipe": "LRT", "roof_area_m2": 1120.8300233590753 }, "geometry": { "type": "MultiPolygon", "coordinates": [ [ [ [ 106.8589904, -6.1960931 ], [ 106.8590138, -6.1961459 ], [ 106.8589316, -6.1961704 ], [ 106.8588956, -6.1961443 ], [ 106.8588373, -6.1961699 ], [ 106.8588128, -6.1961149 ], [ 106.8588815, -6.1960847 ], [ 106.858879, -6.1960789 ], [ 106.8589756, -6.1960364 ], [ 106.8589992, -6.1960893 ], [ 106.8589904, -6.1960931 ] ] ], [ [ [ 106.8589857, -6.1960373 ], [ 106.8590384, -6.1960194 ], [ 106.8590699, -6.1961114 ], [ 106.8590172, -6.1961293 ], [ 106.8589857, -6.1960373 ] ] ], [ [ [ 106.8589918, -6.1960271 ], [ 106.858971, -6.1959611 ], [ 106.8590145, -6.1959476 ], [ 106.8590353, -6.1960136 ], [ 106.8589918, -6.1960271 ] ] ], [ [ [ 106.8591438, -6.1958693 ], [ 106.8591741, -6.1959627 ], [ 106.8591073, -6.1959841 ], [ 106.8590769, -6.1958907 ], [ 106.8591438, -6.1958693 ] ] ], [ [ [ 106.8586431, -6.1956017 ], [ 106.8586028, -6.1954297 ], [ 106.8587363, -6.1953988 ], [ 106.8587765, -6.1955708 ], [ 106.8586431, -6.1956017 ] ] ], [ [ [ 106.8587747, -6.1955574 ], [ 106.8587065, -6.195237 ], [ 106.8588149, -6.1952142 ], [ 106.8588831, -6.1955346 ], [ 106.8587747, -6.1955574 ] ] ] ] } },
{ "type": "Feature", "properties": { "Nama_Stasiun": "Stasiun LRT Matraman", "Tipe": "LRT", "roof_area_m2": 725.55149136777891 }, "geometry": { "type": "MultiPolygon", "coordinates": [ [ [ [ 106.8501364, -6.2025878 ], [ 106.8500571, -6.2026346 ], [ 106.8499567, -6.2024665 ], [ 106.850036, -6.2024197 ], [ 106.8501364, -6.2025878 ] ] ], [ [ [ 106.850398900000016, -6.2023964 ], [ 106.8503115, -6.2024623 ], [ 106.8502566, -6.2023904 ], [ 106.850344, -6.2023245 ], [ 106.850398900000016, -6.2023964 ] ] ], [ [ [ 106.8505184, -6.202235 ], [ 106.8504079, -6.2023105 ], [ 106.8503038, -6.2021724 ], [ 106.8504127, -6.2020925 ], [ 106.8505184, -6.202235 ] ] ], [ [ [ 106.8501384, -6.2019689 ], [ 106.8500577, -6.2019957 ], [ 106.8500284, -6.2019089 ], [ 106.8501091, -6.201882 ], [ 106.8501384, -6.2019689 ] ] ] ] } },
{ "type": "Feature", "properties": { "Nama_Stasiun": "Taman Mini", "Tipe": "LRT", "roof_area_m2": 2126.2926028953366 }, "geometry": { "type": "Polygon", "coordinates": [ [ [ 106.8803, -6.2924325 ], [ 106.8807022, -6.2934967 ], [ 106.8808453, -6.2934433 ], [ 106.880443, -6.2923791 ], [ 106.8803, -6.2924325 ] ] ] } },
{ "type": "Feature", "properties": { "Nama_Stasiun": "Cikoko", "Tipe": "LRT", "roof_area_m2": 2191.9254923886087 }, "geometry": { "type": "Polygon", "coordinates": [ [ [ 106.856482, -6.2433962 ], [ 106.8564793, -6.2435059 ], [ 106.8564784, -6.2435444 ], [ 106.8576517, -6.2435764 ], [ 106.8576522, -6.2434552 ], [ 106.8576525, -6.2434369 ], [ 106.8576525, -6.2434191 ], [ 106.856482, -6.2433962 ] ] ] } },
{ "type": "Feature", "properties": { "Nama_Stasiun": "Pancoran", "Tipe": "LRT", "roof_area_m2": 3099.3413684766947 }, "geometry": { "type": "Polygon", "coordinates": [ [ [ 106.8377874, -6.2418505 ], [ 106.8377215, -6.2419333 ], [ 106.837739, -6.2420325 ], [ 106.8379347, -6.24208390000001 ], [ 106.8390004, -6.2423636 ], [ 106.839019, -6.2423685 ], [ 106.8390673, -6.2421865 ], [ 106.8377874, -6.2418505 ] ] ] } },
{ "type": "Feature", "properties": { "Nama_Stasiun": "Setiabudi", "Tipe": "LRT", "roof_area_m2": 3690.7817851194577 }, "geometry": { "type": "Polygon", "coordinates": [ [ [ 106.8300658, -6.2087028 ], [ 106.8301723, -6.2086746 ], [ 106.8302807, -6.2090723 ], [ 106.8303538, -6.209415 ], [ 106.8304242, -6.2098865 ], [ 106.8303212, -6.2099043 ], [ 106.8302098, -6.2099199 ], [ 106.8301398, -6.2094356 ], [ 106.8300725, -6.209114 ], [ 106.829968, -6.2087287 ], [ 106.8300658, -6.2087028 ] ] ] } },
{ "type": "Feature", "properties": { "Nama_Stasiun": "Rasuna Said", "Tipe": "LRT", "roof_area_m2": 3270.8380813534159 }, "geometry": { "type": "Polygon", "coordinates": [ [ [ 106.8321283, -6.2210904 ], [ 106.832205300000012, -6.2210713 ], [ 106.832496, -6.2222304 ], [ 106.8324145, -6.2222507 ], [ 106.8323229, -6.2222733 ], [ 106.832032, -6.2211143 ], [ 106.8321283, -6.2210904 ] ] ] } },
{ "type": "Feature", "properties": { "Nama_Stasiun": "Kampung Rambutan", "Tipe": "LRT", "roof_area_m2": 3423.1763173627642 }, "geometry": { "type": "MultiPolygon", "coordinates": [ [ [ [ 106.8841614, -6.3095641 ], [ 106.8839712, -6.3096424 ], [ 106.8839277, -6.3096521 ], [ 106.8839152, -6.3095983 ], [ 106.8839111, -6.3095831 ], [ 106.883958, -6.3095721 ], [ 106.8841504, -6.3094919 ], [ 106.8842054, -6.3094804 ], [ 106.8842045, -6.3094719 ], [ 106.8841768, -6.3094758 ], [ 106.884173, -6.3094461 ], [ 106.884199, -6.3094426 ], [ 106.8841911, -6.3093936 ], [ 106.8842602, -6.3093829 ], [ 106.8841858, -6.3088734 ], [ 106.8841982, -6.3088595 ], [ 106.8842249, -6.3088402 ], [ 106.8842519, -6.3088298 ], [ 106.8842841, -6.3088262 ], [ 106.8843099, -6.3088296 ], [ 106.8843334, -6.308838 ], [ 106.8843485, -6.3088467 ], [ 106.8843637, -6.3088588 ], [ 106.8845818, -6.3100526 ], [ 106.8843969, -6.3100852 ], [ 106.8842945, -6.3095857 ], [ 106.8842285, -6.3095962 ], [ 106.8842204, -6.3095548 ], [ 106.8841614, -6.3095641 ] ], [ [ 106.8842322, -6.3094221 ], [ 106.8842526, -6.3095336 ], [ 106.8842847, -6.3095277 ], [ 106.8842659, -6.3094166 ], [ 106.8842322, -6.3094221 ] ] ], [ [ [ 106.8840846, -6.3094395 ], [ 106.8840536, -6.3094395 ], [ 106.8840536, -6.3093573 ], [ 106.8840533, -6.3093499 ], [ 106.8841441, -6.309347 ], [ 106.884146700000016, -6.3094267 ], [ 106.8840843, -6.3094287 ], [ 106.8840846, -6.3094395 ] ] ] ] } },
{ "type": "Feature", "properties": { "Nama_Stasiun": "Harjamukti", "Tipe": "LRT", "roof_area_m2": 2973.9998511434032 }, "geometry": { "type": "Polygon", "coordinates": [ [ [ 106.8956569, -6.3732739 ], [ 106.895461, -6.3733097 ], [ 106.8955717, -6.3739097 ], [ 106.8956824, -6.3745088 ], [ 106.8958785, -6.374473 ], [ 106.8956569, -6.3732739 ] ] ] } },
{ "type": "Feature", "properties": { "Nama_Stasiun": "Jatimulya", "Tipe": "LRT", "roof_area_m2": 2539.8749975732699 }, "geometry": { "type": "Polygon", "coordinates": [ [ [ 107.0210907, -6.2639342 ], [ 107.021146300000012, -6.2637756 ], [ 107.0216888, -6.2639589 ], [ 107.0218485, -6.2640128 ], [ 107.0222944, -6.2641727 ], [ 107.0222389, -6.2643314 ], [ 107.0210907, -6.2639342 ] ] ] } },
{ "type": "Feature", "properties": { "Nama_Stasiun": "Bekasi Barat", "Tipe": "LRT", "roof_area_m2": 2938.5362830026388 }, "geometry": { "type": "Polygon", "coordinates": [ [ [ 106.9896339, -6.2526648 ], [ 106.9897173, -6.2524869 ], [ 106.9908254, -6.2530007 ], [ 106.9907419, -6.2531786 ], [ 106.9902622, -6.2529562 ], [ 106.9896339, -6.2526648 ] ] ] } },
{ "type": "Feature", "properties": { "Nama_Stasiun": "Cikunir 2", "Tipe": "LRT", "roof_area_m2": 2541.9707276788927 }, "geometry": { "type": "Polygon", "coordinates": [ [ [ 106.962551, -6.2548252 ], [ 106.9626137, -6.2549818 ], [ 106.963716800000014, -6.2545626 ], [ 106.9636482, -6.2543912 ], [ 106.9632144, -6.2545642 ], [ 106.9630628, -6.2546239 ], [ 106.962551, -6.2548252 ] ] ] } },
{ "type": "Feature", "properties": { "Nama_Stasiun": "Cikunir 1", "Tipe": "LRT", "roof_area_m2": 2947.8152870083259 }, "geometry": { "type": "Polygon", "coordinates": [ [ [ 106.9512929, -6.2564921 ], [ 106.9513057, -6.2566968 ], [ 106.9525316, -6.2566336 ], [ 106.9525207, -6.2564433 ], [ 106.9519998, -6.2564665 ], [ 106.9518344, -6.2564743 ], [ 106.9512929, -6.2564921 ] ] ] } },
{ "type": "Feature", "properties": { "Nama_Stasiun": "Jatibening Baru", "Tipe": "LRT", "roof_area_m2": 2947.9335725285282 }, "geometry": { "type": "Polygon", "coordinates": [ [ [ 106.9271919, -6.2576968 ], [ 106.9272016, -6.2578737 ], [ 106.9285582, -6.2578003 ], [ 106.9285485, -6.2576232 ], [ 106.9280449, -6.2576505 ], [ 106.9278806, -6.2576595 ], [ 106.9271919, -6.2576968 ] ] ] } },
{ "type": "Feature", "properties": { "Nama_Stasiun": "Kuningan", "Tipe": "LRT", "roof_area_m2": 2944.8441622524201 }, "geometry": { "type": "Polygon", "coordinates": [ [ [ 106.8331659, -6.2282378 ], [ 106.833264, -6.2282318 ], [ 106.8333398, -6.2294602 ], [ 106.8332514, -6.2294656 ], [ 106.8331735, -6.2294704 ], [ 106.8330975, -6.2282419 ], [ 106.8331659, -6.2282378 ] ] ] } },
{ "type": "Feature", "properties": { "Nama_Stasiun": "Ciracas", "Tipe": "LRT", "roof_area_m2": 2828.7707193957335 }, "geometry": { "type": "Polygon", "coordinates": [ [ [ 106.8865501, -6.3243264 ], [ 106.8865401, -6.3237796 ], [ 106.886537, -6.3236104 ], [ 106.8865283, -6.3231352 ], [ 106.8867222, -6.3231316 ], [ 106.8867441, -6.3243229 ], [ 106.8865501, -6.3243264 ] ] ] } },
{ "type": "Feature", "properties": { "Nama_Stasiun": "Dukuh Atas Bank Syariah Indonesia", "Tipe": "LRT", "roof_area_m2": 2664.5754355188124 }, "geometry": { "type": "Polygon", "coordinates": [ [ [ 106.825031, -6.2046418 ], [ 106.8250193, -6.2046975 ], [ 106.825018, -6.2047034 ], [ 106.8250051, -6.2047648 ], [ 106.8249956, -6.2048101 ], [ 106.8259668, -6.2050121 ], [ 106.8262348, -6.2050679 ], [ 106.8262436, -6.2050259 ], [ 106.8262629, -6.2049344 ], [ 106.8262702, -6.2048996 ], [ 106.8250782, -6.2046516 ], [ 106.825031, -6.2046418 ] ] ] } },
{ "type": "Feature", "properties": { "Nama_Stasiun": "Ciliwung", "Tipe": "LRT", "roof_area_m2": 100.34019393889029 }, "geometry": { "type": "Polygon", "coordinates": [ [ [ 106.8634389, -6.2432529 ], [ 106.863438, -6.2432681 ], [ 106.863437, -6.2432852 ], [ 106.8636904, -6.2432994 ], [ 106.8636922, -6.2432672 ], [ 106.8634389, -6.2432529 ] ] ] } },
{ "type": "Feature", "properties": { "Nama_Stasiun": "Halim", "Tipe": "LRT", "roof_area_m2": 5920.0934601983472 }, "geometry": { "type": "Polygon", "coordinates": [ [ [ 106.886736, -6.245822 ], [ 106.8873262, -6.2454017 ], [ 106.887464400000013, -6.2455941 ], [ 106.8878059, -6.2453516 ], [ 106.8879369, -6.2455339 ], [ 106.8868438, -6.2463097 ], [ 106.8867175, -6.246134 ], [ 106.8868342, -6.2460512 ], [ 106.8866914, -6.2458525 ], [ 106.886736, -6.245822 ] ] ] } },
{ "type": "Feature", "properties": { "Nama_Stasiun": "Cawang", "Tipe": "LRT", "roof_area_m2": 5548.1455391588415 }, "geometry": { "type": "Polygon", "coordinates": [ [ [ 106.8707257, -6.2455734 ], [ 106.870715, -6.2456138 ], [ 106.8707082, -6.2456394 ], [ 106.8706762, -6.2457606 ], [ 106.8706626, -6.245812 ], [ 106.8706289, -6.2459394 ], [ 106.8708038, -6.2459851 ], [ 106.8708655, -6.2460012 ], [ 106.871196900000015, -6.2461363 ], [ 106.8717336, -6.2462279 ], [ 106.8717578, -6.2461361 ], [ 106.8717655, -6.2461071 ], [ 106.8717917, -6.2460079 ], [ 106.8718066, -6.2459515 ], [ 106.8718303, -6.245862 ], [ 106.8707257, -6.2455734 ] ] ] } },
{ "type": "Feature", "properties": { "Nama_Stasiun": "LRT", "Tipe": "LRT", "roof_area_m2": 5548.1455391588415 }, "geometry": { "type": "Polygon", "coordinates": [ [ [ 106.8707257, -6.2455734 ], [ 106.870715, -6.2456138 ], [ 106.8707082, -6.2456394 ], [ 106.8706762, -6.2457606 ], [ 106.8706626, -6.245812 ], [ 106.8706289, -6.2459394 ], [ 106.8708038, -6.2459851 ], [ 106.8708655, -6.2460012 ], [ 106.871196900000015, -6.2461363 ], [ 106.8717336, -6.2462279 ], [ 106.8717578, -6.2461361 ], [ 106.8717655, -6.2461071 ], [ 106.8717917, -6.2460079 ], [ 106.8718066, -6.2459515 ], [ 106.8718303, -6.245862 ], [ 106.8707257, -6.2455734 ] ] ] } },
{ "type": "Feature", "properties": { "Nama_Stasiun": "Stasiun Ancol", "Tipe": "KRL", "roof_area_m2": 468.14536619156399 }, "geometry": { "type": "MultiPolygon", "coordinates": [ [ [ [ 106.8450697, -6.1284398 ], [ 106.845055800000011, -6.1283659 ], [ 106.8451242, -6.1283533 ], [ 106.8451381, -6.1284271 ], [ 106.8450697, -6.1284398 ] ] ], [ [ [ 106.8450362, -6.1283385 ], [ 106.8450463, -6.1283885 ], [ 106.8450156, -6.1283946 ], [ 106.8449833, -6.128401 ], [ 106.8449733, -6.128351 ], [ 106.8450055, -6.1283446 ], [ 106.8450362, -6.1283385 ] ] ], [ [ [ 106.8450796, -6.1283541 ], [ 106.8450464, -6.1283606 ], [ 106.8450357, -6.1283066 ], [ 106.8450688, -6.1283001 ], [ 106.8451193, -6.1282902 ], [ 106.84513, -6.1283442 ], [ 106.8450796, -6.1283541 ] ] ], [ [ [ 106.8451229, -6.1282753 ], [ 106.845164, -6.1282668 ], [ 106.8452051, -6.1282583 ], [ 106.8452198, -6.128329 ], [ 106.845178800000014, -6.1283374 ], [ 106.8451376, -6.1283459 ], [ 106.8451229, -6.1282753 ] ] ], [ [ [ 106.8452066, -6.1279659 ], [ 106.8452138, -6.1280071 ], [ 106.8450529, -6.1280351 ], [ 106.8450457, -6.1279939 ], [ 106.8452066, -6.1279659 ] ] ], [ [ [ 106.8451578, -6.1283832 ], [ 106.8451537, -6.1283438 ], [ 106.8452142, -6.1283376 ], [ 106.845218200000019, -6.128377 ], [ 106.8452225, -6.1284191 ], [ 106.8451621, -6.1284252 ], [ 106.8451578, -6.1283832 ] ] ], [ [ [ 106.8452945, -6.1283346 ], [ 106.84533230000001, -6.128326 ], [ 106.845343, -6.1283727 ], [ 106.8453053, -6.1283813 ], [ 106.8452945, -6.1283346 ] ] ], [ [ [ 106.8453133, -6.128277299999989 ], [ 106.845330300000015, -6.1282737 ], [ 106.845337, -6.128305 ], [ 106.84532, -6.1283086 ], [ 106.8453133, -6.128277299999989 ] ] ], [ [ [ 106.845206, -6.1282453 ], [ 106.8452402, -6.1282342 ], [ 106.8452563, -6.1282836 ], [ 106.8452221, -6.1282946 ], [ 106.845206, -6.1282453 ] ] ], [ [ [ 106.845259, -6.1282173 ], [ 106.8453027, -6.1282046 ], [ 106.8453208, -6.1282659 ], [ 106.8452771, -6.1282786 ], [ 106.845259, -6.1282173 ] ] ] ] } },
{ "type": "Feature", "properties": { "Nama_Stasiun": "Stasiun Angke", "Tipe": "KRL", "roof_area_m2": 2545.0171231693453 }, "geometry": { "type": "MultiPolygon", "coordinates": [ [ [ [ 106.800863, -6.1454785 ], [ 106.8008236, -6.14479120000001 ], [ 106.8008169, -6.1446741 ], [ 106.8007775, -6.1439846 ], [ 106.8008962, -6.1439779 ], [ 106.8009357, -6.1446673 ], [ 106.8009424, -6.1447844 ], [ 106.8009817, -6.1454718 ], [ 106.800863, -6.1454785 ] ] ], [ [ [ 106.8005567, -6.1449383 ], [ 106.8005099, -6.1449385 ], [ 106.8005095, -6.1448878 ], [ 106.80055680000001, -6.144888 ], [ 106.8005933, -6.1448881 ], [ 106.8005931, -6.1449385 ], [ 106.8005567, -6.1449383 ] ] ], [ [ [ 106.8004567, -6.1448778 ], [ 106.8004567, -6.1448218 ], [ 106.8004567, -6.1447622 ], [ 106.8005923, -6.1447619 ], [ 106.800592, -6.1448212 ], [ 106.8005939, -6.1448784 ], [ 106.8004567, -6.1448778 ] ] ], [ [ [ 106.8004179, -6.1447084 ], [ 106.8004173, -6.1446665 ], [ 106.8005555, -6.1446645 ], [ 106.8005561, -6.1447064 ], [ 106.8004179, -6.1447084 ] ] ], [ [ [ 106.8004482, -6.1446352 ], [ 106.8004482, -6.1445958 ], [ 106.8005531, -6.1445958 ], [ 106.8005531, -6.1446352 ], [ 106.8004482, -6.1446352 ] ] ] ] } },
{ "type": "Feature", "properties": { "Nama_Stasiun": "Stasiun Bojong Indah", "Tipe": "KRL", "roof_area_m2": 1355.8717713717697 }, "geometry": { "type": "MultiPolygon", "coordinates": [ [ [ [ 106.7363561, -6.1605421 ], [ 106.7362882, -6.160555 ], [ 106.7362467, -6.160339 ], [ 106.7363146, -6.1603261 ], [ 106.7363561, -6.1605421 ] ] ], [ [ [ 106.7364888, -6.1603002 ], [ 106.7365179, -6.1602954 ], [ 106.7365447, -6.1604554 ], [ 106.7365222, -6.1604591 ], [ 106.7365309, -6.1605008 ], [ 106.7363727, -6.1605337 ], [ 106.7363218, -6.160291 ], [ 106.73648, -6.1602582 ], [ 106.7364888, -6.1603002 ] ] ], [ [ [ 106.736677500000013, -6.1604318 ], [ 106.7365524, -6.1604524 ], [ 106.7365135, -6.160219 ], [ 106.7366386, -6.1601984 ], [ 106.736677500000013, -6.1604318 ] ] ], [ [ [ 106.7367718, -6.1603804 ], [ 106.7366798, -6.160395 ], [ 106.7366436, -6.1601697 ], [ 106.7367356, -6.1601551 ], [ 106.7367718, -6.1603804 ] ] ] ] } },
{ "type": "Feature", "properties": { "Nama_Stasiun": "Stasiun Buaran", "Tipe": "KRL", "roof_area_m2": 1041.046113231894 }, "geometry": { "type": "Polygon", "coordinates": [ [ [ 106.923166, -6.215451 ], [ 106.9232557, -6.215454 ], [ 106.9232627, -6.2154202 ], [ 106.9235797, -6.2154491 ], [ 106.923573500000018, -6.2155162 ], [ 106.9233807, -6.2155027 ], [ 106.923377, -6.2155517 ], [ 106.9233757, -6.2156195 ], [ 106.9233568, -6.2157165 ], [ 106.9234909, -6.2157331 ], [ 106.9234946, -6.2157733 ], [ 106.923139500000019, -6.2157217 ], [ 106.923166, -6.215451 ] ] ] } },
{ "type": "Feature", "properties": { "Nama_Stasiun": "Stasiun Cakung", "Tipe": "KRL", "roof_area_m2": 1079.8499469403941 }, "geometry": { "type": "Polygon", "coordinates": [ [ [ 106.952539200000018, -6.2189109 ], [ 106.9525373, -6.2189272 ], [ 106.9524936, -6.2193205 ], [ 106.952490600000019, -6.2193482 ], [ 106.9522913, -6.2193263 ], [ 106.9522937, -6.2193045 ], [ 106.9523378, -6.2189073 ], [ 106.9523399, -6.218889 ], [ 106.952539200000018, -6.2189109 ] ] ] } },
{ "type": "Feature", "properties": { "Nama_Stasiun": "Stasiun Cawang", "Tipe": "KRL", "roof_area_m2": 1332.9396372344168 }, "geometry": { "type": "MultiPolygon", "coordinates": [ [ [ [ 106.8585943, -6.2426157 ], [ 106.8585942, -6.2425277 ], [ 106.858639, -6.2425276 ], [ 106.8586391, -6.2426164 ], [ 106.8586563, -6.2426164 ], [ 106.8586565, -6.2427438 ], [ 106.8586005, -6.2427438 ], [ 106.8586004, -6.242645 ], [ 106.8586004, -6.2426157 ], [ 106.8585943, -6.2426157 ] ] ], [ [ [ 106.8588506, -6.2423797 ], [ 106.8588533, -6.242626 ], [ 106.8589004, -6.2426254 ], [ 106.8589016, -6.2427357 ], [ 106.8588413, -6.2427364 ], [ 106.858742600000014, -6.2427375 ], [ 106.8587404, -6.2425407 ], [ 106.858766300000013, -6.2425405 ], [ 106.8587645, -6.2423807 ], [ 106.8588506, -6.2423797 ] ] ], [ [ [ 106.8584877, -6.2420837 ], [ 106.8584942, -6.2424306 ], [ 106.8583305, -6.2424337 ], [ 106.858324, -6.2420867 ], [ 106.8584877, -6.2420837 ] ] ] ] } },
{ "type": "Feature", "properties": { "Nama_Stasiun": "Stasiun Cikini", "Tipe": "KRL", "roof_area_m2": 68.138831855945426 }, "geometry": { "type": "Polygon", "coordinates": [ [ [ 106.8408662, -6.1985817 ], [ 106.8409241, -6.1985409 ], [ 106.8409697, -6.1986049 ], [ 106.8409118, -6.1986457 ], [ 106.8408662, -6.1985817 ] ] ] } },
{ "type": "Feature", "properties": { "Nama_Stasiun": "Stasiun Duren Kalibata", "Tipe": "KRL", "roof_area_m2": 946.00572801360977 }, "geometry": { "type": "MultiPolygon", "coordinates": [ [ [ [ 106.8552274, -6.2553425 ], [ 106.8552511, -6.255353 ], [ 106.8551706, -6.255533 ], [ 106.8551455, -6.2555219 ], [ 106.8550868, -6.255653 ], [ 106.855078, -6.2556727 ], [ 106.8550138, -6.2556443 ], [ 106.8551899, -6.2552509 ], [ 106.8552187, -6.2552637 ], [ 106.8552554, -6.2552799 ], [ 106.8552274, -6.2553425 ] ] ], [ [ [ 106.8552898, -6.2552369 ], [ 106.8552732, -6.2552741 ], [ 106.8552314, -6.2552556 ], [ 106.8552481, -6.2552185 ], [ 106.8552898, -6.2552369 ] ] ], [ [ [ 106.8549029, -6.2554036 ], [ 106.8550789, -6.2550091 ], [ 106.8551297, -6.2550314 ], [ 106.8550557, -6.2551972 ], [ 106.8550849, -6.2552101 ], [ 106.8551131, -6.2552225 ], [ 106.855011, -6.2554513 ], [ 106.854944, -6.2554217 ], [ 106.8549029, -6.2554036 ] ] ] ] } },
{ "type": "Feature", "properties": { "Nama_Stasiun": "Stasiun Duri", "Tipe": "KRL", "roof_area_m2": 2944.6917447938208 }, "geometry": { "type": "Polygon", "coordinates": [ [ [ 106.8015763, -6.1555868 ], [ 106.8014462, -6.1555938 ], [ 106.8013854, -6.1555971 ], [ 106.8013796, -6.155491 ], [ 106.8013511, -6.1554926 ], [ 106.801315100000011, -6.1554945 ], [ 106.8012288, -6.1554992 ], [ 106.8011892, -6.1555014 ], [ 106.801075600000019, -6.1555075 ], [ 106.8010525, -6.1550863 ], [ 106.8011681, -6.15508 ], [ 106.8012081, -6.1550779 ], [ 106.801291, -6.1550734 ], [ 106.8013252, -6.1550715 ], [ 106.8014135, -6.1550667 ], [ 106.801574, -6.155058 ], [ 106.8015969, -6.1554756 ], [ 106.8015703, -6.155477 ], [ 106.8015763, -6.1555868 ] ] ] } },
{ "type": "Feature", "properties": { "Nama_Stasiun": "Stasiun Gambir", "Tipe": "KRL", "roof_area_m2": 6489.9019441767368 }, "geometry": { "type": "MultiPolygon", "coordinates": [ [ [ [ 106.8304936, -6.1769028 ], [ 106.8305321, -6.1768912 ], [ 106.8308923, -6.1780655 ], [ 106.8308538, -6.1780772 ], [ 106.8305303, -6.1770225 ], [ 106.8304936, -6.1769028 ] ] ], [ [ [ 106.830839400000016, -6.1767881 ], [ 106.8308789, -6.1767755 ], [ 106.83125410000001, -6.1779373 ], [ 106.8312147, -6.1779499 ], [ 106.830839400000016, -6.1767881 ] ] ], [ [ [ 106.8303514, -6.1760976 ], [ 106.8303665, -6.1760932 ], [ 106.8303243, -6.175943 ], [ 106.8303778, -6.1759291 ], [ 106.8304484, -6.1759107 ], [ 106.8305081, -6.1758952 ], [ 106.83055090000002, -6.1760367 ], [ 106.8305678, -6.1760318 ], [ 106.8306169, -6.1761971 ], [ 106.8306355, -6.1761916 ], [ 106.83070840000002, -6.1764372 ], [ 106.8307746, -6.1764177 ], [ 106.8308722, -6.1767461 ], [ 106.8308116, -6.1767639 ], [ 106.8308835, -6.1770059 ], [ 106.8308628, -6.177012 ], [ 106.8309133, -6.1771822 ], [ 106.8309022, -6.1771855 ], [ 106.8309538, -6.177359 ], [ 106.8307836, -6.1774135 ], [ 106.830716, -6.1772394 ], [ 106.830701, -6.1772438 ], [ 106.8306515, -6.1770774 ], [ 106.830623200000019, -6.1770857 ], [ 106.8305514, -6.1768438 ], [ 106.8304944, -6.1768606 ], [ 106.8303957, -6.1765284 ], [ 106.8304467, -6.1765134 ], [ 106.8303715, -6.1762604 ], [ 106.8303974, -6.1762528 ], [ 106.8303514, -6.1760976 ] ] ], [ [ [ 106.8306498, -6.1760352 ], [ 106.8307638, -6.1764043 ], [ 106.8307276, -6.1764153 ], [ 106.8306137, -6.1760462 ], [ 106.8306498, -6.1760352 ] ] ] ] } },
{ "type": "Feature", "properties": { "Nama_Stasiun": "Stasiun Gang Sentiong", "Tipe": "KRL", "roof_area_m2": 1485.4821947097475 }, "geometry": { "type": "MultiPolygon", "coordinates": [ [ [ [ 106.850713, -6.186434 ], [ 106.8507858, -6.1863897 ], [ 106.8508056, -6.1864218 ], [ 106.8507328, -6.1864661 ], [ 106.850713, -6.186434 ] ] ], [ [ [ 106.8507773, -6.1863692 ], [ 106.8507977, -6.1863532 ], [ 106.8508361, -6.1864018 ], [ 106.8508157, -6.1864178 ], [ 106.8507773, -6.1863692 ] ] ], [ [ [ 106.85059, -6.1862747 ], [ 106.850644, -6.186233 ], [ 106.8506894, -6.1862912 ], [ 106.8506354, -6.1863328 ], [ 106.85059, -6.1862747 ] ] ], [ [ [ 106.8507283, -6.186241 ], [ 106.85079, -6.1861943 ], [ 106.8508263, -6.1862419 ], [ 106.8508581, -6.1862834 ], [ 106.8508732, -6.1863031 ], [ 106.8508115, -6.1863497 ], [ 106.8507964, -6.18633 ], [ 106.850764600000019, -6.1862885 ], [ 106.8507283, -6.186241 ] ] ], [ [ [ 106.850586, -6.186163 ], [ 106.8506372, -6.1862326 ], [ 106.8505674, -6.1862833 ], [ 106.8505162, -6.1862136 ], [ 106.850586, -6.186163 ] ] ], [ [ [ 106.850732, -6.186118 ], [ 106.850786, -6.1861835 ], [ 106.8507451, -6.1862169 ], [ 106.8506773, -6.1862721 ], [ 106.8506233, -6.1862066 ], [ 106.8506911, -6.1861514 ], [ 106.850732, -6.186118 ] ] ], [ [ [ 106.8506406, -6.186104 ], [ 106.8506761, -6.1861447 ], [ 106.8506456, -6.186171 ], [ 106.8506101, -6.1861303 ], [ 106.8506406, -6.186104 ] ] ], [ [ [ 106.8506641, -6.1861167 ], [ 106.850705, -6.1860933 ], [ 106.8507195, -6.1861185 ], [ 106.8506786, -6.1861418 ], [ 106.8506641, -6.1861167 ] ] ], [ [ [ 106.85048, -6.185945 ], [ 106.8506099, -6.1860975 ], [ 106.8505529, -6.1861455 ], [ 106.850423, -6.185993 ], [ 106.85048, -6.185945 ] ] ], [ [ [ 106.850635600000018, -6.1859913 ], [ 106.850680600000018, -6.1860486 ], [ 106.850622300000012, -6.1860939 ], [ 106.850577300000012, -6.1860367 ], [ 106.850635600000018, -6.1859913 ] ] ], [ [ [ 106.8509983, -6.1864781 ], [ 106.8508944, -6.1865421 ], [ 106.850839, -6.1864533 ], [ 106.850943, -6.1863893 ], [ 106.8509983, -6.1864781 ] ] ], [ [ [ 106.8508088, -6.1864302 ], [ 106.850839, -6.1864162 ], [ 106.8508501, -6.18644 ], [ 106.85082, -6.186454 ], [ 106.8508088, -6.1864302 ] ] ], [ [ [ 106.8508145, -6.1863589 ], [ 106.85087750000001, -6.1863156 ], [ 106.8509207, -6.1863776 ], [ 106.8508577, -6.186421 ], [ 106.8508145, -6.1863589 ] ] ], [ [ [ 106.8511062, -6.1861482 ], [ 106.8510808, -6.1861536 ], [ 106.8510704, -6.1861047 ], [ 106.8510959, -6.1860994 ], [ 106.8511723, -6.1860834 ], [ 106.8511827, -6.1861322 ], [ 106.8511911, -6.1861723 ], [ 106.8511961, -6.1861957 ], [ 106.8511197, -6.1862117 ], [ 106.8511147, -6.1861883 ], [ 106.8511062, -6.1861482 ] ] ], [ [ [ 106.8508856, -6.1862345 ], [ 106.850860200000014, -6.1862539 ], [ 106.850748900000013, -6.1861092 ], [ 106.8507743, -6.1860899 ], [ 106.8508856, -6.1862345 ] ] ], [ [ [ 106.8512727, -6.1859168 ], [ 106.8510555, -6.1859561 ], [ 106.8509666, -6.1859722 ], [ 106.8509537, -6.1859021 ], [ 106.8510426, -6.185886 ], [ 106.8512599, -6.1858467 ], [ 106.8512727, -6.1859168 ] ] ] ] } },
{ "type": "Feature", "properties": { "Nama_Stasiun": "Stasiun Gondangdia", "Tipe": "KRL", "roof_area_m2": 5087.5762915665155 }, "geometry": { "type": "MultiPolygon", "coordinates": [ [ [ [ 106.8327397, -6.1859951 ], [ 106.8328166, -6.1862868 ], [ 106.8329245, -6.1866253 ], [ 106.8330309, -6.1868985 ], [ 106.8328151, -6.1869918 ], [ 106.8326074, -6.1863735 ], [ 106.8326049, -6.1863573 ], [ 106.832521, -6.1860564 ], [ 106.8325009, -6.186061 ], [ 106.83243760000002, -6.1857667 ], [ 106.8324551, -6.1857616 ], [ 106.8324036, -6.185363 ], [ 106.8326105, -6.185342 ], [ 106.8326638, -6.1856569 ], [ 106.8327397, -6.1859951 ] ] ], [ [ [ 106.8323157, -6.1861797 ], [ 106.8322895, -6.1861743 ], [ 106.8323023, -6.1861197 ], [ 106.8324558, -6.1861197 ], [ 106.8324558, -6.1862023 ], [ 106.8323191, -6.1862163 ], [ 106.8323157, -6.1861797 ] ] ], [ [ [ 106.832271600000013, -6.186102 ], [ 106.8322624, -6.1860405 ], [ 106.8323541, -6.186027 ], [ 106.8323633, -6.1860885 ], [ 106.832271600000013, -6.186102 ] ] ], [ [ [ 106.8323895, -6.1861087 ], [ 106.8323714, -6.1860203 ], [ 106.8324239, -6.1860096 ], [ 106.8324421, -6.186098 ], [ 106.8323895, -6.1861087 ] ] ], [ [ [ 106.8322802, -6.1860163 ], [ 106.8322607, -6.1859263 ], [ 106.8323258, -6.1859123 ], [ 106.832378100000014, -6.1858897 ], [ 106.8324009, -6.1859923 ], [ 106.8323553, -6.186011 ], [ 106.8322802, -6.1860163 ] ] ], [ [ [ 106.8328765, -6.185908 ], [ 106.8328275, -6.1859119 ], [ 106.8328246, -6.1858757 ], [ 106.8329094, -6.185869 ], [ 106.8329163, -6.1859563 ], [ 106.8328805, -6.1859591 ], [ 106.8328765, -6.185908 ] ] ] ] } },
{ "type": "Feature", "properties": { "Nama_Stasiun": "Stasiun Grogol", "Tipe": "KRL", "roof_area_m2": 1351.7060906131139 }, "geometry": { "type": "MultiPolygon", "coordinates": [ [ [ [ 106.7894335, -6.1623208 ], [ 106.7891514, -6.1623121 ], [ 106.789155, -6.1621956 ], [ 106.7894371, -6.1622042 ], [ 106.7894335, -6.1623208 ] ] ], [ [ [ 106.7897878, -6.1619218 ], [ 106.789704300000011, -6.1619122 ], [ 106.7897158, -6.1618142 ], [ 106.7897993, -6.1618239 ], [ 106.7897878, -6.1619218 ] ] ], [ [ [ 106.7894864, -6.1618945 ], [ 106.789379200000013, -6.1618889 ], [ 106.7893899, -6.1616842 ], [ 106.7894971, -6.1616898 ], [ 106.7894864, -6.1618945 ] ] ], [ [ [ 106.7895267, -6.1618849 ], [ 106.7895321, -6.1616556 ], [ 106.7896804, -6.161659 ], [ 106.789675, -6.1618883 ], [ 106.7895267, -6.1618849 ] ] ], [ [ [ 106.789679800000016, -6.16178490000001 ], [ 106.789701100000016, -6.1616972 ], [ 106.7898432, -6.1617312 ], [ 106.789822, -6.1618189 ], [ 106.789679800000016, -6.16178490000001 ] ] ] ] } },
{ "type": "Feature", "properties": { "Nama_Stasiun": "Stasiun Jakarta Gudang", "Tipe": "KRL", "roof_area_m2": 573.79217224847434 }, "geometry": { "type": "MultiPolygon", "coordinates": [ [ [ [ 106.8194269, -6.1333584 ], [ 106.8194152, -6.1334097 ], [ 106.8193309, -6.1333907 ], [ 106.8193256, -6.1334138 ], [ 106.8192684, -6.1334009 ], [ 106.8192739, -6.1333767 ], [ 106.819187, -6.1333571 ], [ 106.8191985, -6.133307 ], [ 106.8194269, -6.1333584 ] ] ], [ [ [ 106.8195592, -6.1333174 ], [ 106.8193715, -6.1332607 ], [ 106.819399, -6.1331707 ], [ 106.8195867, -6.1332274 ], [ 106.8195592, -6.1333174 ] ] ], [ [ [ 106.819285, -6.1331681 ], [ 106.8192461, -6.1331431 ], [ 106.819235400000011, -6.1331596 ], [ 106.8191875, -6.1331289 ], [ 106.8192805, -6.1329858 ], [ 106.8193262, -6.1330152 ], [ 106.8193144, -6.1330333 ], [ 106.8193428, -6.1330515 ], [ 106.8193133, -6.1330969 ], [ 106.819326, -6.1331051 ], [ 106.819285, -6.1331681 ] ] ] ] } },
{ "type": "Feature", "properties": { "Nama_Stasiun": "Stasiun Jakarta International Stadium", "Tipe": "KRL", "roof_area_m2": 215.55415429379133 }, "geometry": { "type": "Polygon", "coordinates": [ [ [ 106.8606657, -6.1229898 ], [ 106.8606693, -6.1229989 ], [ 106.8606875, -6.1230447 ], [ 106.8609652, -6.1229358 ], [ 106.8609547, -6.1229094 ], [ 106.8609434, -6.122881 ], [ 106.8606657, -6.1229898 ] ] ] } },
{ "type": "Feature", "properties": { "Nama_Stasiun": "Stasiun Jakarta Kota", "Tipe": "KRL", "roof_area_m2": 6544.0667191315542 }, "geometry": { "type": "Polygon", "coordinates": [ [ [ 106.8145464, -6.1370628 ], [ 106.814557, -6.137098 ], [ 106.815622, -6.13678060000001 ], [ 106.8156412, -6.1368441 ], [ 106.814593200000019, -6.1371565 ], [ 106.8148267, -6.1379481 ], [ 106.8162184, -6.1375299 ], [ 106.8162436, -6.1375906 ], [ 106.8148248, -6.1380135 ], [ 106.8148323, -6.1380385 ], [ 106.814736, -6.1380672 ], [ 106.8146537, -6.1380917 ], [ 106.8146444, -6.138061 ], [ 106.8144952, -6.1381054 ], [ 106.814466200000012, -6.1380092 ], [ 106.8144815, -6.1380046 ], [ 106.8144071, -6.1377573 ], [ 106.8143168, -6.1377841 ], [ 106.8142827, -6.1376708 ], [ 106.8142465, -6.1375504 ], [ 106.814343, -6.1375217 ], [ 106.8142675, -6.1372709 ], [ 106.814253, -6.1372753 ], [ 106.8142268, -6.1371882 ], [ 106.8143619, -6.137148 ], [ 106.8143536, -6.1371202 ], [ 106.8144569, -6.1370898 ], [ 106.8145464, -6.1370628 ] ] ] } },
{ "type": "Feature", "properties": { "Nama_Stasiun": "Stasiun Jatinegara", "Tipe": "KRL", "roof_area_m2": 4692.3699270012285 }, "geometry": { "type": "Polygon", "coordinates": [ [ [ 106.8704562, -6.215255 ], [ 106.8703542, -6.215256 ], [ 106.8703543, -6.2152721 ], [ 106.8702258, -6.2152734 ], [ 106.870225600000012, -6.2152518 ], [ 106.8700637, -6.2152534 ], [ 106.870063, -6.2151784 ], [ 106.8699814, -6.2151792 ], [ 106.8699811, -6.2151494 ], [ 106.8699755, -6.2146232 ], [ 106.8705911, -6.2146168 ], [ 106.87059690000001, -6.2151728 ], [ 106.8705981, -6.2152307 ], [ 106.8704559, -6.215232 ], [ 106.8704562, -6.215255 ] ] ] } },
{ "type": "Feature", "properties": { "Nama_Stasiun": "Stasiun Jayakarta", "Tipe": "KRL", "roof_area_m2": 4592.8754440196963 }, "geometry": { "type": "MultiPolygon", "coordinates": [ [ [ [ 106.8234479, -6.1421602 ], [ 106.8229248, -6.1412312 ], [ 106.8226808, -6.1407361 ], [ 106.822866200000021, -6.1406433 ], [ 106.8236196, -6.1420588 ], [ 106.8234479, -6.1421602 ] ] ], [ [ [ 106.8233323, -6.1412529 ], [ 106.8233309, -6.1412945 ], [ 106.8232497, -6.1412918 ], [ 106.8232511, -6.1412502 ], [ 106.8233323, -6.1412529 ] ] ], [ [ [ 106.823323500000015, -6.1412018 ], [ 106.823322300000015, -6.141237 ], [ 106.8232048, -6.1412332 ], [ 106.823206, -6.141198 ], [ 106.823323500000015, -6.1412018 ] ] ], [ [ [ 106.823327, -6.141197 ], [ 106.8231894, -6.1411925 ], [ 106.8231906, -6.141156 ], [ 106.8233282, -6.1411605 ], [ 106.823327, -6.141197 ] ] ], [ [ [ 106.8231714, -6.1411485 ], [ 106.8231753, -6.1410312 ], [ 106.8233381, -6.1410365 ], [ 106.8233342, -6.1411538 ], [ 106.8231714, -6.1411485 ] ] ] ] } },
{ "type": "Feature", "properties": { "Nama_Stasiun": "Stasiun Juanda", "Tipe": "KRL", "roof_area_m2": 8243.9852078326294 }, "geometry": { "type": "MultiPolygon", "coordinates": [ [ [ [ 106.8303156, -6.1669154 ], [ 106.8302353, -6.1669175 ], [ 106.8302319, -6.1667908 ], [ 106.8303123, -6.1667887 ], [ 106.8303156, -6.1669154 ] ] ], [ [ [ 106.8308942, -6.1668984 ], [ 106.8307333, -6.1669064 ], [ 106.8307282, -6.166806 ], [ 106.8307167, -6.1668066 ], [ 106.8307086, -6.1666457 ], [ 106.830798800000011, -6.1666412 ], [ 106.8307985, -6.166635 ], [ 106.8312747, -6.1666113 ], [ 106.8312813, -6.1667417 ], [ 106.8312482, -6.1667433 ], [ 106.8312558, -6.166895 ], [ 106.8311015, -6.1669027 ], [ 106.8310939, -6.166751 ], [ 106.8308409, -6.1667636 ], [ 106.8308419, -6.166784 ], [ 106.8308883, -6.1667817 ], [ 106.8308942, -6.1668984 ] ] ], [ [ [ 106.8303111, -6.1667695 ], [ 106.8302373, -6.1667728 ], [ 106.8302333, -6.1666848 ], [ 106.8303071, -6.1666815 ], [ 106.8303111, -6.1667695 ] ] ], [ [ [ 106.8305706, -6.166508 ], [ 106.8305875, -6.1675368 ], [ 106.830427500000013, -6.1675337 ], [ 106.8303807, -6.1675328 ], [ 106.8303558, -6.166528 ], [ 106.8303152, -6.1661845 ], [ 106.8302388, -6.1658059 ], [ 106.8304359, -6.1657645 ], [ 106.8305209, -6.1661557 ], [ 106.8305706, -6.166508 ] ] ], [ [ [ 106.8306359, -6.1665985 ], [ 106.8306331, -6.1664888 ], [ 106.830872, -6.1664782 ], [ 106.8308682, -6.1663881 ], [ 106.830752600000011, -6.1663929 ], [ 106.83075620000001, -6.1664775 ], [ 106.8306287, -6.1664827 ], [ 106.8306247, -6.1663871 ], [ 106.830725, -6.1663829 ], [ 106.8307242, -6.166363 ], [ 106.830626400000014, -6.1663671 ], [ 106.8306229, -6.1662829 ], [ 106.8307533, -6.1662776 ], [ 106.830754200000015, -6.166298 ], [ 106.83129430000001, -6.1662757 ], [ 106.8312985, -6.1663751 ], [ 106.8310923, -6.1663836 ], [ 106.8310955, -6.1664589 ], [ 106.8312785, -6.1664514 ], [ 106.8312835, -6.1665702 ], [ 106.8306359, -6.1665985 ] ] ] ] } },
{ "type": "Feature", "properties": { "Nama_Stasiun": "Stasiun Kalideres", "Tipe": "KRL", "roof_area_m2": 1463.2109400987777 }, "geometry": { "type": "MultiPolygon", "coordinates": [ [ [ [ 106.7035421, -6.166303 ], [ 106.7035408, -6.1662017 ], [ 106.7037098, -6.1661995 ], [ 106.7037111, -6.1663008 ], [ 106.7035421, -6.166303 ] ] ], [ [ [ 106.7034141, -6.1660935 ], [ 106.7035314, -6.1660869 ], [ 106.7035348, -6.1661462 ], [ 106.7034174, -6.1661528 ], [ 106.7034141, -6.1660935 ] ] ], [ [ [ 106.7034332, -6.1658252 ], [ 106.7034843, -6.1658231 ], [ 106.7034856, -6.1658565 ], [ 106.7034345, -6.1658585 ], [ 106.7034332, -6.1658252 ] ] ], [ [ [ 106.7034888, -6.1658338 ], [ 106.7034855, -6.1657665 ], [ 106.7035611, -6.1657628 ], [ 106.7035644, -6.1658301 ], [ 106.7034888, -6.1658338 ] ] ], [ [ [ 106.7035726, -6.1657578 ], [ 106.7036539, -6.1657543 ], [ 106.7036572, -6.1658303 ], [ 106.703576, -6.1658338 ], [ 106.7035726, -6.1657578 ] ] ], [ [ [ 106.7036578, -6.1656968 ], [ 106.7037407, -6.1656901 ], [ 106.70374870000002, -6.1657881 ], [ 106.7036659, -6.1657948 ], [ 106.7036578, -6.1656968 ] ] ], [ [ [ 106.7035733, -6.1657398 ], [ 106.7035713, -6.1656672 ], [ 106.7036404, -6.1656653 ], [ 106.7036424, -6.165738 ], [ 106.7035733, -6.1657398 ] ] ], [ [ [ 106.7037198, -6.1661772 ], [ 106.703786500000021, -6.1661755 ], [ 106.7037899, -6.1663068 ], [ 106.7037232, -6.1663085 ], [ 106.7037198, -6.1661772 ] ] ], [ [ [ 106.7038157, -6.1661672 ], [ 106.7038875, -6.1661682 ], [ 106.7038862, -6.1662602 ], [ 106.7038144, -6.1662592 ], [ 106.7038157, -6.1661672 ] ] ], [ [ [ 106.7038948, -6.1661412 ], [ 106.7039377, -6.1661409 ], [ 106.7039384, -6.1662396 ], [ 106.7038955, -6.1662399 ], [ 106.7038948, -6.1661412 ] ] ], [ [ [ 106.7036239, -6.1660541 ], [ 106.7040044, -6.1660014 ], [ 106.7040158, -6.1660828 ], [ 106.7036353, -6.1661355 ], [ 106.7036239, -6.1660541 ] ] ], [ [ [ 106.7037544, -6.1656708 ], [ 106.7038129, -6.1656672 ], [ 106.7038196, -6.1657739 ], [ 106.7037611, -6.1657775 ], [ 106.7037544, -6.1656708 ] ] ], [ [ [ 106.7038234, -6.1656535 ], [ 106.7039164, -6.1656496 ], [ 106.7039217, -6.1657763 ], [ 106.7038288, -6.1657802 ], [ 106.7038234, -6.1656535 ] ] ] ] } },
{ "type": "Feature", "properties": { "Nama_Stasiun": "Stasiun Kampung Bandan", "Tipe": "KRL", "roof_area_m2": 573.79217224847434 }, "geometry": { "type": "MultiPolygon", "coordinates": [ [ [ [ 106.8194269, -6.1333584 ], [ 106.8194152, -6.1334097 ], [ 106.8193309, -6.1333907 ], [ 106.8193256, -6.1334138 ], [ 106.8192684, -6.1334009 ], [ 106.8192739, -6.1333767 ], [ 106.819187, -6.1333571 ], [ 106.8191985, -6.133307 ], [ 106.8194269, -6.1333584 ] ] ], [ [ [ 106.8195592, -6.1333174 ], [ 106.8193715, -6.1332607 ], [ 106.819399, -6.1331707 ], [ 106.8195867, -6.1332274 ], [ 106.8195592, -6.1333174 ] ] ], [ [ [ 106.819285, -6.1331681 ], [ 106.8192461, -6.1331431 ], [ 106.819235400000011, -6.1331596 ], [ 106.8191875, -6.1331289 ], [ 106.8192805, -6.1329858 ], [ 106.8193262, -6.1330152 ], [ 106.8193144, -6.1330333 ], [ 106.8193428, -6.1330515 ], [ 106.8193133, -6.1330969 ], [ 106.819326, -6.1331051 ], [ 106.819285, -6.1331681 ] ] ] ] } },
{ "type": "Feature", "properties": { "Nama_Stasiun": "Stasiun Karet", "Tipe": "KRL", "roof_area_m2": 632.45446887860589 }, "geometry": { "type": "MultiPolygon", "coordinates": [ [ [ [ 106.816314, -6.2009053 ], [ 106.8163013, -6.2009615 ], [ 106.8162413, -6.2009481 ], [ 106.8162386, -6.2009602 ], [ 106.8156908, -6.2008381 ], [ 106.8157062, -6.2007699 ], [ 106.816314, -6.2009053 ] ] ], [ [ [ 106.8160738, -6.2006487 ], [ 106.8160416, -6.2006407 ], [ 106.8160586, -6.2005731 ], [ 106.8160908, -6.2005811 ], [ 106.8160738, -6.2006487 ] ] ], [ [ [ 106.8160339, -6.2006371 ], [ 106.8159963, -6.2006291 ], [ 106.816015, -6.2005418 ], [ 106.8160527, -6.2005498 ], [ 106.8160339, -6.2006371 ] ] ], [ [ [ 106.8159935, -6.2006145 ], [ 106.8159641, -6.2006078 ], [ 106.8159876, -6.2005071 ], [ 106.816017, -6.2005139 ], [ 106.8159935, -6.2006145 ] ] ] ] } },
{ "type": "Feature", "properties": { "Nama_Stasiun": "Stasiun Kebayoran", "Tipe": "KRL", "roof_area_m2": 4603.6246366943269 }, "geometry": { "type": "MultiPolygon", "coordinates": [ [ [ [ 106.7828486, -6.2368382 ], [ 106.7825256, -6.2377888 ], [ 106.7824953, -6.2378687 ], [ 106.7821906, -6.2377655 ], [ 106.7822983, -6.2374512 ], [ 106.782316200000011, -6.2374573 ], [ 106.7823287, -6.2374209 ], [ 106.7823126, -6.2374155 ], [ 106.7824061, -6.2371427 ], [ 106.7824214, -6.2371479 ], [ 106.7824548, -6.2370503 ], [ 106.7824237, -6.2370398 ], [ 106.7823912, -6.2370288 ], [ 106.7824973, -6.2367192 ], [ 106.7828486, -6.2368382 ] ] ], [ [ [ 106.7823007, -6.2371201 ], [ 106.782235, -6.2371048 ], [ 106.7822501, -6.2370408 ], [ 106.782315800000021, -6.2370561 ], [ 106.7823007, -6.2371201 ] ] ], [ [ [ 106.7823364, -6.2370485 ], [ 106.7822492, -6.2370312 ], [ 106.7822642, -6.2369568 ], [ 106.7823513, -6.2369742 ], [ 106.7823364, -6.2370485 ] ] ] ] } },
{ "type": "Feature", "properties": { "Nama_Stasiun": "Stasiun Kemayoran", "Tipe": "KRL", "roof_area_m2": 1141.9737527078219 }, "geometry": { "type": "MultiPolygon", "coordinates": [ [ [ [ 106.8415202, -6.1619954 ], [ 106.841431900000018, -6.1620222 ], [ 106.8414008, -6.161921 ], [ 106.8414891, -6.1618942 ], [ 106.8415202, -6.1619954 ] ] ], [ [ [ 106.841261100000011, -6.1619245 ], [ 106.841066, -6.1619864 ], [ 106.8410365, -6.1618944 ], [ 106.8412316, -6.1618325 ], [ 106.841261100000011, -6.1619245 ] ] ], [ [ [ 106.8412093, -6.1618233 ], [ 106.8410992, -6.1618534 ], [ 106.841077, -6.1617734 ], [ 106.8411872, -6.1617433 ], [ 106.8412093, -6.1618233 ] ] ], [ [ [ 106.8413827, -6.1619199 ], [ 106.8413436, -6.1617971 ], [ 106.8412837, -6.161816 ], [ 106.841257100000021, -6.1617323 ], [ 106.8413257, -6.1617107 ], [ 106.8412754, -6.1615527 ], [ 106.841386, -6.161517899999989 ], [ 106.8415021, -6.1618823 ], [ 106.8413827, -6.1619199 ] ] ], [ [ [ 106.8412713, -6.1614869 ], [ 106.841258, -6.1614456 ], [ 106.8413106, -6.1614288 ], [ 106.8413239, -6.1614702 ], [ 106.8412713, -6.1614869 ] ] ] ] } },
{ "type": "Feature", "properties": { "Nama_Stasiun": "Stasiun Klender", "Tipe": "KRL", "roof_area_m2": 1450.0002372997744 }, "geometry": { "type": "MultiPolygon", "coordinates": [ [ [ [ 106.8992638, -6.213118 ], [ 106.8991031, -6.2131148 ], [ 106.8991043, -6.2130578 ], [ 106.8995413, -6.2130663 ], [ 106.8995401, -6.2131282 ], [ 106.8994906, -6.2131272 ], [ 106.8994852, -6.2134032 ], [ 106.899530900000016, -6.213404 ], [ 106.89953, -6.2134477 ], [ 106.8990983, -6.2134392 ], [ 106.899099300000017, -6.2133899 ], [ 106.8992584, -6.213393 ], [ 106.8992638, -6.213118 ] ] ], [ [ [ 106.899571100000017, -6.2130639 ], [ 106.8997174, -6.2130667 ], [ 106.8997161, -6.2131336 ], [ 106.8995698, -6.2131307 ], [ 106.899571100000017, -6.2130639 ] ] ] ] } },
{ "type": "Feature", "properties": { "Nama_Stasiun": "Stasiun Klender Baru", "Tipe": "KRL", "roof_area_m2": 1108.9150149392599 }, "geometry": { "type": "Polygon", "coordinates": [ [ [ 106.9400973, -6.2177178 ], [ 106.9398966, -6.2176926 ], [ 106.9398947, -6.2177075 ], [ 106.9398921, -6.2177285 ], [ 106.9403072, -6.2177806 ], [ 106.9403496, -6.2174476 ], [ 106.939937, -6.2173957 ], [ 106.93993020000002, -6.2174488 ], [ 106.9401284, -6.2174738 ], [ 106.9400973, -6.2177178 ] ] ] } },
{ "type": "Feature", "properties": { "Nama_Stasiun": "Stasiun Kramat", "Tipe": "KRL", "roof_area_m2": 1143.2840672236839 }, "geometry": { "type": "MultiPolygon", "coordinates": [ [ [ [ 106.8564055, -6.1939545 ], [ 106.856314600000019, -6.1939495 ], [ 106.8563226, -6.1938029 ], [ 106.8564136, -6.1938078 ], [ 106.8564055, -6.1939545 ] ] ], [ [ [ 106.8565924, -6.1938458 ], [ 106.8565657, -6.1938685 ], [ 106.8564719, -6.193746 ], [ 106.8565, -6.1937217 ], [ 106.8565924, -6.1938458 ] ] ], [ [ [ 106.8569037, -6.1936859 ], [ 106.8569064, -6.1937326 ], [ 106.8567803, -6.1937593 ], [ 106.8567709, -6.1937166 ], [ 106.8567723, -6.1936779 ], [ 106.8567977, -6.1936646 ], [ 106.8568031, -6.1936379 ], [ 106.856783, -6.1936299 ], [ 106.8568004, -6.1935806 ], [ 106.8569064, -6.1935913 ], [ 106.8569037, -6.1936859 ] ] ], [ [ [ 106.8563272, -6.1936731 ], [ 106.8562185, -6.1935256 ], [ 106.8563033, -6.193465 ], [ 106.8564147, -6.1936088 ], [ 106.8563272, -6.1936731 ] ] ], [ [ [ 106.8567071, -6.1935157 ], [ 106.8566105, -6.1934944 ], [ 106.856689100000011, -6.1931426 ], [ 106.8567857, -6.1931639 ], [ 106.8567071, -6.1935157 ] ] ] ] } },
{ "type": "Feature", "properties": { "Nama_Stasiun": "Stasiun Lenteng Agung", "Tipe": "KRL", "roof_area_m2": 379.21558637087043 }, "geometry": { "type": "MultiPolygon", "coordinates": [ [ [ [ 106.8345508, -6.3304469 ], [ 106.8346079, -6.3305893 ], [ 106.8345251, -6.3306221 ], [ 106.834468, -6.3304797 ], [ 106.8345508, -6.3304469 ] ] ], [ [ [ 106.8345188, -6.3304341 ], [ 106.834435200000016, -6.3304747 ], [ 106.8343779, -6.3303582 ], [ 106.8344615, -6.3303176 ], [ 106.8345188, -6.3304341 ] ] ], [ [ [ 106.8344651, -6.3303009 ], [ 106.8344073, -6.3303289 ], [ 106.8343712, -6.3302555 ], [ 106.8344291, -6.3302275 ], [ 106.8344651, -6.3303009 ] ] ] ] } },
{ "type": "Feature", "properties": { "Nama_Stasiun": "Stasiun Mangga Besar", "Tipe": "KRL", "roof_area_m2": 4065.9730041256748 }, "geometry": { "type": "Polygon", "coordinates": [ [ [ 106.8268435, -6.1496549 ], [ 106.8268946, -6.1499555 ], [ 106.8269204, -6.1499512 ], [ 106.8270156, -6.1505118 ], [ 106.8272093, -6.1504792 ], [ 106.82711, -6.1498952 ], [ 106.827132300000017, -6.1498914 ], [ 106.8270823, -6.1495971 ], [ 106.8270569, -6.1496014 ], [ 106.8269321, -6.1488667 ], [ 106.8267435, -6.1488984 ], [ 106.8268713, -6.1496502 ], [ 106.8268435, -6.1496549 ] ] ] } },
{ "type": "Feature", "properties": { "Nama_Stasiun": "Stasiun Manggarai", "Tipe": "KRL", "roof_area_m2": 10888.099538774664 }, "geometry": { "type": "Polygon", "coordinates": [ [ [ 106.8491955, -6.2100955 ], [ 106.850012300000017, -6.2094917 ], [ 106.8501286, -6.2096471 ], [ 106.8500134, -6.2097322 ], [ 106.8504887, -6.2103674 ], [ 106.8497869, -6.2108862 ], [ 106.8492598, -6.2101815 ], [ 106.8491955, -6.2100955 ] ] ] } },
{ "type": "Feature", "properties": { "Nama_Stasiun": "Stasiun Matraman", "Tipe": "KRL", "roof_area_m2": 977.47571535089787 }, "geometry": { "type": "MultiPolygon", "coordinates": [ [ [ [ 106.8597978, -6.2128315 ], [ 106.8598313, -6.2129148 ], [ 106.859774, -6.2129376 ], [ 106.8597405, -6.2128543 ], [ 106.8597978, -6.2128315 ] ] ], [ [ [ 106.8605668, -6.2122025 ], [ 106.8605829, -6.2122402 ], [ 106.860558200000014, -6.2122507 ], [ 106.8589126, -6.212948 ], [ 106.858896500000014, -6.2129104 ], [ 106.8605668, -6.2122025 ] ] ] ] } },
{ "type": "Feature", "properties": { "Nama_Stasiun": "Stasiun Palmerah", "Tipe": "KRL", "roof_area_m2": 3192.5612102745863 }, "geometry": { "type": "Polygon", "coordinates": [ [ [ 106.7975418, -6.2069605 ], [ 106.7977392, -6.2070488 ], [ 106.7972789, -6.2080655 ], [ 106.7971544, -6.2080098 ], [ 106.7970824, -6.2079776 ], [ 106.797225, -6.2076626 ], [ 106.7972051, -6.2076537 ], [ 106.797409, -6.2072035 ], [ 106.7973718, -6.2071868 ], [ 106.797435600000014, -6.2070457 ], [ 106.7974919, -6.2070709 ], [ 106.7975418, -6.2069605 ] ] ] } },
{ "type": "Feature", "properties": { "Nama_Stasiun": "Stasiun Pasar Minggu", "Tipe": "KRL", "roof_area_m2": 297.28640986207745 }, "geometry": { "type": "Polygon", "coordinates": [ [ [ 106.8451136, -6.2829036 ], [ 106.8452157, -6.2829199 ], [ 106.8451782, -6.2831518 ], [ 106.8450761, -6.2831355 ], [ 106.8451136, -6.2829036 ] ] ] } },
{ "type": "Feature", "properties": { "Nama_Stasiun": "Stasiun Pasar Minggu Baru", "Tipe": "KRL", "roof_area_m2": 769.08324840008072 }, "geometry": { "type": "MultiPolygon", "coordinates": [ [ [ [ 106.851971, -6.2630641 ], [ 106.8519288, -6.2630441 ], [ 106.8519462, -6.2630077 ], [ 106.8519884, -6.2630277 ], [ 106.851971, -6.2630641 ] ] ], [ [ [ 106.8520937, -6.2630446 ], [ 106.8520002, -6.2630006 ], [ 106.8520279, -6.2629423 ], [ 106.8521215, -6.2629863 ], [ 106.8520937, -6.2630446 ] ] ], [ [ [ 106.8519871, -6.2629961 ], [ 106.8519489, -6.2629766 ], [ 106.8519878, -6.2629013 ], [ 106.852026, -6.2629208 ], [ 106.8519871, -6.2629961 ] ] ], [ [ [ 106.8520367, -6.2629334 ], [ 106.8520611, -6.2628844 ], [ 106.8521506, -6.2629284 ], [ 106.8521262, -6.2629774 ], [ 106.8520367, -6.2629334 ] ] ], [ [ [ 106.8519878, -6.2628873 ], [ 106.8520179, -6.262834 ], [ 106.852057, -6.2628558 ], [ 106.8520269, -6.2629091 ], [ 106.8519878, -6.2628873 ] ] ], [ [ [ 106.8521292, -6.2629109 ], [ 106.8520595, -6.2628729 ], [ 106.8520885, -6.2628203 ], [ 106.8521583, -6.2628583 ], [ 106.8521292, -6.2629109 ] ] ], [ [ [ 106.8520571, -6.2628508 ], [ 106.85203, -6.262836 ], [ 106.8520555, -6.26279 ], [ 106.8520826, -6.2628048 ], [ 106.8520571, -6.2628508 ] ] ], [ [ [ 106.8521608, -6.2628416 ], [ 106.8520957, -6.262813 ], [ 106.8521269, -6.2627431 ], [ 106.8521919, -6.2627718 ], [ 106.8521608, -6.2628416 ] ] ], [ [ [ 106.8519446, -6.2626904 ], [ 106.8518682, -6.2628504 ], [ 106.8518187, -6.262827 ], [ 106.8518952, -6.2626671 ], [ 106.8519446, -6.2626904 ] ] ], [ [ [ 106.8518002, -6.2625053 ], [ 106.8518622, -6.2625326 ], [ 106.8517367, -6.2628146 ], [ 106.8516747, -6.2627873 ], [ 106.8518002, -6.2625053 ] ] ] ] } },
{ "type": "Feature", "properties": { "Nama_Stasiun": "Stasiun Pasar Senen", "Tipe": "KRL", "roof_area_m2": 1754.9330464678383 }, "geometry": { "type": "Polygon", "coordinates": [ [ [ 106.8440918, -6.1742627 ], [ 106.8442234, -6.1742123 ], [ 106.8442676, -6.1743264 ], [ 106.844227600000011, -6.1743417 ], [ 106.844298, -6.1745237 ], [ 106.8443375, -6.1745085 ], [ 106.8445059, -6.1749434 ], [ 106.8444674, -6.1749581 ], [ 106.8445401, -6.1751461 ], [ 106.8445788, -6.1751313 ], [ 106.8446336, -6.175273 ], [ 106.8445855, -6.1752914 ], [ 106.8445021, -6.1753233 ], [ 106.844498, -6.1753127 ], [ 106.8440918, -6.1742627 ] ] ] } },
{ "type": "Feature", "properties": { "Nama_Stasiun": "Stasiun Pasoso", "Tipe": "KRL", "roof_area_m2": 959.84172520959237 }, "geometry": { "type": "Polygon", "coordinates": [ [ [ 106.8857165, -6.1096458 ], [ 106.88563, -6.1096433 ], [ 106.885522, -6.1096402 ], [ 106.8854609, -6.1096384 ], [ 106.885388, -6.1096363 ], [ 106.8853076, -6.109634 ], [ 106.8852007, -6.1096309 ], [ 106.885154, -6.1096296 ], [ 106.885158, -6.1094903 ], [ 106.8852047, -6.1094917 ], [ 106.8853116, -6.1094948 ], [ 106.885392, -6.1094971 ], [ 106.8854649, -6.1094992 ], [ 106.8855261, -6.1095009 ], [ 106.8856341, -6.109504 ], [ 106.8857205, -6.1095065 ], [ 106.8857165, -6.1096458 ] ] ] } },
{ "type": "Feature", "properties": { "Nama_Stasiun": "Stasiun Pegangsaan", "Tipe": "KRL", "roof_area_m2": 68.138831855945426 }, "geometry": { "type": "Polygon", "coordinates": [ [ [ 106.8408662, -6.1985817 ], [ 106.8409241, -6.1985409 ], [ 106.8409697, -6.1986049 ], [ 106.8409118, -6.1986457 ], [ 106.8408662, -6.1985817 ] ] ] } },
{ "type": "Feature", "properties": { "Nama_Stasiun": "Stasiun Pesing", "Tipe": "KRL", "roof_area_m2": 1732.4133433141424 }, "geometry": { "type": "MultiPolygon", "coordinates": [ [ [ [ 106.7716518, -6.1614891 ], [ 106.7716732, -6.1613518 ], [ 106.7719414, -6.1613931 ], [ 106.77192, -6.1615304 ], [ 106.7716518, -6.1614891 ] ] ], [ [ [ 106.7716579, -6.1612725 ], [ 106.7716533, -6.1613061 ], [ 106.7714444, -6.1612779 ], [ 106.7714374, -6.161277 ], [ 106.7714351, -6.1612938 ], [ 106.7713654, -6.1612844 ], [ 106.7713677, -6.1612676 ], [ 106.7713569, -6.1612661 ], [ 106.771364, -6.1612138 ], [ 106.7716604, -6.1612538 ], [ 106.7716579, -6.1612725 ] ] ], [ [ [ 106.771761, -6.1610031 ], [ 106.7718375, -6.1610164 ], [ 106.7718167, -6.1611344 ], [ 106.7717402, -6.1611211 ], [ 106.771761, -6.1610031 ] ] ], [ [ [ 106.7718382, -6.161113 ], [ 106.7718556, -6.1610144 ], [ 106.7719098, -6.1610239 ], [ 106.7718924, -6.1611224 ], [ 106.7718382, -6.161113 ] ] ], [ [ [ 106.7716725, -6.1610158 ], [ 106.7717431, -6.1610281 ], [ 106.7717268, -6.1611204 ], [ 106.7716562, -6.1611081 ], [ 106.7716725, -6.1610158 ] ] ], [ [ [ 106.7719085, -6.1609318 ], [ 106.7719684, -6.1609422 ], [ 106.7719561, -6.1610118 ], [ 106.7718963, -6.1610013 ], [ 106.7719085, -6.1609318 ] ] ], [ [ [ 106.77177, -6.1609874 ], [ 106.7717845, -6.1609051 ], [ 106.7718365, -6.1609142 ], [ 106.771822, -6.1609964 ], [ 106.77177, -6.1609874 ] ] ], [ [ [ 106.7721197, -6.1613764 ], [ 106.7722215, -6.1613907 ], [ 106.7722036, -6.1615171 ], [ 106.7721019, -6.1615029 ], [ 106.7721197, -6.1613764 ] ] ], [ [ [ 106.7720205, -6.1613664 ], [ 106.7721063, -6.1613784 ], [ 106.7720979, -6.1614378 ], [ 106.7720121, -6.1614258 ], [ 106.7720205, -6.1613664 ] ] ], [ [ [ 106.772159300000013, -6.1610411 ], [ 106.7722282, -6.1610531 ], [ 106.7722089, -6.1611624 ], [ 106.77214, -6.1611504 ], [ 106.772159300000013, -6.1610411 ] ] ], [ [ [ 106.7719327, -6.1610378 ], [ 106.7720191, -6.1610528 ], [ 106.772007800000011, -6.1611171 ], [ 106.7719213, -6.161102 ], [ 106.7719327, -6.1610378 ] ] ], [ [ [ 106.7720574, -6.1609438 ], [ 106.7721604, -6.1609617 ], [ 106.7721285, -6.1611431 ], [ 106.7720254, -6.1611251 ], [ 106.7720574, -6.1609438 ] ] ], [ [ [ 106.771985, -6.1609364 ], [ 106.7720439, -6.1609467 ], [ 106.772027900000012, -6.1610378 ], [ 106.7719689, -6.1610275 ], [ 106.771985, -6.1609364 ] ] ] ] } },
{ "type": "Feature", "properties": { "Nama_Stasiun": "Stasiun Pondok Jati", "Tipe": "KRL", "roof_area_m2": 1282.2546602285011 }, "geometry": { "type": "MultiPolygon", "coordinates": [ [ [ [ 106.862053900000021, -6.2093703 ], [ 106.8620489, -6.2093208 ], [ 106.8622011, -6.2093054 ], [ 106.8622061, -6.2093549 ], [ 106.862053900000021, -6.2093703 ] ] ], [ [ [ 106.8620345, -6.2093159 ], [ 106.8620272, -6.2092702 ], [ 106.862134, -6.2092532 ], [ 106.862137, -6.2092716 ], [ 106.8621414, -6.209299 ], [ 106.8620345, -6.2093159 ] ] ], [ [ [ 106.8620294, -6.209236 ], [ 106.8621112, -6.2092267 ], [ 106.8621132, -6.2092439 ], [ 106.862031400000021, -6.2092533 ], [ 106.8620294, -6.209236 ] ] ], [ [ [ 106.862124, -6.2091967 ], [ 106.8622071, -6.2091867 ], [ 106.8622126, -6.2092318 ], [ 106.8621295, -6.2092418 ], [ 106.862124, -6.2091967 ] ] ], [ [ [ 106.8619818, -6.2092094 ], [ 106.8620925, -6.2091987 ], [ 106.8620939, -6.2092139 ], [ 106.8619833, -6.2092245 ], [ 106.8619818, -6.2092094 ] ] ], [ [ [ 106.8620917, -6.2091886 ], [ 106.8619641, -6.2092002 ], [ 106.8619562, -6.2091141 ], [ 106.8620838, -6.2091025 ], [ 106.8620917, -6.2091886 ] ] ], [ [ [ 106.862102900000011, -6.2091097 ], [ 106.8621564, -6.2091055 ], [ 106.8621617, -6.2091729 ], [ 106.8621083, -6.2091771 ], [ 106.862102900000011, -6.2091097 ] ] ], [ [ [ 106.8621888, -6.2094037 ], [ 106.8621836, -6.2093767 ], [ 106.8622473, -6.2093647 ], [ 106.8622525, -6.2093917 ], [ 106.8621888, -6.2094037 ] ] ], [ [ [ 106.86254820000002, -6.2092657 ], [ 106.8626218, -6.2092512 ], [ 106.8626473, -6.2093792 ], [ 106.8625737, -6.2093937 ], [ 106.86254820000002, -6.2092657 ] ] ], [ [ [ 106.8621615, -6.2092534 ], [ 106.8622132, -6.209246 ], [ 106.862218, -6.2092794 ], [ 106.8621663, -6.2092868 ], [ 106.8621615, -6.2092534 ] ] ], [ [ [ 106.86257070000002, -6.2091682 ], [ 106.8625212, -6.2091756 ], [ 106.8625017, -6.2090482 ], [ 106.8625714, -6.2090377 ], [ 106.8625769, -6.2090743 ], [ 106.8626271, -6.2090667 ], [ 106.8626416, -6.2091619 ], [ 106.8625713, -6.2091725 ], [ 106.86257070000002, -6.2091682 ] ] ], [ [ [ 106.8621925, -6.2090174 ], [ 106.8622105, -6.2090127 ], [ 106.8621772, -6.2088853 ], [ 106.8622159, -6.2088753 ], [ 106.8623161, -6.2092596 ], [ 106.8622594, -6.2092742 ], [ 106.8621925, -6.2090174 ] ] ], [ [ [ 106.8625204, -6.2090347 ], [ 106.8625175, -6.2090225 ], [ 106.8624909, -6.2090288 ], [ 106.8624707, -6.208944 ], [ 106.86250440000002, -6.2089361 ], [ 106.8624973, -6.208906 ], [ 106.8625462, -6.2088944 ], [ 106.8625539, -6.2089266 ], [ 106.8625667, -6.2089236 ], [ 106.8625593, -6.2088924 ], [ 106.8625998, -6.2088829 ], [ 106.8626128, -6.2089372 ], [ 106.8625813, -6.2089447 ], [ 106.8625838, -6.2089553 ], [ 106.8626057, -6.2089501 ], [ 106.862618, -6.2090009 ], [ 106.8626294, -6.2090485 ], [ 106.8625807, -6.20906 ], [ 106.8625718, -6.2090225 ], [ 106.8625204, -6.2090347 ] ] ], [ [ [ 106.862413, -6.2088447 ], [ 106.8624901, -6.208832 ], [ 106.8625006, -6.2088951 ], [ 106.8624235, -6.2089078 ], [ 106.862413, -6.2088447 ] ] ] ] } },
{ "type": "Feature", "properties": { "Nama_Stasiun": "Stasiun Rawa Buaya", "Tipe": "KRL", "roof_area_m2": 217.83811577418959 }, "geometry": { "type": "MultiPolygon", "coordinates": [ [ [ [ 106.7227287, -6.1630335 ], [ 106.7226698, -6.1630425 ], [ 106.7226618, -6.1629905 ], [ 106.7227207, -6.1629815 ], [ 106.7227287, -6.1630335 ] ] ], [ [ [ 106.7226324, -6.1630211 ], [ 106.7225572, -6.1630298 ], [ 106.722551100000018, -6.1629785 ], [ 106.7226263, -6.1629697 ], [ 106.7226324, -6.1630211 ] ] ], [ [ [ 106.722825, -6.1630113 ], [ 106.7227396, -6.1630265 ], [ 106.7227295, -6.1629705 ], [ 106.7228149, -6.1629553 ], [ 106.722825, -6.1630113 ] ] ], [ [ [ 106.7229561, -6.1629789 ], [ 106.7228589, -6.1629991 ], [ 106.7228469, -6.1629418 ], [ 106.722944, -6.1629216 ], [ 106.7229561, -6.1629789 ] ] ] ] } },
{ "type": "Feature", "properties": { "Nama_Stasiun": "Stasiun Sawah Besar", "Tipe": "KRL", "roof_area_m2": 5445.5054451057558 }, "geometry": { "type": "MultiPolygon", "coordinates": [ [ [ [ 106.8278253, -6.1615475 ], [ 106.8275457, -6.1607812 ], [ 106.8274069, -6.1600862 ], [ 106.8276416, -6.1600395 ], [ 106.827785, -6.1607129 ], [ 106.8280396, -6.1614556 ], [ 106.8278253, -6.1615475 ] ] ], [ [ [ 106.8280358, -6.1607724 ], [ 106.8278684, -6.1608317 ], [ 106.8278478, -6.1607743 ], [ 106.8280152, -6.160715 ], [ 106.8280358, -6.1607724 ] ] ], [ [ [ 106.8273789, -6.160764 ], [ 106.8273468, -6.1607537 ], [ 106.827338, -6.1607807 ], [ 106.8271471, -6.1607192 ], [ 106.827159600000016, -6.1606807 ], [ 106.827222, -6.1607008 ], [ 106.8272321, -6.16067 ], [ 106.827392700000019, -6.1607217 ], [ 106.8273789, -6.160764 ] ] ], [ [ [ 106.8280141, -6.1607118 ], [ 106.8278543, -6.1607683 ], [ 106.8278391, -6.1607252 ], [ 106.8279969, -6.1606707 ], [ 106.8280141, -6.1607118 ] ] ], [ [ [ 106.8274531, -6.1606509 ], [ 106.8274325, -6.160728 ], [ 106.8273631, -6.1607097 ], [ 106.8273802, -6.1606455 ], [ 106.827334, -6.1606333 ], [ 106.827358100000012, -6.1605427 ], [ 106.8274396, -6.1605641 ], [ 106.827418800000018, -6.1606419 ], [ 106.8274531, -6.1606509 ] ] ], [ [ [ 106.8280293, -6.160603 ], [ 106.8278664, -6.1606543 ], [ 106.8278513, -6.1606071 ], [ 106.8280143, -6.1605558 ], [ 106.8280293, -6.160603 ] ] ], [ [ [ 106.8280163, -6.1605523 ], [ 106.827857, -6.1606013 ], [ 106.8278357, -6.160533 ], [ 106.827995, -6.160484 ], [ 106.8280163, -6.1605523 ] ] ], [ [ [ 106.8279898, -6.160479 ], [ 106.827827500000012, -6.1605277 ], [ 106.8278034, -6.1604481 ], [ 106.8279656, -6.1603994 ], [ 106.8279898, -6.160479 ] ] ], [ [ [ 106.8278248, -6.160392 ], [ 106.8278389, -6.160431 ], [ 106.8277938, -6.1604471 ], [ 106.8277797, -6.1604081 ], [ 106.8278248, -6.160392 ] ] ] ] } },
{ "type": "Feature", "properties": { "Nama_Stasiun": "Stasiun Sudirman", "Tipe": "KRL", "roof_area_m2": 2880.6233382443947 }, "geometry": { "type": "Polygon", "coordinates": [ [ [ 106.8232181, -6.2024425 ], [ 106.8247853, -6.2028245 ], [ 106.824792700000017, -6.2027943 ], [ 106.824798700000017, -6.2027698 ], [ 106.8236766, -6.20249670000001 ], [ 106.8236809, -6.2024803 ], [ 106.8236881, -6.2024501 ], [ 106.823692800000018, -6.2024311 ], [ 106.825042, -6.2027595 ], [ 106.8250483, -6.202734 ], [ 106.8250548, -6.2027075 ], [ 106.8243493, -6.2025357 ], [ 106.823686, -6.2023742 ], [ 106.8236941, -6.2023411 ], [ 106.8233197, -6.2022499 ], [ 106.8232688, -6.2022376 ], [ 106.8232633, -6.2022599 ], [ 106.8232537, -6.2022986 ], [ 106.8232424, -6.2023449 ], [ 106.8232354, -6.2023736 ], [ 106.8232255, -6.2024125 ], [ 106.8232181, -6.2024425 ] ] ] } },
{ "type": "Feature", "properties": { "Nama_Stasiun": "Stasiun Sungai Lagoa", "Tipe": "KRL", "roof_area_m2": 556.11287965092401 }, "geometry": { "type": "MultiPolygon", "coordinates": [ [ [ [ 106.8777211, -6.112176 ], [ 106.8777057, -6.1121454 ], [ 106.8777331, -6.1121318 ], [ 106.8777485, -6.1121624 ], [ 106.8777211, -6.112176 ] ] ], [ [ [ 106.8776259, -6.1121137 ], [ 106.8776621, -6.1120991 ], [ 106.8776981, -6.1121868 ], [ 106.8776618, -6.1122015 ], [ 106.8776259, -6.1121137 ] ] ], [ [ [ 106.8778592, -6.1121324 ], [ 106.8779238, -6.1120999 ], [ 106.8779519, -6.1121553 ], [ 106.87788740000002, -6.1121877 ], [ 106.8778592, -6.1121324 ] ] ], [ [ [ 106.8777184, -6.1120891 ], [ 106.8777533, -6.1120718 ], [ 106.8777895, -6.1121438 ], [ 106.8777546, -6.1121611 ], [ 106.8777184, -6.1120891 ] ] ], [ [ [ 106.87782110000002, -6.1120811 ], [ 106.8778382, -6.1121251 ], [ 106.8777955, -6.1121415 ], [ 106.877778100000015, -6.1120967 ], [ 106.8777635, -6.1120592 ], [ 106.8777895, -6.1120493 ], [ 106.8778043, -6.1120875 ], [ 106.87782110000002, -6.1120811 ] ] ], [ [ [ 106.8778378, -6.1120831 ], [ 106.8778803, -6.1120677 ], [ 106.877891, -6.112097 ], [ 106.8778485, -6.1121124 ], [ 106.8778378, -6.1120831 ] ] ], [ [ [ 106.8777935, -6.1120417 ], [ 106.8778595, -6.1120198 ], [ 106.8778716, -6.1120559 ], [ 106.8778056, -6.1120777 ], [ 106.8777935, -6.1120417 ] ] ], [ [ [ 106.8779618, -6.1121511 ], [ 106.8779303, -6.1120957 ], [ 106.8779795, -6.112068 ], [ 106.8780111, -6.1121233 ], [ 106.8779618, -6.1121511 ] ] ], [ [ [ 106.8780141, -6.1120464 ], [ 106.878041, -6.1120312 ], [ 106.8780832, -6.112105 ], [ 106.8780572, -6.1121197 ], [ 106.8780709, -6.1121437 ], [ 106.8780424, -6.1121599 ], [ 106.8779864, -6.112062 ], [ 106.8780141, -6.1120464 ] ] ], [ [ [ 106.8778692, -6.1120156 ], [ 106.8779346, -6.1119879 ], [ 106.8779684, -6.112067 ], [ 106.877903, -6.1120946 ], [ 106.8778692, -6.1120156 ] ] ], [ [ [ 106.8780369, -6.1120064 ], [ 106.878063400000016, -6.1119926 ], [ 106.8780848, -6.1120333 ], [ 106.8780584, -6.112047 ], [ 106.8780369, -6.1120064 ] ] ], [ [ [ 106.8780758, -6.111959 ], [ 106.8781248, -6.1119373 ], [ 106.8781529, -6.112 ], [ 106.878104, -6.1120217 ], [ 106.8780758, -6.111959 ] ] ], [ [ [ 106.877984, -6.1119604 ], [ 106.8780305, -6.1119389 ], [ 106.8780567, -6.1119949 ], [ 106.8780101, -6.1120164 ], [ 106.877984, -6.1119604 ] ] ], [ [ [ 106.878053, -6.1119284 ], [ 106.8780899, -6.111899 ], [ 106.8781101, -6.1119242 ], [ 106.8780732, -6.1119535 ], [ 106.878053, -6.1119284 ] ] ] ] } },
{ "type": "Feature", "properties": { "Nama_Stasiun": "Stasiun Taman Kota", "Tipe": "KRL", "roof_area_m2": 1641.936025975037 }, "geometry": { "type": "MultiPolygon", "coordinates": [ [ [ [ 106.756448, -6.1588779 ], [ 106.7565056, -6.158886 ], [ 106.7564922, -6.15898 ], [ 106.7564346, -6.1589719 ], [ 106.756448, -6.1588779 ] ] ], [ [ [ 106.7565365, -6.1587553 ], [ 106.7566479, -6.1587673 ], [ 106.7566324, -6.15891 ], [ 106.756521, -6.158898 ], [ 106.7565365, -6.1587553 ] ] ], [ [ [ 106.756521100000015, -6.1587687 ], [ 106.7565103, -6.1588673 ], [ 106.7564247, -6.1588581 ], [ 106.7564354, -6.1587595 ], [ 106.756521100000015, -6.1587687 ] ] ], [ [ [ 106.7563326, -6.1588447 ], [ 106.7563407, -6.158752 ], [ 106.7564253, -6.1587593 ], [ 106.7564173, -6.1588519 ], [ 106.7563326, -6.1588447 ] ] ], [ [ [ 106.7562942, -6.1586905 ], [ 106.756345900000014, -6.1586972 ], [ 106.7563332, -6.1587939 ], [ 106.7562815, -6.1587872 ], [ 106.7562942, -6.1586905 ] ] ], [ [ [ 106.7563579, -6.1586888 ], [ 106.7564428, -6.1587005 ], [ 106.7564349, -6.1587569 ], [ 106.7563501, -6.1587452 ], [ 106.7563579, -6.1586888 ] ] ], [ [ [ 106.7567226, -6.1589016 ], [ 106.7567333, -6.1588403 ], [ 106.7568419, -6.158859 ], [ 106.7568313, -6.1589203 ], [ 106.7567226, -6.1589016 ] ] ], [ [ [ 106.7567088, -6.1587737 ], [ 106.7567859, -6.158792 ], [ 106.7567738, -6.1588424 ], [ 106.7566967, -6.1588241 ], [ 106.7567088, -6.1587737 ] ] ], [ [ [ 106.756972800000014, -6.1586362 ], [ 106.756969200000015, -6.158653 ], [ 106.7566953, -6.1585959 ], [ 106.7566997, -6.1585759 ], [ 106.7564285, -6.1585165 ], [ 106.7564388, -6.1584698 ], [ 106.7568596, -6.1585618 ], [ 106.7568508, -6.1586027 ], [ 106.7569744, -6.1586287 ], [ 106.756972800000014, -6.1586362 ] ] ], [ [ [ 106.756829, -6.1584978 ], [ 106.7569195, -6.1585232 ], [ 106.7569075, -6.1585656 ], [ 106.756817, -6.1585402 ], [ 106.756829, -6.1584978 ] ] ], [ [ [ 106.7568078, -6.1582294 ], [ 106.7568835, -6.1582521 ], [ 106.7568006, -6.158526 ], [ 106.7567249, -6.1585034 ], [ 106.7568078, -6.1582294 ] ] ], [ [ [ 106.756685, -6.1582481 ], [ 106.7567762, -6.1582714 ], [ 106.7567188, -6.1584933 ], [ 106.756627600000016, -6.15847 ], [ 106.756685, -6.1582481 ] ] ] ] } },
{ "type": "Feature", "properties": { "Nama_Stasiun": "Stasiun Tanah Abang", "Tipe": "KRL", "roof_area_m2": 8133.8832871038994 }, "geometry": { "type": "MultiPolygon", "coordinates": [ [ [ [ 106.811469, -6.1884785 ], [ 106.8114007, -6.1884827 ], [ 106.8113664, -6.1884841 ], [ 106.8109908, -6.1849552 ], [ 106.8110117, -6.1849538 ], [ 106.8110917, -6.1849518 ], [ 106.8111138, -6.1849516 ], [ 106.8111364, -6.1849513 ], [ 106.811216, -6.1856783 ], [ 106.8112536, -6.1860259 ], [ 106.8115167, -6.1884775 ], [ 106.811469, -6.1884785 ] ] ], [ [ [ 106.811063300000015, -6.1858919 ], [ 106.8107126, -6.1859289 ], [ 106.8106711, -6.1855396 ], [ 106.811021900000014, -6.1855027 ], [ 106.811063300000015, -6.1858919 ] ] ] ] } },
{ "type": "Feature", "properties": { "Nama_Stasiun": "Stasiun Tanjung Barat", "Tipe": "KRL", "roof_area_m2": 7339.3959802524078 }, "geometry": { "type": "MultiPolygon", "coordinates": [ [ [ [ 106.838525, -6.3094435 ], [ 106.8384974, -6.3094468 ], [ 106.8382124, -6.3094023 ], [ 106.8381803, -6.3093974 ], [ 106.8382003, -6.3092707 ], [ 106.8382819, -6.3089962 ], [ 106.8383825, -6.308791 ], [ 106.8385139, -6.3086976 ], [ 106.8385541, -6.3084644 ], [ 106.8386977, -6.3081427 ], [ 106.8387592, -6.3081524 ], [ 106.8388336, -6.308164 ], [ 106.8388876, -6.3078465 ], [ 106.8390401, -6.3078722 ], [ 106.838818, -6.3091781 ], [ 106.8386655, -6.3091524 ], [ 106.8388018, -6.3083512 ], [ 106.8387295, -6.3083399 ], [ 106.8386775, -6.3086678 ], [ 106.8386492, -6.3088462 ], [ 106.8385643, -6.3093825 ], [ 106.8385531, -6.3094185 ], [ 106.838525, -6.3094435 ] ] ], [ [ [ 106.8390195, -6.307803 ], [ 106.8390846, -6.3074117 ], [ 106.8391273, -6.3074187 ], [ 106.8390622, -6.30781 ], [ 106.8390195, -6.307803 ] ] ] ] } },
{ "type": "Feature", "properties": { "Nama_Stasiun": "Stasiun Tanjung Priok", "Tipe": "KRL", "roof_area_m2": 12733.266869172876 }, "geometry": { "type": "Polygon", "coordinates": [ [ [ 106.8818202, -6.1108628 ], [ 106.8818487, -6.1109009 ], [ 106.8817634, -6.1109639 ], [ 106.8817362, -6.1109276 ], [ 106.881633, -6.1110071 ], [ 106.881555, -6.110907 ], [ 106.8803956, -6.1118007 ], [ 106.880141, -6.1114741 ], [ 106.8810129, -6.110802 ], [ 106.8809426, -6.1107118 ], [ 106.8813712, -6.1103814 ], [ 106.8813466, -6.1103498 ], [ 106.8813591, -6.1103401 ], [ 106.8813378, -6.1103128 ], [ 106.8813827, -6.1102781 ], [ 106.8814056, -6.1103075 ], [ 106.8815488, -6.1101971 ], [ 106.8815387, -6.1101842 ], [ 106.881625, -6.1101176 ], [ 106.8817035, -6.1102183 ], [ 106.881692, -6.1102272 ], [ 106.8817711, -6.1103287 ], [ 106.8818231, -6.1102887 ], [ 106.8818572, -6.1103324 ], [ 106.8819073, -6.1102956 ], [ 106.8819718, -6.1103826 ], [ 106.8819238, -6.1104179 ], [ 106.881959, -6.1104631 ], [ 106.881901, -6.1105078 ], [ 106.8819798, -6.1106089 ], [ 106.8819981, -6.1105948 ], [ 106.8820738, -6.1106918 ], [ 106.8819829, -6.1107618 ], [ 106.881971, -6.1107465 ], [ 106.8818202, -6.1108628 ] ] ] } },
{ "type": "Feature", "properties": { "Nama_Stasiun": "Stasiun Tebet", "Tipe": "KRL", "roof_area_m2": 1042.6095636731702 }, "geometry": { "type": "MultiPolygon", "coordinates": [ [ [ [ 106.8587371, -6.2259574 ], [ 106.8587398, -6.226328 ], [ 106.858594700000012, -6.226329 ], [ 106.8585921, -6.2259584 ], [ 106.8587371, -6.2259574 ] ] ], [ [ [ 106.8583347, -6.2258788 ], [ 106.8583369, -6.2262305 ], [ 106.8582476, -6.2262311 ], [ 106.8582454, -6.2258793 ], [ 106.8583347, -6.2258788 ] ] ] ] } },
{ "type": "Feature", "properties": { "Nama_Stasiun": "Stasiun Universitas Pancasila", "Tipe": "KRL", "roof_area_m2": 41.951099889431028 }, "geometry": { "type": "Polygon", "coordinates": [ [ [ 106.8342392, -6.3390469 ], [ 106.8342758, -6.3390555 ], [ 106.8342548, -6.3391442 ], [ 106.8342182, -6.3391357 ], [ 106.8342392, -6.3390469 ] ] ] } }
]
}
