{
"type": "FeatureCollection",
"name": "lrt_jabodebek_stations",
"crs": { "type": "name", "properties": { "name": "urn:ogc:def:crs:OGC:1.3:CRS84" } },
"features": [
{ "type": "Feature", "properties": { "element": "node", "id": 4907843137, "addr:city": "Jakarta", "addr:postcode": "13650", "addr:street": "Jalan Taman Mini I", "light_rail": "yes", "name": "Taman Mini", "network": "LRT Jabodebek", "operator": "PT Kereta Api Indonesia (Persero), Divisi LRT Jabodebek", "public_transport": "station", "railway": "station", "source": "HOT_InAWARESurvey_2017", "station": "light_rail", "wikidata": "Q19726721", "wikipedia": "id:Stasiun LRT TMII", "network:wikidata": null, "name:th": null, "old_name": null, "railway:ref": null, "building": null, "train": null }, "geometry": { "type": "Point", "coordinates": [ 106.8805584, -6.2929088 ] } },
{ "type": "Feature", "properties": { "element": "node", "id": 6720467131, "addr:city": "Jakarta", "addr:postcode": null, "addr:street": null, "light_rail": "yes", "name": "Cikoko", "network": "LRT Jabodebek", "operator": "PT Kereta Api Indonesia (Persero), Divisi LRT Jabodebek", "public_transport": "station", "railway": "station", "source": null, "station": "light_rail", "wikidata": "Q10166205", "wikipedia": "id:Stasiun LRT Cikoko", "network:wikidata": "Q20427104", "name:th": null, "old_name": null, "railway:ref": null, "building": null, "train": null }, "geometry": { "type": "Point", "coordinates": [ 106.8570718, -6.2434846 ] } },
{ "type": "Feature", "properties": { "element": "node", "id": 6720467132, "addr:city": "Jakarta", "addr:postcode": null, "addr:street": null, "light_rail": "yes", "name": "Pancoran", "network": "LRT Jabodebek", "operator": "PT Kereta Api Indonesia (Persero), Divisi LRT Jabodebek", "public_transport": "station", "railway": "station", "source": null, "station": "light_rail", "wikidata": "Q10166185", "wikipedia": "id:Stasiun LRT Pancoran", "network:wikidata": "Q20427104", "name:th": null, "old_name": null, "railway:ref": null, "building": null, "train": null }, "geometry": { "type": "Point", "coordinates": [ 106.8385146, -6.2421415 ] } },
{ "type": "Feature", "properties": { "element": "node", "id": 6720467135, "addr:city": "Jakarta", "addr:postcode": null, "addr:street": null, "light_rail": "yes", "name": "Setiabudi", "network": "LRT Jabodebek", "operator": "PT Kereta Api Indonesia (Persero), Divisi LRT Jabodebek", "public_transport": "station", "railway": "station", "source": null, "station": "light_rail", "wikidata": "Q21177475", "wikipedia": "id:Stasiun LRT Setiabudi", "network:wikidata": "Q20427104", "name:th": null, "old_name": null, "railway:ref": null, "building": null, "train": null }, "geometry": { "type": "Point", "coordinates": [ 106.8302343, -6.2093224 ] } },
{ "type": "Feature", "properties": { "element": "node", "id": 6720467136, "addr:city": "Jakarta", "addr:postcode": null, "addr:street": null, "light_rail": "yes", "name": "Rasuna Said", "network": "LRT Jabodebek", "operator": "PT Kereta Api Indonesia (Persero), Divisi LRT Jabodebek", "public_transport": "station", "railway": "station", "source": null, "station": "light_rail", "wikidata": "Q25580740", "wikipedia": "id:Stasiun LRT Rasuna Said", "network:wikidata": "Q20427104", "name:th": null, "old_name": null, "railway:ref": null, "building": null, "train": null }, "geometry": { "type": "Point", "coordinates": [ 106.8322373, -6.2216089 ] } },
{ "type": "Feature", "properties": { "element": "node", "id": 6720467137, "addr:city": "Jakarta", "addr:postcode": null, "addr:street": null, "light_rail": "yes", "name": "Kampung Rambutan", "network": "LRT Jabodebek", "operator": "PT Kereta Api Indonesia (Persero), Divisi LRT Jabodebek", "public_transport": "station", "railway": "station", "source": null, "station": "light_rail", "wikidata": "Q19752040", "wikipedia": "id:Stasiun LRT Kampung Rambutan", "network:wikidata": null, "name:th": null, "old_name": null, "railway:ref": null, "building": null, "train": null }, "geometry": { "type": "Point", "coordinates": [ 106.8843804, -6.3095494 ] } },
{ "type": "Feature", "properties": { "element": "node", "id": 6720467138, "addr:city": "Depok", "addr:postcode": null, "addr:street": null, "light_rail": "yes", "name": "Harjamukti", "network": "LRT Jabodebek", "operator": "PT Kereta Api Indonesia (Persero), Divisi LRT Jabodebek", "public_transport": "station", "railway": "station", "source": null, "station": "light_rail", "wikidata": "Q28163959", "wikipedia": "id:Stasiun LRT Harjamukti", "network:wikidata": null, "name:th": null, "old_name": null, "railway:ref": null, "building": null, "train": null }, "geometry": { "type": "Point", "coordinates": [ 106.8956698, -6.3738926 ] } },
{ "type": "Feature", "properties": { "element": "node", "id": 7616402144, "addr:city": "Jakarta", "addr:postcode": null, "addr:street": null, "light_rail": "yes", "name": "Jatimulya", "network": "LRT Jabodebek", "operator": "PT Kereta Api Indonesia (Persero), Divisi LRT Jabodebek", "public_transport": "station", "railway": "station", "source": null, "station": "light_rail", "wikidata": "Q19741279", "wikipedia": "id:Stasiun LRT Jati Mulya", "network:wikidata": null, "name:th": null, "old_name": null, "railway:ref": null, "building": null, "train": null }, "geometry": { "type": "Point", "coordinates": [ 107.0216701, -6.2641077 ] } },
{ "type": "Feature", "properties": { "element": "node", "id": 8174072563, "addr:city": "Jakarta", "addr:postcode": null, "addr:street": null, "light_rail": "yes", "name": "Bekasi Barat", "network": "LRT Jabodebek", "operator": "PT Kereta Api Indonesia (Persero), Divisi LRT Jabodebek", "public_transport": "station", "railway": "station", "source": null, "station": "light_rail", "wikidata": "Q33022844", "wikipedia": "id:Stasiun LRT Bekasi Barat", "network:wikidata": null, "name:th": null, "old_name": null, "railway:ref": null, "building": null, "train": null }, "geometry": { "type": "Point", "coordinates": [ 106.9904237, -6.2529489 ] } },
{ "type": "Feature", "properties": { "element": "node", "id": 8174072564, "addr:city": "Jakarta", "addr:postcode": null, "addr:street": "Jalan Batu Mulia", "light_rail": "yes", "name": "Cikunir 2", "network": "LRT Jabodebek", "operator": "PT Kereta Api Indonesia (Persero), Divisi LRT Jabodebek", "public_transport": "station", "railway": "station", "source": null, "station": "light_rail", "wikidata": "Q33022543", "wikipedia": "id:Stasiun LRT Cikunir 2", "network:wikidata": null, "name:th": null, "old_name": null, "railway:ref": null, "building": null, "train": null }, "geometry": { "type": "Point", "coordinates": [ 106.9632112, -6.2546502 ] } },
{ "type": "Feature", "properties": { "element": "node", "id": 8174072565, "addr:city": "Kota Bekasi", "addr:postcode": null, "addr:street": "Jalan Caman Raya", "light_rail": "yes", "name": "Cikunir 1", "network": "LRT Jabodebek", "operator": "PT Kereta Api Indonesia (Persero), Divisi LRT Jabodebek", "public_transport": "station", "railway": "station", "source": null, "station": "light_rail", "wikidata": "Q33022012", "wikipedia": "id:Stasiun LRT Cikunir 1", "network:wikidata": null, "name:th": null, "old_name": null, "railway:ref": null, "building": null, "train": null }, "geometry": { "type": "Point", "coordinates": [ 106.9518734, -6.2566001 ] } },
{ "type": "Feature", "properties": { "element": "node", "id": 8174072566, "addr:city": "Jakarta", "addr:postcode": null, "addr:street": null, "light_rail": "yes", "name": "Jatibening Baru", "network": "LRT Jabodebek", "operator": "PT Kereta Api Indonesia (Persero), Divisi LRT Jabodebek", "public_transport": "station", "railway": "station", "source": null, "station": "light_rail", "wikidata": "Q33020703", "wikipedia": "id:Stasiun LRT Jati Bening Baru", "network:wikidata": null, "name:th": null, "old_name": null, "railway:ref": null, "building": null, "train": null }, "geometry": { "type": "Point", "coordinates": [ 106.9279199, -6.2577476 ] } },
{ "type": "Feature", "properties": { "element": "node", "id": 8174072567, "addr:city": "Jakarta", "addr:postcode": null, "addr:street": null, "light_rail": "yes", "name": "Kuningan", "network": "LRT Jabodebek", "operator": "PT Kereta Api Indonesia (Persero), Divisi LRT Jabodebek", "public_transport": "station", "railway": "station", "source": null, "station": "light_rail", "wikidata": "Q10166373", "wikipedia": "id:Stasiun LRT Kuningan", "network:wikidata": "Q20427104", "name:th": null, "old_name": null, "railway:ref": null, "building": null, "train": null }, "geometry": { "type": "Point", "coordinates": [ 106.8332031, -6.2287727 ] } },
{ "type": "Feature", "properties": { "element": "node", "id": 8174072568, "addr:city": "Jakarta", "addr:postcode": "13650", "addr:street": null, "light_rail": "yes", "name": "Ciracas", "network": "LRT Jabodebek", "operator": "PT Kereta Api Indonesia (Persero), Divisi LRT Jabodebek", "public_transport": "station", "railway": "station", "source": "HOT_InAWARESurvey_2017", "station": "light_rail", "wikidata": "Q19726743", "wikipedia": "id:Stasiun LRT Ciracas", "network:wikidata": null, "name:th": null, "old_name": null, "railway:ref": null, "building": null, "train": null }, "geometry": { "type": "Point", "coordinates": [ 106.8866433, -6.3237693 ] } },
{ "type": "Feature", "properties": { "element": "node", "id": 8174072570, "addr:city": "Jakarta", "addr:postcode": null, "addr:street": null, "light_rail": "yes", "name": "Dukuh Atas Bank Syariah Indonesia", "network": "LRT Jabodebek", "operator": "PT Kereta Api Indonesia (Persero), Divisi LRT Jabodebek", "public_transport": "station", "railway": "station", "source": null, "station": "light_rail", "wikidata": "Q19740981", "wikipedia": "id:Stasiun LRT Dukuh Atas BNI", "network:wikidata": "Q20427104", "name:th": "ดูกุฮ์อาตัซ", "old_name": "Dukuh Atas", "railway:ref": null, "building": null, "train": null }, "geometry": { "type": "Point", "coordinates": [ 106.8255301, -6.204828 ] } },
{ "type": "Feature", "properties": { "element": "node", "id": 8487603262, "addr:city": "Jakarta", "addr:postcode": null, "addr:street": null, "light_rail": "yes", "name": "Ciliwung", "network": "LRT Jabodebek", "operator": "PT Kereta Api Indonesia (Persero), Divisi LRT Jabodebek", "public_transport": "station", "railway": "station", "source": null, "station": "light_rail", "wikidata": "Q10166356", "wikipedia": "id:Stasiun LRT Ciliwung", "network:wikidata": "Q20427104", "name:th": null, "old_name": null, "railway:ref": null, "building": null, "train": null }, "geometry": { "type": "Point", "coordinates": [ 106.8639705, -6.2434461 ] } },
{ "type": "Feature", "properties": { "element": "node", "id": 9761865798, "addr:city": "Jakarta", "addr:postcode": null, "addr:street": null, "light_rail": "yes", "name": "Halim", "network": "LRT Jabodebek", "operator": "PT Kereta Api Indonesia (Persero), Divisi LRT Jabodebek", "public_transport": "station", "railway": "station", "source": null, "station": "light_rail", "wikidata": "Q111590566", "wikipedia": "id:Stasiun Halim", "network:wikidata": null, "name:th": null, "old_name": null, "railway:ref": "HAL", "building": null, "train": null }, "geometry": { "type": "Point", "coordinates": [ 106.8872875, -6.2458656 ] } },
{ "type": "Feature", "properties": { "element": "node", "id": 12260707174, "addr:city": "Jakarta", "addr:postcode": null, "addr:street": null, "light_rail": "yes", "name": "Cawang", "network": "LRT Jabodebek", "operator": "PT Kereta Api Indonesia (Persero), Divisi LRT Jabodebek", "public_transport": "station", "railway": "station", "source": null, "station": "light_rail", "wikidata": "Q19726745", "wikipedia": "id:Stasiun LRT Cawang", "network:wikidata": "Q20427104", "name:th": null, "old_name": null, "railway:ref": null, "building": null, "train": null }, "geometry": { "type": "Point", "coordinates": [ 106.8712296, -6.245907 ] } },
{ "type": "Feature", "properties": { "element": "way", "id": 1317109479, "addr:city": "Jakarta", "addr:postcode": null, "addr:street": null, "light_rail": null, "name": null, "network": "LRT Jabodebek", "operator": "PT Kereta Api Indonesia (Persero), Divisi LRT Jabodebek", "public_transport": null, "railway": null, "source": null, "station": null, "wikidata": "Q19726745", "wikipedia": "id:Stasiun LRT Cawang", "network:wikidata": null, "name:th": null, "old_name": null, "railway:ref": null, "building": "train_station", "train": "yes" }, "geometry": { "type": "Polygon", "coordinates": [ [ [ 106.8707257, -6.2455734 ], [ 106.870715, -6.2456138 ], [ 106.8707082, -6.2456394 ], [ 106.8706762, -6.2457606 ], [ 106.8706626, -6.245812 ], [ 106.8706289, -6.2459394 ], [ 106.8708038, -6.2459851 ], [ 106.8708655, -6.2460012 ], [ 106.8711969, -6.2461363 ], [ 106.8717336, -6.2462279 ], [ 106.8717578, -6.2461361 ], [ 106.8717655, -6.2461071 ], [ 106.8717917, -6.2460079 ], [ 106.8718066, -6.2459515 ], [ 106.8718303, -6.245862 ], [ 106.8707257, -6.2455734 ] ] ] } }
]
}
