{
"type": "FeatureCollection",
"name": "lrt_jkt_stations",
"crs": { "type": "name", "properties": { "name": "urn:ogc:def:crs:OGC:1.3:CRS84" } },
"features": [
{ "type": "Feature", "properties": { "element": "node", "id": 5984702926, "light_rail": "yes", "name": "Boulevard Utara", "network": "LRT Jakarta", "operator": "PT LRT Jakarta", "public_transport": "station", "railway": "station", "station": "light_rail", "wikidata": "Q65760424", "wikipedia": "id:Stasiun LRT Boulevard Utara Summarecon Mall", "train": null, "addr:city": null, "addr:country": null, "construction:railway": null, "note": null, "check_date": null, "start_date": null, "construction": null, "landuse": null }, "geometry": { "type": "Point", "coordinates": [ 106.9059815, -6.1594366 ] } },
{ "type": "Feature", "properties": { "element": "node", "id": 5984702927, "light_rail": "yes", "name": "Boulevard Selatan", "network": "LRT Jakarta", "operator": "PT LRT Jakarta", "public_transport": "station", "railway": "station", "station": "light_rail", "wikidata": "Q9970006", "wikipedia": "id:Stasiun LRT Boulevard Selatan", "train": null, "addr:city": null, "addr:country": null, "construction:railway": null, "note": null, "check_date": null, "start_date": null, "construction": null, "landuse": null }, "geometry": { "type": "Point", "coordinates": [ 106.9000145, -6.1689933 ] } },
{ "type": "Feature", "properties": { "element": "node", "id": 5984702928, "light_rail": "yes", "name": "Pulomas", "network": "LRT Jakarta", "operator": "PT LRT Jakarta", "public_transport": "station", "railway": "station", "station": "light_rail", "wikidata": "Q9971976", "wikipedia": "id:Stasiun LRT Pulomas", "train": null, "addr:city": null, "addr:country": null, "construction:railway": null, "note": null, "check_date": null, "start_date": null, "construction": null, "landuse": null }, "geometry": { "type": "Point", "coordinates": [ 106.8933929, -6.1773105 ] } },
{ "type": "Feature", "properties": { "element": "node", "id": 5984702929, "light_rail": "yes", "name": "Equestrian", "network": "LRT Jakarta", "operator": "PT LRT Jakarta", "public_transport": "station", "railway": "station", "station": "light_rail", "wikidata": "Q25329601", "wikipedia": "id:Stasiun LRT Equestrian", "train": null, "addr:city": null, "addr:country": null, "construction:railway": null, "note": null, "check_date": null, "start_date": null, "construction": null, "landuse": null }, "geometry": { "type": "Point", "coordinates": [ 106.8912789, -6.1840567 ] } },
{ "type": "Feature", "properties": { "element": "node", "id": 5984702930, "light_rail": "yes", "name": "Velodrome", "network": "LRT Jakarta", "operator": "PT LRT Jakarta", "public_transport": "station", "railway": "station", "station": "light_rail", "wikidata": "Q20462389", "wikipedia": "id:Stasiun LRT Velodrome", "train": "yes", "addr:city": null, "addr:country": null, "construction:railway": null, "note": null, "check_date": null, "start_date": null, "construction": null, "landuse": null }, "geometry": { "type": "Point", "coordinates": [ 106.8911771, -6.1921316 ] } },
{ "type": "Feature", "properties": { "element": "node", "id": 5984702931, "light_rail": "yes", "name": "Pegangsaan Dua", "network": "LRT Jakarta", "operator": "PT LRT Jakarta", "public_transport": "station", "railway": "station", "station": "light_rail", "wikidata": "Q8708716", "wikipedia": null, "train": null, "addr:city": "DKI Jakarta", "addr:country": "ID", "construction:railway": null, "note": null, "check_date": null, "start_date": null, "construction": null, "landuse": null }, "geometry": { "type": "Point", "coordinates": [ 106.9142091, -6.1572135 ] } },
{ "type": "Feature", "properties": { "element": "node", "id": 11179200351, "light_rail": "yes", "name": "Manggarai", "network": "LRT Jakarta", "operator": "PT LRT Jakarta", "public_transport": "station", "railway": "construction", "station": "light_rail", "wikidata": null, "wikipedia": null, "train": "yes", "addr:city": null, "addr:country": null, "construction:railway": "station", "note": "Do not add railway=station and/or public_transport=station tags before operational service", "check_date": null, "start_date": null, "construction": null, "landuse": null }, "geometry": { "type": "Point", "coordinates": [ 106.844446, -6.2082438 ] } },
{ "type": "Feature", "properties": { "element": "node", "id": 11179200352, "light_rail": "yes", "name": "Matraman", "network": "LRT Jakarta", "operator": "PT LRT Jakarta", "public_transport": "station", "railway": "construction", "station": "light_rail", "wikidata": null, "wikipedia": null, "train": "yes", "addr:city": null, "addr:country": null, "construction:railway": "station", "note": "Do not add railway=station and/or public_transport=station tags before operational service", "check_date": "2023-10-30", "start_date": "2026", "construction": null, "landuse": null }, "geometry": { "type": "Point", "coordinates": [ 106.8501212, -6.2021671 ] } },
{ "type": "Feature", "properties": { "element": "node", "id": 11179200353, "light_rail": "yes", "name": "Pasar Pramuka", "network": "LRT Jakarta", "operator": "PT LRT Jakarta", "public_transport": "station", "railway": "construction", "station": "light_rail", "wikidata": null, "wikipedia": null, "train": "yes", "addr:city": null, "addr:country": null, "construction:railway": "station", "note": "Do not add railway=station and/or public_transport=station tags before operational service", "check_date": "2023-10-30", "start_date": "2026", "construction": null, "landuse": null }, "geometry": { "type": "Point", "coordinates": [ 106.8588799, -6.195812 ] } },
{ "type": "Feature", "properties": { "element": "node", "id": 11179200354, "light_rail": "yes", "name": "Pramuka BPKP", "network": "LRT Jakarta", "operator": "PT LRT Jakarta", "public_transport": "station", "railway": "construction", "station": "light_rail", "wikidata": null, "wikipedia": null, "train": "yes", "addr:city": null, "addr:country": null, "construction:railway": "station", "note": "Do not add railway=station and/or public_transport=station tags before operational service", "check_date": "2023-10-30", "start_date": "2026", "construction": null, "landuse": null }, "geometry": { "type": "Point", "coordinates": [ 106.870737, -6.1920206 ] } },
{ "type": "Feature", "properties": { "element": "node", "id": 11179200355, "light_rail": "yes", "name": "Rawamangun", "network": "LRT Jakarta", "operator": "PT LRT Jakarta", "public_transport": "station", "railway": "construction", "station": "light_rail", "wikidata": null, "wikipedia": null, "train": "yes", "addr:city": null, "addr:country": null, "construction:railway": "station", "note": "Do not add railway=station and/or public_transport=station tags before operational service", "check_date": null, "start_date": null, "construction": null, "landuse": null }, "geometry": { "type": "Point", "coordinates": [ 106.8825717, -6.193143 ] } },
{ "type": "Feature", "properties": { "element": "way", "id": 1350021871, "light_rail": null, "name": "Stasiun LRT Rawamangun", "network": "LRT Jakarta", "operator": "PT LRT Jakarta", "public_transport": null, "railway": null, "station": null, "wikidata": null, "wikipedia": null, "train": null, "addr:city": null, "addr:country": null, "construction:railway": null, "note": null, "check_date": null, "start_date": null, "construction": "light_rail", "landuse": "construction" }, "geometry": { "type": "Polygon", "coordinates": [ [ [ 106.8820467, -6.1930047 ], [ 106.8820294, -6.1931707 ], [ 106.8830967, -6.1932809 ], [ 106.8831141, -6.1931148 ], [ 106.8820467, -6.1930047 ] ] ] } },
{ "type": "Feature", "properties": { "element": "way", "id": 1350021872, "light_rail": null, "name": "Stasiun LRT Manggarai", "network": "LRT Jakarta", "operator": "PT LRT Jakarta", "public_transport": null, "railway": null, "station": null, "wikidata": null, "wikipedia": null, "train": null, "addr:city": null, "addr:country": null, "construction:railway": null, "note": null, "check_date": null, "start_date": null, "construction": "light_rail", "landuse": "construction" }, "geometry": { "type": "Polygon", "coordinates": [ [ [ 106.8436237, -6.2078819 ], [ 106.8435733, -6.2080283 ], [ 106.8452583, -6.2086053 ], [ 106.8453096, -6.2084533 ], [ 106.8436237, -6.2078819 ] ] ] } },
{ "type": "Feature", "properties": { "element": "way", "id": 1512938840, "light_rail": null, "name": "Stasiun LRT Pramuka BPKP", "network": "LRT Jakarta", "operator": "PT LRT Jakarta", "public_transport": null, "railway": null, "station": null, "wikidata": null, "wikipedia": null, "train": null, "addr:city": null, "addr:country": null, "construction:railway": null, "note": null, "check_date": null, "start_date": null, "construction": "light_rail", "landuse": "construction" }, "geometry": { "type": "Polygon", "coordinates": [ [ [ 106.8701778, -6.1919687 ], [ 106.8701962, -6.1921705 ], [ 106.8712748, -6.1920735 ], [ 106.8712565, -6.191872 ], [ 106.8701778, -6.1919687 ] ] ] } },
{ "type": "Feature", "properties": { "element": "way", "id": 1512938841, "light_rail": null, "name": "Stasiun LRT Pasar Pramuka", "network": "LRT Jakarta", "operator": "PT LRT Jakarta", "public_transport": null, "railway": null, "station": null, "wikidata": null, "wikipedia": null, "train": null, "addr:city": null, "addr:country": null, "construction:railway": null, "note": null, "check_date": null, "start_date": null, "construction": "light_rail", "landuse": "construction" }, "geometry": { "type": "Polygon", "coordinates": [ [ [ 106.8584571, -6.1959815 ], [ 106.8585708, -6.196145 ], [ 106.8593091, -6.1956377 ], [ 106.8591956, -6.1954743 ], [ 106.8584571, -6.1959815 ] ] ] } },
{ "type": "Feature", "properties": { "element": "way", "id": 1512938842, "light_rail": null, "name": "Stasiun LRT Matraman", "network": "LRT Jakarta", "operator": "PT LRT Jakarta", "public_transport": null, "railway": null, "station": null, "wikidata": null, "wikipedia": null, "train": null, "addr:city": null, "addr:country": null, "construction:railway": null, "note": null, "check_date": null, "start_date": null, "construction": "light_rail", "landuse": "construction" }, "geometry": { "type": "Polygon", "coordinates": [ [ [ 106.8496998, -6.2023731 ], [ 106.8497741, -6.2024824 ], [ 106.8505465, -6.2019633 ], [ 106.8504722, -6.2018542 ], [ 106.8496998, -6.2023731 ] ] ] } }
]
}
