{
  "type": "FeatureCollection",
  "crs": {
    "type": "name",
    "properties": {
      "name": "urn:ogc:def:crs:OGC:1.3:CRS84"
    }
  },
  "features": [
    {
      "type": "Feature",
      "properties": {
        "asset_id": "AIR-001",
        "name": "Bandara Soekarno-Hatta (Terminal 3)",
        "aeroway": "terminal",
        "category": "airport",
        "category_display": "Bandara",
        "city_regency": "Kota Tangerang",
        "osm_way_id": "395874320",
        "operator": "PT Angkasa Pura Indonesia (InJourney Aviation Services)"
      },
      "geometry": {
        "type": "Point",
        "coordinates": [
          106.662502,
          -6.1199302
        ]
      }
    }
  ]
}