{
"type": "FeatureCollection",
"name": "commercial_jakarta",
"crs": { "type": "name", "properties": { "name": "urn:ogc:def:crs:OGC:1.3:CRS84" } },
"features": [
{ "type": "Feature", "properties": { "osm_id": "way/83489551", "name": "Pondok Indah Mall 1", "alt_name": "PIM 1", "category": "mall", "operator": "PT. Metropolitan Kencana, Tbk", "building": "yes", "building_levels": "8", "addr_street": "Jalan Pondok Indah Blok II-B Pondok Indah", "addr_city": "Jakarta Selatan", "centroid_lat": -6.2653322572320658, "centroid_lon": 106.78458415956801 }, "geometry": { "type": "Polygon", "coordinates": [ [ [ 106.7841978, -6.2662023 ], [ 106.7838651, -6.2662118 ], [ 106.7838649, -6.2663468 ], [ 106.7839373, -6.2663465 ], [ 106.7840856, -6.2663445 ], [ 106.7846437, -6.2663378 ], [ 106.7846579, -6.2663728 ], [ 106.7846837, -6.2664011 ], [ 106.7847108, -6.266423 ], [ 106.7847447, -6.2664381 ], [ 106.784785, -6.2664409 ], [ 106.784827, -6.2664215 ], [ 106.7848738, -6.2663803 ], [ 106.7850161, -6.2662596 ], [ 106.7850653, -6.2662398 ], [ 106.7851103, -6.2662051 ], [ 106.7851404, -6.2661711 ], [ 106.7851673, -6.266128 ], [ 106.7851727, -6.2660913 ], [ 106.785172, -6.2660557 ], [ 106.7851603, -6.2659368 ], [ 106.7851723, -6.2659362 ], [ 106.7851708, -6.2658681 ], [ 106.7851931, -6.2658692 ], [ 106.785172, -6.2654299 ], [ 106.7851966, -6.2654252 ], [ 106.7851909, -6.2652226 ], [ 106.7849956, -6.2652301 ], [ 106.7849812, -6.26431 ], [ 106.7848074, -6.2641689 ], [ 106.7846962, -6.2641711 ], [ 106.7846468, -6.2642319 ], [ 106.7842071, -6.26424 ], [ 106.784206, -6.2642587 ], [ 106.7841649, -6.2642587 ], [ 106.7841135, -6.264212 ], [ 106.7840859, -6.2642518 ], [ 106.7841147, -6.2648892 ], [ 106.7838033, -6.2648945 ], [ 106.7838061, -6.2650052 ], [ 106.7841071, -6.2650069 ], [ 106.7841321, -6.2656522 ], [ 106.7841479, -6.2656533 ], [ 106.7841491, -6.265704 ], [ 106.7841309, -6.2657285 ], [ 106.784155, -6.2657582 ], [ 106.7841544, -6.2657949 ], [ 106.7841292, -6.2657966 ], [ 106.7841303, -6.2658497 ], [ 106.7841122, -6.2658497 ], [ 106.7841122, -6.2660181 ], [ 106.7841262, -6.2660204 ], [ 106.7841268, -6.2660344 ], [ 106.7841374, -6.2660338 ], [ 106.7841397, -6.2660822 ], [ 106.7841954, -6.2660822 ], [ 106.7841978, -6.2662023 ] ] ] } }
]
}
