{
  "type": "FeatureCollection",
  "crs": {
    "type": "name",
    "properties": {
      "name": "urn:ogc:def:crs:OGC:1.3:CRS84"
    }
  },
  "features": [
    {
      "type": "Feature",
      "properties": {
        "asset_id": "MKT-001",
        "name": "Pasar Mayestik Kebayoran Baru",
        "amenity": "marketplace",
        "category": "market",
        "category_display": "Pasar Tradisional",
        "city_regency": "Jakarta Selatan",
        "osm_way_id": "498519045",
        "operator": "Perumda Pasar Jaya"
      },
      "geometry": {
        "type": "Point",
        "coordinates": [
          106.7910394,
          -6.2423203
        ]
      }
    }
  ]
}