{
  "type": "FeatureCollection",
  "crs": {
    "type": "name",
    "properties": {
      "name": "urn:ogc:def:crs:OGC:1.3:CRS84"
    }
  },
  "features": [
    {
      "type": "Feature",
      "properties": {
        "asset_id": "STD-001",
        "name": "Istora Senayan GBK",
        "leisure": "sports_centre",
        "category": "stadium",
        "category_display": "Stadion & GOR",
        "city_regency": "Jakarta Pusat",
        "osm_way_id": "403720892",
        "operator": "PPK Gelora Bung Karno"
      },
      "geometry": {
        "type": "Point",
        "coordinates": [
          106.8040644,
          -6.2197997
        ]
      }
    }
  ]
}