{
  "type": "FeatureCollection",
  "crs": {
    "type": "name",
    "properties": {
      "name": "urn:ogc:def:crs:OGC:1.3:CRS84"
    }
  },
  "features": [
    {
      "type": "Feature",
      "properties": {
        "asset_id": "TERM-001",
        "name": "Terminal Bus Tanjung Priok",
        "amenity": "bus_station",
        "category": "terminal",
        "category_display": "Terminal Bus",
        "city_regency": "Jakarta Utara",
        "osm_node_id": "11756489038",
        "operator": "Dinas Perhubungan DKI Jakarta"
      },
      "geometry": {
        "type": "Point",
        "coordinates": [
          106.8809365,
          -6.1121017
        ]
      }
    }
  ]
}