{
"type": "FeatureCollection",
"name": "pow_solar_13_titik",
"crs": { "type": "name", "properties": { "name": "urn:ogc:def:crs:OGC:1.3:CRS84" } },
"features": [
{ "type": "Feature", "properties": { "asset_id": "MRT-003", "asset_name": "Stasiun MRT Cipete Raya", "category": "mrt", "category_display": "MRT", "city_regency": "Jakarta Selatan", "postal_code": "12420", "source_raw_file": "data/raw/mrt_lrt/mrt_stations.csv", "raw_lat": -6.2783417, "raw_lon": 106.7973264, "google_building_id": "buildings/ChIJpeCp35TxaS4RDUmeARBfs3I", "google_maps_url": "https://www.google.com/maps/place/?q=place_id:ChIJpeCp35TxaS4RDUmeARBfs3I", "google_center_lat": -6.2783606, "google_center_lon": 106.7973123, "spatial_drift_meters": 2.62, "drift_status": "VALID (< 30m)", "imagery_date": "2025-08-16", "quality_tier": "BASE", "whole_roof_area_m2": 3850.96, "max_roof_area_m2": 3224.16, "roof_suitability_ratio_pct": 83.7, "building_footprint_m2": 4459.47, "total_segments_count": 12, "pitch_range": "2.0° – 23.9°", "weighted_pitch_deg": 15.7, "roof_character": "Atap Pelana Melengkung: Sisi sayap timur miring 15°, sayap barat miring 18°.", "max_panels_count": 1642, "sunshine_hours_annual": 1645.6, "panel_capacity_wp": 400, "installed_capacity_kwp": 656.8, "google_dc_mwh": 1026.12, "annual_generation_kwh": 864661.49, "annual_generation_mwh": 864.66, "carbon_offset_factor": 809.0, "ghg_reduction_tons_co2": 699.51, "path_dsm_geotiff": "data/raw/solar/data_layers/dsm/mrt/mrt-003_dsm.tif", "path_rgb_geotiff": "data/raw/solar/data_layers/rgb/mrt/mrt-003_rgb.tif", "path_mask_geotiff": "data/raw/solar/data_layers/mask/mrt/mrt-003_mask.tif", "path_flux_geotiff": "data/raw/solar/data_layers/annual_flux/mrt/mrt-003_annual_flux.tif", "preview_rgb_png": "data/processed/previews/mrt-003_rgb.png", "preview_panels_png": "data/processed/previews/mrt-003_panels_overlay.png", "preview_segments_png": "data/processed/previews/mrt-003_segments_overlay.png", "preview_dsm_png": "data/processed/previews/mrt-003_dsm_elevation.png", "preview_mask_png": "data/processed/previews/mrt-003_roof_mask.png", "preview_flux_png": "data/processed/previews/mrt-003_flux_heatmap.png" }, "geometry": { "type": "Point", "coordinates": [ 106.7973123, -6.2783606 ] } },
{ "type": "Feature", "properties": { "asset_id": "KRL-032", "asset_name": "Stasiun KRL Manggarai Sentral", "category": "krl", "category_display": "KRL", "city_regency": "Jakarta Selatan", "postal_code": "12850", "source_raw_file": "data/raw/krl/krl_stations.csv", "raw_lat": -6.2101704, "raw_lon": 106.849935, "google_building_id": "buildings/ChIJx6Y3I3H0aS4RMX7C5Jw8YAI", "google_maps_url": "https://www.google.com/maps/place/?q=place_id:ChIJx6Y3I3H0aS4RMX7C5Jw8YAI", "google_center_lat": -6.2101892, "google_center_lon": 106.8498556, "spatial_drift_meters": 9.02, "drift_status": "VALID (< 30m)", "imagery_date": "2025-08-16", "quality_tier": "BASE", "whole_roof_area_m2": 9871.97, "max_roof_area_m2": 8696.58, "roof_suitability_ratio_pct": 88.1, "building_footprint_m2": 13129.91, "total_segments_count": 15, "pitch_range": "0.4° – 28.9°", "weighted_pitch_deg": 5.9, "roof_character": "Dominan Landai: Sebagian besar berupa dak baja bentang lebar (1,1° – 2,6°), dengan beberapa atap ventilasi curam.", "max_panels_count": 4429, "sunshine_hours_annual": 1652.85, "panel_capacity_wp": 400, "installed_capacity_kwp": 1771.6, "google_dc_mwh": 2863.0, "annual_generation_kwh": 2342546.71, "annual_generation_mwh": 2342.55, "carbon_offset_factor": 809.0, "ghg_reduction_tons_co2": 1895.12, "path_dsm_geotiff": "data/raw/solar/data_layers/dsm/krl/krl-032_dsm.tif", "path_rgb_geotiff": "data/raw/solar/data_layers/rgb/krl/krl-032_rgb.tif", "path_mask_geotiff": "data/raw/solar/data_layers/mask/krl/krl-032_mask.tif", "path_flux_geotiff": "data/raw/solar/data_layers/annual_flux/krl/krl-032_annual_flux.tif", "preview_rgb_png": "data/processed/previews/krl-032_rgb.png", "preview_panels_png": "data/processed/previews/krl-032_panels_overlay.png", "preview_segments_png": "data/processed/previews/krl-032_segments_overlay.png", "preview_dsm_png": "data/processed/previews/krl-032_dsm_elevation.png", "preview_mask_png": "data/processed/previews/krl-032_roof_mask.png", "preview_flux_png": "data/processed/previews/krl-032_flux_heatmap.png" }, "geometry": { "type": "Point", "coordinates": [ 106.8498556, -6.2101892 ] } },
{ "type": "Feature", "properties": { "asset_id": "LRT-014", "asset_name": "Stasiun LRT Dukuh Atas", "category": "lrt", "category_display": "LRT", "city_regency": "Jakarta Pusat", "postal_code": "12910", "source_raw_file": "data/raw/mrt_lrt/lrt_jabodebek_stations.geojson", "raw_lat": -6.204825, "raw_lon": 106.82553, "google_building_id": "buildings/ChIJlbC7BRv0aS4RB0sO1N-weGg", "google_maps_url": "https://www.google.com/maps/place/?q=place_id:ChIJlbC7BRv0aS4RB0sO1N-weGg", "google_center_lat": -6.2048629, "google_center_lon": 106.8256039, "spatial_drift_meters": 9.19, "drift_status": "VALID (< 30m)", "imagery_date": "2025-08-16", "quality_tier": "BASE", "whole_roof_area_m2": 1808.91, "max_roof_area_m2": 1525.68, "roof_suitability_ratio_pct": 84.3, "building_footprint_m2": 2909.96, "total_segments_count": 4, "pitch_range": "2.2° – 11.2°", "weighted_pitch_deg": 3.4, "roof_character": "Sangat Landai / Datar: Kanopi peron baja bentang panjang modern.", "max_panels_count": 777, "sunshine_hours_annual": 1638.0, "panel_capacity_wp": 400, "installed_capacity_kwp": 310.8, "google_dc_mwh": 501.27, "annual_generation_kwh": 407271.77, "annual_generation_mwh": 407.27, "carbon_offset_factor": 809.0, "ghg_reduction_tons_co2": 329.48, "path_dsm_geotiff": "data/raw/solar/data_layers/dsm/lrt/lrt-014_dsm.tif", "path_rgb_geotiff": "data/raw/solar/data_layers/rgb/lrt/lrt-014_rgb.tif", "path_mask_geotiff": "data/raw/solar/data_layers/mask/lrt/lrt-014_mask.tif", "path_flux_geotiff": "data/raw/solar/data_layers/annual_flux/lrt/lrt-014_annual_flux.tif", "preview_rgb_png": "data/processed/previews/lrt-014_rgb.png", "preview_panels_png": "data/processed/previews/lrt-014_panels_overlay.png", "preview_segments_png": "data/processed/previews/lrt-014_segments_overlay.png", "preview_dsm_png": "data/processed/previews/lrt-014_dsm_elevation.png", "preview_mask_png": "data/processed/previews/lrt-014_roof_mask.png", "preview_flux_png": "data/processed/previews/lrt-014_flux_heatmap.png" }, "geometry": { "type": "Point", "coordinates": [ 106.8256039, -6.2048629 ] } },
{ "type": "Feature", "properties": { "asset_id": "RS-007", "asset_name": "RSUD Tarakan Jakarta", "category": "hospital", "category_display": "Rumah Sakit", "city_regency": "Jakarta Pusat", "postal_code": "10150", "source_raw_file": "data/raw/osm/hospitals_jakarta.gpkg", "raw_lat": -6.17155, "raw_lon": 106.81025, "google_building_id": "buildings/ChIJ2Xm5Cnz2aS4RbXwtb-MNEeM", "google_maps_url": "https://www.google.com/maps/place/?q=place_id:ChIJ2Xm5Cnz2aS4RbXwtb-MNEeM", "google_center_lat": -6.1716364, "google_center_lon": 106.8102227, "spatial_drift_meters": 10.07, "drift_status": "VALID (< 30m)", "imagery_date": "2025-07-26", "quality_tier": "BASE", "whole_roof_area_m2": 1124.94, "max_roof_area_m2": 779.53, "roof_suitability_ratio_pct": 69.3, "building_footprint_m2": 1588.11, "total_segments_count": 14, "pitch_range": "3.4° – 27.7°", "weighted_pitch_deg": 9.4, "roof_character": "Campuran: Dominan dak beton datar bertingkat, bersanding dengan atap limasan/pelana teknis.", "max_panels_count": 397, "sunshine_hours_annual": 1634.33, "panel_capacity_wp": 400, "installed_capacity_kwp": 158.8, "google_dc_mwh": 245.68, "annual_generation_kwh": 207625.09, "annual_generation_mwh": 207.63, "carbon_offset_factor": 809.0, "ghg_reduction_tons_co2": 167.97, "path_dsm_geotiff": "data/raw/solar/data_layers/dsm/hospital/rs-007_dsm.tif", "path_rgb_geotiff": "data/raw/solar/data_layers/rgb/hospital/rs-007_rgb.tif", "path_mask_geotiff": "data/raw/solar/data_layers/mask/hospital/rs-007_mask.tif", "path_flux_geotiff": "data/raw/solar/data_layers/annual_flux/hospital/rs-007_annual_flux.tif", "preview_rgb_png": "data/processed/previews/rs-007_rgb.png", "preview_panels_png": "data/processed/previews/rs-007_panels_overlay.png", "preview_segments_png": "data/processed/previews/rs-007_segments_overlay.png", "preview_dsm_png": "data/processed/previews/rs-007_dsm_elevation.png", "preview_mask_png": "data/processed/previews/rs-007_roof_mask.png", "preview_flux_png": "data/processed/previews/rs-007_flux_heatmap.png" }, "geometry": { "type": "Point", "coordinates": [ 106.8102227, -6.1716364 ] } },
{ "type": "Feature", "properties": { "asset_id": "MALL-001", "asset_name": "Pondok Indah Mall 1", "category": "mall", "category_display": "Pusat Perbelanjaan / Mall", "city_regency": "Jakarta Selatan", "postal_code": "12310", "source_raw_file": "data/raw/osm/commercial_jakarta.geojson", "raw_lat": -6.2653323, "raw_lon": 106.7845842, "google_building_id": "buildings/ChIJnR66SqTxaS4Rb_d9QN6tw0Y", "google_maps_url": "https://www.google.com/maps/place/?q=place_id:ChIJnR66SqTxaS4Rb_d9QN6tw0Y", "google_center_lat": -6.2653632, "google_center_lon": 106.7845368, "spatial_drift_meters": 6.27, "drift_status": "VALID (< 30m)", "imagery_date": "2025-08-16", "quality_tier": "BASE", "whole_roof_area_m2": 15415.01, "max_roof_area_m2": 10667.99, "roof_suitability_ratio_pct": 69.2, "building_footprint_m2": 20001.64, "total_segments_count": 101, "pitch_range": "0.3° – 74.7°", "weighted_pitch_deg": 3.9, "roof_character": "Dak Beton Datar & Kanopi Komersial: Struktur atap pusat perbelanjaan bertingkat rendah (Pondok Indah Mall 1) seluas 10.668 m² yang sangat luas, terbuka, dan minim bayangan gedung pencakar langit.", "max_panels_count": 5433, "sunshine_hours_annual": 1645.38, "panel_capacity_wp": 400, "installed_capacity_kwp": 2173.2, "google_dc_mwh": 3454.11, "annual_generation_kwh": 2860585.07, "annual_generation_mwh": 2860.59, "carbon_offset_factor": 809.0, "ghg_reduction_tons_co2": 2314.21, "path_dsm_geotiff": "data/raw/solar/data_layers/dsm/mall/mall-001_dsm.tif", "path_rgb_geotiff": "data/raw/solar/data_layers/rgb/mall/mall-001_rgb.tif", "path_mask_geotiff": "data/raw/solar/data_layers/mask/mall/mall-001_mask.tif", "path_flux_geotiff": "data/raw/solar/data_layers/annual_flux/mall/mall-001_annual_flux.tif", "preview_rgb_png": "data/processed/previews/mall-001_rgb.png", "preview_panels_png": "data/processed/previews/mall-001_panels_overlay.png", "preview_segments_png": "data/processed/previews/mall-001_segments_overlay.png", "preview_dsm_png": "data/processed/previews/mall-001_dsm_elevation.png", "preview_mask_png": "data/processed/previews/mall-001_roof_mask.png", "preview_flux_png": "data/processed/previews/mall-001_flux_heatmap.png" }, "geometry": { "type": "Point", "coordinates": [ 106.7845368, -6.2653632 ] } },
{ "type": "Feature", "properties": { "asset_id": "BRT-001", "asset_name": "Halte CSW Integrasi", "category": "brt", "category_display": "Halte BRT TransJakarta", "city_regency": "Jakarta Selatan", "postal_code": "12160", "source_raw_file": "data/raw/transjakarta/transjakarta_stations.csv", "raw_lat": -6.23994, "raw_lon": 106.79843, "google_building_id": "buildings/GhIJn1JxqKH1GMAREbOc1hqzWkA", "google_maps_url": "https://www.google.com/maps/place/?q=place_id:GhIJn1JxqKH1GMAREbOc1hqzWkA", "google_center_lat": -6.2399009, "google_center_lon": 106.7986716, "spatial_drift_meters": 27.06, "drift_status": "VALID (< 30m)", "imagery_date": "2025-08-16", "quality_tier": "BASE", "whole_roof_area_m2": 1111.11, "max_roof_area_m2": 856.11, "roof_suitability_ratio_pct": 77.0, "building_footprint_m2": 1276.93, "total_segments_count": 8, "pitch_range": "1.8° – 21.8°", "weighted_pitch_deg": 7.2, "roof_character": "Kanopi Melingkar Multi-Tier: Struktur kanopi transit layang 5 lantai yang menghubungkan koridor busway dengan stasiun MRT.", "max_panels_count": 436, "sunshine_hours_annual": 1626.39, "panel_capacity_wp": 400, "installed_capacity_kwp": 174.4, "google_dc_mwh": 263.14, "annual_generation_kwh": 226913.3, "annual_generation_mwh": 226.91, "carbon_offset_factor": 809.0, "ghg_reduction_tons_co2": 183.57, "path_dsm_geotiff": "data/raw/solar/data_layers/dsm/brt/brt-001_dsm.tif", "path_rgb_geotiff": "data/raw/solar/data_layers/rgb/brt/brt-001_rgb.tif", "path_mask_geotiff": "data/raw/solar/data_layers/mask/brt/brt-001_mask.tif", "path_flux_geotiff": "data/raw/solar/data_layers/annual_flux/brt/brt-001_annual_flux.tif", "preview_rgb_png": "data/processed/previews/brt-001_rgb.png", "preview_panels_png": "data/processed/previews/brt-001_panels_overlay.png", "preview_segments_png": "data/processed/previews/brt-001_segments_overlay.png", "preview_dsm_png": "data/processed/previews/brt-001_dsm_elevation.png", "preview_mask_png": "data/processed/previews/brt-001_roof_mask.png", "preview_flux_png": "data/processed/previews/brt-001_flux_heatmap.png" }, "geometry": { "type": "Point", "coordinates": [ 106.7986716, -6.2399009 ] } },
{ "type": "Feature", "properties": { "asset_id": "UNIV-001", "asset_name": "Perpustakaan Pusat UI Depok", "category": "university", "category_display": "Universitas / Kampus", "city_regency": "Kota Depok", "postal_code": "16424", "source_raw_file": "data/raw/osm/education_jakarta.geojson", "raw_lat": -6.3647117, "raw_lon": 106.8313788, "google_building_id": "buildings/ChIJaVTiNhfsaS4RQT6lXss0IFQ", "google_maps_url": "https://www.google.com/maps/place/?q=place_id:ChIJaVTiNhfsaS4RQT6lXss0IFQ", "google_center_lat": -6.3647117, "google_center_lon": 106.8313788, "spatial_drift_meters": 0.0, "drift_status": "VALID (< 30m)", "imagery_date": "2024-02-22", "quality_tier": "BASE", "whole_roof_area_m2": 2699.74, "max_roof_area_m2": 2057.81, "roof_suitability_ratio_pct": 76.2, "building_footprint_m2": 3209.25, "total_segments_count": 29, "pitch_range": "18.5° – 38.1°", "weighted_pitch_deg": 29.7, "roof_character": "Arsitektur Kristal Berlapis Dak Datar: Struktur atap perpustakaan ikonik UI (Crystal of Knowledge) seluas 2.700 m² yang dikelilingi danau dan area terbuka hijau tanpa bayangan gedung tinggi.", "max_panels_count": 1048, "sunshine_hours_annual": 1612.27, "panel_capacity_wp": 400, "installed_capacity_kwp": 419.2, "google_dc_mwh": 602.35, "annual_generation_kwh": 540692.11, "annual_generation_mwh": 540.69, "carbon_offset_factor": 809.0, "ghg_reduction_tons_co2": 437.42, "path_dsm_geotiff": "data/raw/solar/data_layers/dsm/university/univ-001_dsm.tif", "path_rgb_geotiff": "data/raw/solar/data_layers/rgb/university/univ-001_rgb.tif", "path_mask_geotiff": "data/raw/solar/data_layers/mask/university/univ-001_mask.tif", "path_flux_geotiff": "data/raw/solar/data_layers/annual_flux/university/univ-001_annual_flux.tif", "preview_rgb_png": "data/processed/previews/univ-001_rgb.png", "preview_panels_png": "data/processed/previews/univ-001_panels_overlay.png", "preview_segments_png": "data/processed/previews/univ-001_segments_overlay.png", "preview_dsm_png": "data/processed/previews/univ-001_dsm_elevation.png", "preview_mask_png": "data/processed/previews/univ-001_roof_mask.png", "preview_flux_png": "data/processed/previews/univ-001_flux_heatmap.png" }, "geometry": { "type": "Point", "coordinates": [ 106.8313788, -6.3647117 ] } },
{ "type": "Feature", "properties": { "asset_id": "SCH-001", "asset_name": "SMAN 70 Jakarta Bulungan", "category": "school", "category_display": "Sekolah Negeri", "city_regency": "Jakarta Selatan", "postal_code": "12130", "source_raw_file": "data/raw/osm/education_jakarta.geojson", "raw_lat": -6.24169, "raw_lon": 106.79422, "google_building_id": "buildings/ChIJ7V7LLGvxaS4ReWmkrlWsBN8", "google_maps_url": "https://www.google.com/maps/place/?q=place_id:ChIJ7V7LLGvxaS4ReWmkrlWsBN8", "google_center_lat": -6.2416819, "google_center_lon": 106.7942367, "spatial_drift_meters": 2.05, "drift_status": "VALID (< 30m)", "imagery_date": "2025-08-16", "quality_tier": "BASE", "whole_roof_area_m2": 232.49, "max_roof_area_m2": 141.38, "roof_suitability_ratio_pct": 60.8, "building_footprint_m2": 301.61, "total_segments_count": 7, "pitch_range": "12.6° – 36.0°", "weighted_pitch_deg": 25.4, "roof_character": "Dak Beton Bertingkat & Pelana Fasilitas Sekolah: Atap gedung belajar SMAN 70 Jakarta yang mengelilingi lapangan terbuka.", "max_panels_count": 72, "sunshine_hours_annual": 1612.46, "panel_capacity_wp": 400, "installed_capacity_kwp": 28.8, "google_dc_mwh": 42.97, "annual_generation_kwh": 37151.07, "annual_generation_mwh": 37.15, "carbon_offset_factor": 809.0, "ghg_reduction_tons_co2": 30.06, "path_dsm_geotiff": "data/raw/solar/data_layers/dsm/school/sch-001_dsm.tif", "path_rgb_geotiff": "data/raw/solar/data_layers/rgb/school/sch-001_rgb.tif", "path_mask_geotiff": "data/raw/solar/data_layers/mask/school/sch-001_mask.tif", "path_flux_geotiff": "data/raw/solar/data_layers/annual_flux/school/sch-001_annual_flux.tif", "preview_rgb_png": "data/processed/previews/sch-001_rgb.png", "preview_panels_png": "data/processed/previews/sch-001_panels_overlay.png", "preview_segments_png": "data/processed/previews/sch-001_segments_overlay.png", "preview_dsm_png": "data/processed/previews/sch-001_dsm_elevation.png", "preview_mask_png": "data/processed/previews/sch-001_roof_mask.png", "preview_flux_png": "data/processed/previews/sch-001_flux_heatmap.png" }, "geometry": { "type": "Point", "coordinates": [ 106.7942367, -6.2416819 ] } },
{ "type": "Feature", "properties": { "asset_id": "MKT-001", "asset_name": "Pasar Mayestik Kebayoran Baru", "category": "market", "category_display": "Pasar Tradisional", "city_regency": "Jakarta Selatan", "postal_code": "12130", "source_raw_file": "data/raw/osm/markets_jakarta.geojson", "raw_lat": -6.2423203, "raw_lon": 106.7910394, "google_building_id": "buildings/ChIJv1nNXhTxaS4RTFcCeMRkSlM", "google_maps_url": "https://www.google.com/maps/place/?q=place_id:ChIJv1nNXhTxaS4RTFcCeMRkSlM", "google_center_lat": -6.2423203, "google_center_lon": 106.7910394, "spatial_drift_meters": 0.0, "drift_status": "VALID (< 30m)", "imagery_date": "2025-08-16", "quality_tier": "BASE", "whole_roof_area_m2": 277.67, "max_roof_area_m2": 182.61, "roof_suitability_ratio_pct": 65.8, "building_footprint_m2": 343.29, "total_segments_count": 7, "pitch_range": "3.0° – 24.3°", "weighted_pitch_deg": 11.4, "roof_character": "Dak Beton Komersial Datar: Atap pasar modern bertingkat (Perumda Pasar Jaya) dengan bidang luas terbuka di kawasan Kebayoran Baru.", "max_panels_count": 93, "sunshine_hours_annual": 1644.29, "panel_capacity_wp": 400, "installed_capacity_kwp": 37.2, "google_dc_mwh": 57.37, "annual_generation_kwh": 48934.05, "annual_generation_mwh": 48.93, "carbon_offset_factor": 809.0, "ghg_reduction_tons_co2": 39.59, "path_dsm_geotiff": "data/raw/solar/data_layers/dsm/market/mkt-001_dsm.tif", "path_rgb_geotiff": "data/raw/solar/data_layers/rgb/market/mkt-001_rgb.tif", "path_mask_geotiff": "data/raw/solar/data_layers/mask/market/mkt-001_mask.tif", "path_flux_geotiff": "data/raw/solar/data_layers/annual_flux/market/mkt-001_annual_flux.tif", "preview_rgb_png": "data/processed/previews/mkt-001_rgb.png", "preview_panels_png": "data/processed/previews/mkt-001_panels_overlay.png", "preview_segments_png": "data/processed/previews/mkt-001_segments_overlay.png", "preview_dsm_png": "data/processed/previews/mkt-001_dsm_elevation.png", "preview_mask_png": "data/processed/previews/mkt-001_roof_mask.png", "preview_flux_png": "data/processed/previews/mkt-001_flux_heatmap.png" }, "geometry": { "type": "Point", "coordinates": [ 106.791039399999988, -6.2423203 ] } },
{ "type": "Feature", "properties": { "asset_id": "STD-001", "asset_name": "Istora Senayan GBK", "category": "stadium", "category_display": "Stadion & GOR", "city_regency": "Jakarta Pusat", "postal_code": "10270", "source_raw_file": "data/raw/osm/sports_jakarta.geojson", "raw_lat": -6.2197997, "raw_lon": 106.8040644, "google_building_id": "buildings/ChIJqdOsEU3xaS4RBzsj4T8eWaI", "google_maps_url": "https://www.google.com/maps/place/?q=place_id:ChIJqdOsEU3xaS4RBzsj4T8eWaI", "google_center_lat": -6.2198185, "google_center_lon": 106.8041066, "spatial_drift_meters": 5.11, "drift_status": "VALID (< 30m)", "imagery_date": "2025-08-16", "quality_tier": "BASE", "whole_roof_area_m2": 1175.15, "max_roof_area_m2": 860.04, "roof_suitability_ratio_pct": 73.2, "building_footprint_m2": 1230.9, "total_segments_count": 7, "pitch_range": "0.9° – 9.0°", "weighted_pitch_deg": 3.8, "roof_character": "Kubah Parabolik Bentang Lebar: Atap arena olahraga indoor Istora GBK dengan lengkungan simetris dan kemiringan landai.", "max_panels_count": 438, "sunshine_hours_annual": 1628.35, "panel_capacity_wp": 400, "installed_capacity_kwp": 175.2, "google_dc_mwh": 279.41, "annual_generation_kwh": 228229.96, "annual_generation_mwh": 228.23, "carbon_offset_factor": 809.0, "ghg_reduction_tons_co2": 184.64, "path_dsm_geotiff": "data/raw/solar/data_layers/dsm/stadium/std-001_dsm.tif", "path_rgb_geotiff": "data/raw/solar/data_layers/rgb/stadium/std-001_rgb.tif", "path_mask_geotiff": "data/raw/solar/data_layers/mask/stadium/std-001_mask.tif", "path_flux_geotiff": "data/raw/solar/data_layers/annual_flux/stadium/std-001_annual_flux.tif", "preview_rgb_png": "data/processed/previews/std-001_rgb.png", "preview_panels_png": "data/processed/previews/std-001_panels_overlay.png", "preview_segments_png": "data/processed/previews/std-001_segments_overlay.png", "preview_dsm_png": "data/processed/previews/std-001_dsm_elevation.png", "preview_mask_png": "data/processed/previews/std-001_roof_mask.png", "preview_flux_png": "data/processed/previews/std-001_flux_heatmap.png" }, "geometry": { "type": "Point", "coordinates": [ 106.8041066, -6.2198185 ] } },
{ "type": "Feature", "properties": { "asset_id": "AIR-001", "asset_name": "Bandara Soekarno-Hatta (Terminal 3)", "category": "airport", "category_display": "Bandara", "city_regency": "Kota Tangerang", "postal_code": "15126", "source_raw_file": "data/raw/osm/airports_jakarta.geojson", "raw_lat": -6.1199302, "raw_lon": 106.662502, "google_building_id": "buildings/ChIJ-U7OnkICai4RhMxzhhHDMaA", "google_maps_url": "https://www.google.com/maps/place/?q=place_id:ChIJ-U7OnkICai4RhMxzhhHDMaA", "google_center_lat": -6.1199302, "google_center_lon": 106.662502, "spatial_drift_meters": 0.0, "drift_status": "VALID (< 30m)", "imagery_date": "2025-07-26", "quality_tier": "BASE", "whole_roof_area_m2": 1985.89, "max_roof_area_m2": 1596.37, "roof_suitability_ratio_pct": 80.4, "building_footprint_m2": 3053.39, "total_segments_count": 2, "pitch_range": "3.9° – 7.7°", "weighted_pitch_deg": 6.0, "roof_character": "Mega-Kanopi Terminal Bandara: Bentang atap terminal penumpang bandara internasional modern seluas ribuan meter persegi dengan orientasi landai.", "max_panels_count": 813, "sunshine_hours_annual": 1705.36, "panel_capacity_wp": 400, "installed_capacity_kwp": 325.2, "google_dc_mwh": 528.14, "annual_generation_kwh": 443667.03, "annual_generation_mwh": 443.67, "carbon_offset_factor": 809.0, "ghg_reduction_tons_co2": 358.93, "path_dsm_geotiff": "data/raw/solar/data_layers/dsm/airport/air-001_dsm.tif", "path_rgb_geotiff": "data/raw/solar/data_layers/rgb/airport/air-001_rgb.tif", "path_mask_geotiff": "data/raw/solar/data_layers/mask/airport/air-001_mask.tif", "path_flux_geotiff": "data/raw/solar/data_layers/annual_flux/airport/air-001_annual_flux.tif", "preview_rgb_png": "data/processed/previews/air-001_rgb.png", "preview_panels_png": "data/processed/previews/air-001_panels_overlay.png", "preview_segments_png": "data/processed/previews/air-001_segments_overlay.png", "preview_dsm_png": "data/processed/previews/air-001_dsm_elevation.png", "preview_mask_png": "data/processed/previews/air-001_roof_mask.png", "preview_flux_png": "data/processed/previews/air-001_flux_heatmap.png" }, "geometry": { "type": "Point", "coordinates": [ 106.662502, -6.1199302 ] } },
{ "type": "Feature", "properties": { "asset_id": "TERM-001", "asset_name": "Terminal Bus Tanjung Priok", "category": "terminal", "category_display": "Terminal Bus", "city_regency": "Jakarta Utara", "postal_code": "14310", "source_raw_file": "data/raw/osm/terminals_jakarta.geojson", "raw_lat": -6.1121017, "raw_lon": 106.8809365, "google_building_id": "buildings/ChIJO-tS67gfai4RO3TrPsNqK-0", "google_maps_url": "https://www.google.com/maps/place/?q=place_id:ChIJO-tS67gfai4RO3TrPsNqK-0", "google_center_lat": -6.1121017, "google_center_lon": 106.8809365, "spatial_drift_meters": 0.0, "drift_status": "VALID (< 30m)", "imagery_date": "2025-07-26", "quality_tier": "BASE", "whole_roof_area_m2": 977.78, "max_roof_area_m2": 632.26, "roof_suitability_ratio_pct": 64.7, "building_footprint_m2": 1449.41, "total_segments_count": 12, "pitch_range": "1.0° – 13.4°", "weighted_pitch_deg": 3.0, "roof_character": "Kanopi Jalur Bus & Bangunan Administrasi: Perpaduan kanopi peron transit bus antarkota dan gedung terminal bertingkat rendah.", "max_panels_count": 322, "sunshine_hours_annual": 1706.98, "panel_capacity_wp": 400, "installed_capacity_kwp": 128.8, "google_dc_mwh": 212.11, "annual_generation_kwh": 175887.57, "annual_generation_mwh": 175.89, "carbon_offset_factor": 809.0, "ghg_reduction_tons_co2": 142.29, "path_dsm_geotiff": "data/raw/solar/data_layers/dsm/terminal/term-001_dsm.tif", "path_rgb_geotiff": "data/raw/solar/data_layers/rgb/terminal/term-001_rgb.tif", "path_mask_geotiff": "data/raw/solar/data_layers/mask/terminal/term-001_mask.tif", "path_flux_geotiff": "data/raw/solar/data_layers/annual_flux/terminal/term-001_annual_flux.tif", "preview_rgb_png": "data/processed/previews/term-001_rgb.png", "preview_panels_png": "data/processed/previews/term-001_panels_overlay.png", "preview_segments_png": "data/processed/previews/term-001_segments_overlay.png", "preview_dsm_png": "data/processed/previews/term-001_dsm_elevation.png", "preview_mask_png": "data/processed/previews/term-001_roof_mask.png", "preview_flux_png": "data/processed/previews/term-001_flux_heatmap.png" }, "geometry": { "type": "Point", "coordinates": [ 106.8809365, -6.1121017 ] } },
{ "type": "Feature", "properties": { "asset_id": "PKG-001", "asset_name": "Gedung Parkir Binus University", "category": "parking", "category_display": "Gedung Parkir", "city_regency": "Jakarta Barat", "postal_code": "11530", "source_raw_file": "data/raw/osm/parking_jakarta.gpkg", "raw_lat": -6.20202, "raw_lon": 106.78017, "google_building_id": "buildings/ChIJ-ZqV8tz2aS4R66vud36uOOg", "google_maps_url": "https://www.google.com/maps/place/?q=place_id:ChIJ-ZqV8tz2aS4R66vud36uOOg", "google_center_lat": -6.202051, "google_center_lon": 106.7801414, "spatial_drift_meters": 4.68, "drift_status": "VALID (< 30m)", "imagery_date": "2024-10-26", "quality_tier": "BASE", "whole_roof_area_m2": 1805.56, "max_roof_area_m2": 1413.76, "roof_suitability_ratio_pct": 78.3, "building_footprint_m2": 2043.89, "total_segments_count": 11, "pitch_range": "0.2° – 10.6°", "weighted_pitch_deg": 2.7, "roof_character": "Dak Beton Datar Khusus Parkir (MSCP): Struktur gedung parkir bertingkat mandiri (Binus University) dengan lantai teratas dak terbuka luas dan datar.", "max_panels_count": 720, "sunshine_hours_annual": 1628.42, "panel_capacity_wp": 400, "installed_capacity_kwp": 288.0, "google_dc_mwh": 450.89, "annual_generation_kwh": 375187.25, "annual_generation_mwh": 375.19, "carbon_offset_factor": 809.0, "ghg_reduction_tons_co2": 303.53, "path_dsm_geotiff": "data/raw/solar/data_layers/dsm/parking/pkg-001_dsm.tif", "path_rgb_geotiff": "data/raw/solar/data_layers/rgb/parking/pkg-001_rgb.tif", "path_mask_geotiff": "data/raw/solar/data_layers/mask/parking/pkg-001_mask.tif", "path_flux_geotiff": "data/raw/solar/data_layers/annual_flux/parking/pkg-001_annual_flux.tif", "preview_rgb_png": "data/processed/previews/pkg-001_rgb.png", "preview_panels_png": "data/processed/previews/pkg-001_panels_overlay.png", "preview_segments_png": "data/processed/previews/pkg-001_segments_overlay.png", "preview_dsm_png": "data/processed/previews/pkg-001_dsm_elevation.png", "preview_mask_png": "data/processed/previews/pkg-001_roof_mask.png", "preview_flux_png": "data/processed/previews/pkg-001_flux_heatmap.png" }, "geometry": { "type": "Point", "coordinates": [ 106.7801414, -6.202051 ] } }
]
}
