{
"type": "FeatureCollection",
"name": "pow_solar_5_titik",
"crs": { "type": "name", "properties": { "name": "urn:ogc:def:crs:OGC:1.3:CRS84" } },
"features": [
{ "type": "Feature", "properties": { "asset_id": "MRT-003", "asset_name": "Stasiun MRT Cipete Raya", "category": "mrt", "category_display": "MRT", "city_regency": "Jakarta Selatan", "postal_code": "12420", "source_raw_file": "data/raw/mrt_lrt/mrt_stations.csv", "raw_lat": -6.2783417, "raw_lon": 106.7973264, "google_building_id": "buildings/ChIJpeCp35TxaS4RDUmeARBfs3I", "google_maps_url": "https://www.google.com/maps/place/?q=place_id:ChIJpeCp35TxaS4RDUmeARBfs3I", "google_center_lat": -6.2783606, "google_center_lon": 106.7973123, "spatial_drift_meters": 2.62, "drift_status": "VALID (< 30m)", "imagery_date": "2025-08-16", "quality_tier": "BASE", "whole_roof_area_m2": 3850.96, "max_roof_area_m2": 3224.16, "roof_suitability_ratio_pct": 83.7, "building_footprint_m2": 4459.47, "total_segments_count": 12, "pitch_range": "2.0° – 23.9°", "weighted_pitch_deg": 15.7, "roof_character": "Atap Pelana Melengkung: Sisi sayap timur miring 15°, sayap barat miring 18°.", "max_panels_count": 1642, "sunshine_hours_annual": 1645.6, "panel_capacity_wp": 400, "installed_capacity_kwp": 656.8, "google_dc_mwh": 1026.12, "annual_generation_kwh": 864661.49, "annual_generation_mwh": 864.66, "carbon_offset_factor": 809.0, "ghg_reduction_tons_co2": 699.51, "path_dsm_geotiff": "data\\raw\\solar\\data_layers\\dsm\\mrt\\mrt-003_dsm.tif", "path_rgb_geotiff": "data\\raw\\solar\\data_layers\\rgb\\mrt\\mrt-003_rgb.tif", "path_mask_geotiff": "data\\raw\\solar\\data_layers\\mask\\mrt\\mrt-003_mask.tif", "path_flux_geotiff": "data\\raw\\solar\\data_layers\\annual_flux\\mrt\\mrt-003_annual_flux.tif", "preview_rgb_png": "data\\processed\\previews\\mrt-003_rgb.png", "preview_panels_png": "data\\processed\\previews\\mrt-003_panels_overlay.png", "preview_segments_png": "data\\processed\\previews\\mrt-003_segments_overlay.png", "preview_dsm_png": "data\\processed\\previews\\mrt-003_dsm_elevation.png", "preview_mask_png": "data\\processed\\previews\\mrt-003_roof_mask.png", "preview_flux_png": "data\\processed\\previews\\mrt-003_flux_heatmap.png" }, "geometry": { "type": "Point", "coordinates": [ 106.7973123, -6.2783606 ] } },
{ "type": "Feature", "properties": { "asset_id": "KRL-032", "asset_name": "Stasiun KRL Manggarai Sentral", "category": "krl", "category_display": "KRL", "city_regency": "Jakarta Selatan", "postal_code": "12850", "source_raw_file": "data/raw/krl/krl_stations.csv", "raw_lat": -6.2101704, "raw_lon": 106.849935, "google_building_id": "buildings/ChIJx6Y3I3H0aS4RMX7C5Jw8YAI", "google_maps_url": "https://www.google.com/maps/place/?q=place_id:ChIJx6Y3I3H0aS4RMX7C5Jw8YAI", "google_center_lat": -6.2101892, "google_center_lon": 106.8498556, "spatial_drift_meters": 9.02, "drift_status": "VALID (< 30m)", "imagery_date": "2025-08-16", "quality_tier": "BASE", "whole_roof_area_m2": 9871.97, "max_roof_area_m2": 8696.58, "roof_suitability_ratio_pct": 88.1, "building_footprint_m2": 13129.91, "total_segments_count": 15, "pitch_range": "0.4° – 28.9°", "weighted_pitch_deg": 5.9, "roof_character": "Dominan Landai: Sebagian besar berupa dak baja bentang lebar (1,1° – 2,6°), dengan beberapa atap ventilasi curam.", "max_panels_count": 4429, "sunshine_hours_annual": 1652.85, "panel_capacity_wp": 400, "installed_capacity_kwp": 1771.6, "google_dc_mwh": 2863.0, "annual_generation_kwh": 2342546.71, "annual_generation_mwh": 2342.55, "carbon_offset_factor": 809.0, "ghg_reduction_tons_co2": 1895.12, "path_dsm_geotiff": "data\\raw\\solar\\data_layers\\dsm\\krl\\krl-032_dsm.tif", "path_rgb_geotiff": "data\\raw\\solar\\data_layers\\rgb\\krl\\krl-032_rgb.tif", "path_mask_geotiff": "data\\raw\\solar\\data_layers\\mask\\krl\\krl-032_mask.tif", "path_flux_geotiff": "data\\raw\\solar\\data_layers\\annual_flux\\krl\\krl-032_annual_flux.tif", "preview_rgb_png": "data\\processed\\previews\\krl-032_rgb.png", "preview_panels_png": "data\\processed\\previews\\krl-032_panels_overlay.png", "preview_segments_png": "data\\processed\\previews\\krl-032_segments_overlay.png", "preview_dsm_png": "data\\processed\\previews\\krl-032_dsm_elevation.png", "preview_mask_png": "data\\processed\\previews\\krl-032_roof_mask.png", "preview_flux_png": "data\\processed\\previews\\krl-032_flux_heatmap.png" }, "geometry": { "type": "Point", "coordinates": [ 106.8498556, -6.2101892 ] } },
{ "type": "Feature", "properties": { "asset_id": "LRT-014", "asset_name": "Stasiun LRT Dukuh Atas", "category": "lrt", "category_display": "LRT", "city_regency": "Jakarta Pusat", "postal_code": "12910", "source_raw_file": "data/raw/mrt_lrt/lrt_jabodebek_stations.geojson", "raw_lat": -6.204825, "raw_lon": 106.82553, "google_building_id": "buildings/ChIJlbC7BRv0aS4RB0sO1N-weGg", "google_maps_url": "https://www.google.com/maps/place/?q=place_id:ChIJlbC7BRv0aS4RB0sO1N-weGg", "google_center_lat": -6.2048629, "google_center_lon": 106.8256039, "spatial_drift_meters": 9.19, "drift_status": "VALID (< 30m)", "imagery_date": "2025-08-16", "quality_tier": "BASE", "whole_roof_area_m2": 1808.91, "max_roof_area_m2": 1525.68, "roof_suitability_ratio_pct": 84.3, "building_footprint_m2": 2909.96, "total_segments_count": 4, "pitch_range": "2.2° – 11.2°", "weighted_pitch_deg": 3.4, "roof_character": "Sangat Landai / Datar: Kanopi peron baja bentang panjang modern.", "max_panels_count": 777, "sunshine_hours_annual": 1638.0, "panel_capacity_wp": 400, "installed_capacity_kwp": 310.8, "google_dc_mwh": 501.27, "annual_generation_kwh": 407271.77, "annual_generation_mwh": 407.27, "carbon_offset_factor": 809.0, "ghg_reduction_tons_co2": 329.48, "path_dsm_geotiff": "data\\raw\\solar\\data_layers\\dsm\\lrt\\lrt-014_dsm.tif", "path_rgb_geotiff": "data\\raw\\solar\\data_layers\\rgb\\lrt\\lrt-014_rgb.tif", "path_mask_geotiff": "data\\raw\\solar\\data_layers\\mask\\lrt\\lrt-014_mask.tif", "path_flux_geotiff": "data\\raw\\solar\\data_layers\\annual_flux\\lrt\\lrt-014_annual_flux.tif", "preview_rgb_png": "data\\processed\\previews\\lrt-014_rgb.png", "preview_panels_png": "data\\processed\\previews\\lrt-014_panels_overlay.png", "preview_segments_png": "data\\processed\\previews\\lrt-014_segments_overlay.png", "preview_dsm_png": "data\\processed\\previews\\lrt-014_dsm_elevation.png", "preview_mask_png": "data\\processed\\previews\\lrt-014_roof_mask.png", "preview_flux_png": "data\\processed\\previews\\lrt-014_flux_heatmap.png" }, "geometry": { "type": "Point", "coordinates": [ 106.8256039, -6.2048629 ] } },
{ "type": "Feature", "properties": { "asset_id": "RS-007", "asset_name": "RSUD Tarakan Jakarta", "category": "hospital", "category_display": "Rumah Sakit", "city_regency": "Jakarta Pusat", "postal_code": "10150", "source_raw_file": "data/raw/osm/hospitals_jakarta.gpkg", "raw_lat": -6.17155, "raw_lon": 106.81025, "google_building_id": "buildings/ChIJ2Xm5Cnz2aS4RbXwtb-MNEeM", "google_maps_url": "https://www.google.com/maps/place/?q=place_id:ChIJ2Xm5Cnz2aS4RbXwtb-MNEeM", "google_center_lat": -6.1716364, "google_center_lon": 106.8102227, "spatial_drift_meters": 10.07, "drift_status": "VALID (< 30m)", "imagery_date": "2025-07-26", "quality_tier": "BASE", "whole_roof_area_m2": 1124.94, "max_roof_area_m2": 779.53, "roof_suitability_ratio_pct": 69.3, "building_footprint_m2": 1588.11, "total_segments_count": 14, "pitch_range": "3.4° – 27.7°", "weighted_pitch_deg": 9.4, "roof_character": "Campuran: Dominan dak beton datar bertingkat, bersanding dengan atap limasan/pelana teknis.", "max_panels_count": 397, "sunshine_hours_annual": 1634.33, "panel_capacity_wp": 400, "installed_capacity_kwp": 158.8, "google_dc_mwh": 245.68, "annual_generation_kwh": 207625.09, "annual_generation_mwh": 207.63, "carbon_offset_factor": 809.0, "ghg_reduction_tons_co2": 167.97, "path_dsm_geotiff": "data\\raw\\solar\\data_layers\\dsm\\hospital\\rs-007_dsm.tif", "path_rgb_geotiff": "data\\raw\\solar\\data_layers\\rgb\\hospital\\rs-007_rgb.tif", "path_mask_geotiff": "data\\raw\\solar\\data_layers\\mask\\hospital\\rs-007_mask.tif", "path_flux_geotiff": "data\\raw\\solar\\data_layers\\annual_flux\\hospital\\rs-007_annual_flux.tif", "preview_rgb_png": "data\\processed\\previews\\rs-007_rgb.png", "preview_panels_png": "data\\processed\\previews\\rs-007_panels_overlay.png", "preview_segments_png": "data\\processed\\previews\\rs-007_segments_overlay.png", "preview_dsm_png": "data\\processed\\previews\\rs-007_dsm_elevation.png", "preview_mask_png": "data\\processed\\previews\\rs-007_roof_mask.png", "preview_flux_png": "data\\processed\\previews\\rs-007_flux_heatmap.png" }, "geometry": { "type": "Point", "coordinates": [ 106.8102227, -6.1716364 ] } },
{ "type": "Feature", "properties": { "asset_id": "MALL-001", "asset_name": "Pondok Indah Mall 1", "category": "mall", "category_display": "Pusat Perbelanjaan / Mall", "city_regency": "Jakarta Selatan", "postal_code": "12310", "source_raw_file": "data/raw/osm/commercial_jakarta.geojson", "raw_lat": -6.2653323, "raw_lon": 106.7845842, "google_building_id": "buildings/ChIJnR66SqTxaS4Rb_d9QN6tw0Y", "google_maps_url": "https://www.google.com/maps/place/?q=place_id:ChIJnR66SqTxaS4Rb_d9QN6tw0Y", "google_center_lat": -6.2653632, "google_center_lon": 106.7845368, "spatial_drift_meters": 6.27, "drift_status": "VALID (< 30m)", "imagery_date": "2025-08-16", "quality_tier": "BASE", "whole_roof_area_m2": 15415.01, "max_roof_area_m2": 10667.99, "roof_suitability_ratio_pct": 69.2, "building_footprint_m2": 20001.64, "total_segments_count": 101, "pitch_range": "0.3° – 74.7°", "weighted_pitch_deg": 3.9, "roof_character": "Dak Beton Datar & Kanopi Komersial: Struktur atap pusat perbelanjaan bertingkat rendah (Pondok Indah Mall 1) seluas 10.668 m² yang sangat luas, terbuka, dan minim bayangan gedung pencakar langit.", "max_panels_count": 5433, "sunshine_hours_annual": 1645.38, "panel_capacity_wp": 400, "installed_capacity_kwp": 2173.2, "google_dc_mwh": 3454.11, "annual_generation_kwh": 2860585.07, "annual_generation_mwh": 2860.59, "carbon_offset_factor": 809.0, "ghg_reduction_tons_co2": 2314.21, "path_dsm_geotiff": "data\\raw\\solar\\data_layers\\dsm\\mall\\mall-001_dsm.tif", "path_rgb_geotiff": "data\\raw\\solar\\data_layers\\rgb\\mall\\mall-001_rgb.tif", "path_mask_geotiff": "data\\raw\\solar\\data_layers\\mask\\mall\\mall-001_mask.tif", "path_flux_geotiff": "data\\raw\\solar\\data_layers\\annual_flux\\mall\\mall-001_annual_flux.tif", "preview_rgb_png": "data\\processed\\previews\\mall-001_rgb.png", "preview_panels_png": "data\\processed\\previews\\mall-001_panels_overlay.png", "preview_segments_png": "data\\processed\\previews\\mall-001_segments_overlay.png", "preview_dsm_png": "data\\processed\\previews\\mall-001_dsm_elevation.png", "preview_mask_png": "data\\processed\\previews\\mall-001_roof_mask.png", "preview_flux_png": "data\\processed\\previews\\mall-001_flux_heatmap.png" }, "geometry": { "type": "Point", "coordinates": [ 106.7845368, -6.2653632 ] } }
]
}
