{
"type": "FeatureCollection",
"name": "pow_solar_100_titik",
"crs": { "type": "name", "properties": { "name": "urn:ogc:def:crs:OGC:1.3:CRS84" } },
"features": [
{ "type": "Feature", "properties": { "asset_id": "BRT-001", "asset_name": "Halte CSW Integrasi", "category": "brt", "category_display": "Halte BRT TransJakarta", "city_regency": "Jakarta Selatan", "postal_code": "12160", "source_raw_file": "data/raw/transjakarta/transjakarta_stations.csv", "raw_lat": -6.23994, "raw_lon": 106.79843, "google_building_id": "buildings/GhIJn1JxqKH1GMAREbOc1hqzWkA", "google_maps_url": "https://www.google.com/maps/search/?api=1&query=-6.239901,106.798672", "google_center_lat": -6.2399009, "google_center_lon": 106.7986716, "spatial_drift_meters": 27.06, "drift_status": "VALID (< 30m)", "imagery_date": "2025-08-16", "quality_tier": "BASE", "whole_roof_area_m2": 1111.11, "max_roof_area_m2": 856.11, "roof_suitability_ratio_pct": 77.0, "building_footprint_m2": 1276.93, "total_segments_count": 8, "pitch_range": "1.8° – 21.8°", "weighted_pitch_deg": 7.2, "max_panels_count": 436, "sunshine_hours_annual": 1626.39, "panel_capacity_wp": 400, "installed_capacity_kwp": 174.4, "google_dc_mwh": 263.14, "annual_generation_kwh": 226913.3, "annual_generation_mwh": 226.91, "carbon_offset_factor": 809.0, "ghg_reduction_tons_co2": 183.57, "path_dsm_geotiff": "data/raw/solar/data_layers/dsm/brt/brt-001_dsm.tif", "path_rgb_geotiff": "data/raw/solar/data_layers/rgb/brt/brt-001_rgb.tif", "path_mask_geotiff": "data/raw/solar/data_layers/mask/brt/brt-001_mask.tif", "path_flux_geotiff": "data/raw/solar/data_layers/annual_flux/brt/brt-001_annual_flux.tif", "preview_rgb_png": "data/processed/previews/brt-001_rgb.png", "preview_panels_png": "data/processed/previews/brt-001_panels_overlay.png", "preview_segments_png": "data/processed/previews/brt-001_segments_overlay.png", "preview_dsm_png": "data/processed/previews/brt-001_dsm_elevation.png", "preview_mask_png": "data/processed/previews/brt-001_roof_mask.png", "preview_flux_png": "data/processed/previews/brt-001_flux_heatmap.png" }, "geometry": { "type": "Point", "coordinates": [ 106.7986716, -6.2399009 ] } },
{ "type": "Feature", "properties": { "asset_id": "BRT-002", "asset_name": "Halte Tosari", "category": "brt", "category_display": "Halte BRT TransJakarta", "city_regency": "Jakarta Pusat", "postal_code": "10310", "source_raw_file": "data/raw/transjakarta/transjakarta_stations.csv", "raw_lat": -6.19709, "raw_lon": 106.82306, "google_building_id": "buildings/GhIJR4iIV9_JGMARL9PH6a20WkA", "google_maps_url": "https://www.google.com/maps/search/?api=1&query=-6.197089,106.823058", "google_center_lat": -6.1970894, "google_center_lon": 106.8230583, "spatial_drift_meters": 0.2, "drift_status": "VALID (< 30m)", "imagery_date": "2025-08-16", "quality_tier": "BASE", "whole_roof_area_m2": 323.85, "max_roof_area_m2": 215.99, "roof_suitability_ratio_pct": 66.7, "building_footprint_m2": 356.98, "total_segments_count": 2, "pitch_range": "11.2° – 42.4°", "weighted_pitch_deg": 32.9, "max_panels_count": 110, "sunshine_hours_annual": 1511.26, "panel_capacity_wp": 400, "installed_capacity_kwp": 44.0, "google_dc_mwh": 57.79, "annual_generation_kwh": 53196.3, "annual_generation_mwh": 53.2, "carbon_offset_factor": 809.0, "ghg_reduction_tons_co2": 43.04, "path_dsm_geotiff": "data/raw/solar/data_layers/dsm/brt/brt-002_dsm.tif", "path_rgb_geotiff": "data/raw/solar/data_layers/rgb/brt/brt-002_rgb.tif", "path_mask_geotiff": "data/raw/solar/data_layers/mask/brt/brt-002_mask.tif", "path_flux_geotiff": "data/raw/solar/data_layers/annual_flux/brt/brt-002_annual_flux.tif", "preview_rgb_png": "data/processed/previews/brt-002_rgb.png", "preview_panels_png": "data/processed/previews/brt-002_panels_overlay.png", "preview_segments_png": "data/processed/previews/brt-002_segments_overlay.png", "preview_dsm_png": "data/processed/previews/brt-002_dsm_elevation.png", "preview_mask_png": "data/processed/previews/brt-002_roof_mask.png", "preview_flux_png": "data/processed/previews/brt-002_flux_heatmap.png" }, "geometry": { "type": "Point", "coordinates": [ 106.8230583, -6.1970894 ] } },
{ "type": "Feature", "properties": { "asset_id": "BRT-003", "asset_name": "Halte Bundaran Senayan", "category": "brt", "category_display": "Halte BRT TransJakarta", "city_regency": "Jakarta Selatan", "postal_code": "10270", "source_raw_file": "data/raw/transjakarta/transjakarta_stations.csv", "raw_lat": -6.22787, "raw_lon": 106.80094, "google_building_id": "buildings/ChIJSZk-Wk_xaS4R62r5YxG5ot0", "google_maps_url": "https://www.google.com/maps/search/?api=1&query=-6.227873,106.800941", "google_center_lat": -6.2278729, "google_center_lon": 106.800941, "spatial_drift_meters": 0.34, "drift_status": "VALID (< 30m)", "imagery_date": "2025-08-16", "quality_tier": "BASE", "whole_roof_area_m2": 227.93, "max_roof_area_m2": 178.68, "roof_suitability_ratio_pct": 78.4, "building_footprint_m2": 246.99, "total_segments_count": 1, "pitch_range": "13.0° – 13.0°", "weighted_pitch_deg": 13.0, "max_panels_count": 91, "sunshine_hours_annual": 1620.6, "panel_capacity_wp": 400, "installed_capacity_kwp": 36.4, "google_dc_mwh": 56.92, "annual_generation_kwh": 47191.94, "annual_generation_mwh": 47.19, "carbon_offset_factor": 809.0, "ghg_reduction_tons_co2": 38.18, "path_dsm_geotiff": "data/raw/solar/data_layers/dsm/brt/brt-003_dsm.tif", "path_rgb_geotiff": "data/raw/solar/data_layers/rgb/brt/brt-003_rgb.tif", "path_mask_geotiff": "data/raw/solar/data_layers/mask/brt/brt-003_mask.tif", "path_flux_geotiff": "data/raw/solar/data_layers/annual_flux/brt/brt-003_annual_flux.tif", "preview_rgb_png": "data/processed/previews/brt-003_rgb.png", "preview_panels_png": "data/processed/previews/brt-003_panels_overlay.png", "preview_segments_png": "data/processed/previews/brt-003_segments_overlay.png", "preview_dsm_png": "data/processed/previews/brt-003_dsm_elevation.png", "preview_mask_png": "data/processed/previews/brt-003_roof_mask.png", "preview_flux_png": "data/processed/previews/brt-003_flux_heatmap.png" }, "geometry": { "type": "Point", "coordinates": [ 106.800941, -6.2278729 ] } },
{ "type": "Feature", "properties": { "asset_id": "BRT-004", "asset_name": "Halte Monas", "category": "brt", "category_display": "Halte BRT TransJakarta", "city_regency": "Jakarta Pusat", "postal_code": "10110", "source_raw_file": "data/raw/transjakarta/transjakarta_stations.csv", "raw_lat": -6.17598, "raw_lon": 106.82329, "google_building_id": "buildings/GhIJxBKbVjW0GMARu8nfv7C0WkA", "google_maps_url": "https://www.google.com/maps/search/?api=1&query=-6.175984,106.823288", "google_center_lat": -6.1759843, "google_center_lon": 106.8232877, "spatial_drift_meters": 0.54, "drift_status": "VALID (< 30m)", "imagery_date": "2025-07-26", "quality_tier": "BASE", "whole_roof_area_m2": 164.79, "max_roof_area_m2": 143.34, "roof_suitability_ratio_pct": 87.0, "building_footprint_m2": 164.79, "total_segments_count": 1, "pitch_range": "0.3° – 0.3°", "weighted_pitch_deg": 0.3, "max_panels_count": 73, "sunshine_hours_annual": 1626.18, "panel_capacity_wp": 400, "installed_capacity_kwp": 29.2, "google_dc_mwh": 46.98, "annual_generation_kwh": 37987.49, "annual_generation_mwh": 37.99, "carbon_offset_factor": 809.0, "ghg_reduction_tons_co2": 30.73, "path_dsm_geotiff": "data/raw/solar/data_layers/dsm/brt/brt-004_dsm.tif", "path_rgb_geotiff": "data/raw/solar/data_layers/rgb/brt/brt-004_rgb.tif", "path_mask_geotiff": "data/raw/solar/data_layers/mask/brt/brt-004_mask.tif", "path_flux_geotiff": "data/raw/solar/data_layers/annual_flux/brt/brt-004_annual_flux.tif", "preview_rgb_png": "data/processed/previews/brt-004_rgb.png", "preview_panels_png": "data/processed/previews/brt-004_panels_overlay.png", "preview_segments_png": "data/processed/previews/brt-004_segments_overlay.png", "preview_dsm_png": "data/processed/previews/brt-004_dsm_elevation.png", "preview_mask_png": "data/processed/previews/brt-004_roof_mask.png", "preview_flux_png": "data/processed/previews/brt-004_flux_heatmap.png" }, "geometry": { "type": "Point", "coordinates": [ 106.8232877, -6.1759843 ] } },
{ "type": "Feature", "properties": { "asset_id": "BRT-005", "asset_name": "Halte Harmoni", "category": "brt", "category_display": "Halte BRT TransJakarta", "city_regency": "Jakarta Pusat", "postal_code": "10130", "source_raw_file": "data/raw/transjakarta/transjakarta_stations.csv", "raw_lat": -6.16579, "raw_lon": 106.82042, "google_building_id": "buildings/ChIJZWR_Ltj1aS4RmbmULYoudXU", "google_maps_url": "https://www.google.com/maps/search/?api=1&query=-6.165787,106.820418", "google_center_lat": -6.1657868, "google_center_lon": 106.8204179, "spatial_drift_meters": 0.42, "drift_status": "VALID (< 30m)", "imagery_date": "2025-07-26", "quality_tier": "BASE", "whole_roof_area_m2": 323.18, "max_roof_area_m2": 235.63, "roof_suitability_ratio_pct": 72.9, "building_footprint_m2": 367.94, "total_segments_count": 3, "pitch_range": "8.0° – 21.2°", "weighted_pitch_deg": 13.8, "max_panels_count": 120, "sunshine_hours_annual": 1620.02, "panel_capacity_wp": 400, "installed_capacity_kwp": 48.0, "google_dc_mwh": 71.1, "annual_generation_kwh": 62208.93, "annual_generation_mwh": 62.21, "carbon_offset_factor": 809.0, "ghg_reduction_tons_co2": 50.33, "path_dsm_geotiff": "data/raw/solar/data_layers/dsm/brt/brt-005_dsm.tif", "path_rgb_geotiff": "data/raw/solar/data_layers/rgb/brt/brt-005_rgb.tif", "path_mask_geotiff": "data/raw/solar/data_layers/mask/brt/brt-005_mask.tif", "path_flux_geotiff": "data/raw/solar/data_layers/annual_flux/brt/brt-005_annual_flux.tif", "preview_rgb_png": "data/processed/previews/brt-005_rgb.png", "preview_panels_png": "data/processed/previews/brt-005_panels_overlay.png", "preview_segments_png": "data/processed/previews/brt-005_segments_overlay.png", "preview_dsm_png": "data/processed/previews/brt-005_dsm_elevation.png", "preview_mask_png": "data/processed/previews/brt-005_roof_mask.png", "preview_flux_png": "data/processed/previews/brt-005_flux_heatmap.png" }, "geometry": { "type": "Point", "coordinates": [ 106.8204179, -6.1657868 ] } },
{ "type": "Feature", "properties": { "asset_id": "BRT-006", "asset_name": "Halte Ragunan", "category": "brt", "category_display": "Halte BRT TransJakarta", "city_regency": "Jakarta Selatan", "postal_code": "12550", "source_raw_file": "data/raw/transjakarta/transjakarta_stations.csv", "raw_lat": -6.30583, "raw_lon": 106.81965, "google_building_id": "buildings/ChIJrfnQvv3taS4RHp4TjnDb1Hk", "google_maps_url": "https://www.google.com/maps/search/?api=1&query=-6.305826,106.819651", "google_center_lat": -6.3058255, "google_center_lon": 106.8196513, "spatial_drift_meters": 0.52, "drift_status": "VALID (< 30m)", "imagery_date": "2024-10-26", "quality_tier": "BASE", "whole_roof_area_m2": 308.39, "max_roof_area_m2": 198.32, "roof_suitability_ratio_pct": 64.3, "building_footprint_m2": 477.39, "total_segments_count": 2, "pitch_range": "3.6° – 19.7°", "weighted_pitch_deg": 9.6, "max_panels_count": 101, "sunshine_hours_annual": 1612.96, "panel_capacity_wp": 400, "installed_capacity_kwp": 40.4, "google_dc_mwh": 58.63, "annual_generation_kwh": 52130.99, "annual_generation_mwh": 52.13, "carbon_offset_factor": 809.0, "ghg_reduction_tons_co2": 42.17, "path_dsm_geotiff": "data/raw/solar/data_layers/dsm/brt/brt-006_dsm.tif", "path_rgb_geotiff": "data/raw/solar/data_layers/rgb/brt/brt-006_rgb.tif", "path_mask_geotiff": "data/raw/solar/data_layers/mask/brt/brt-006_mask.tif", "path_flux_geotiff": "data/raw/solar/data_layers/annual_flux/brt/brt-006_annual_flux.tif", "preview_rgb_png": "data/processed/previews/brt-006_rgb.png", "preview_panels_png": "data/processed/previews/brt-006_panels_overlay.png", "preview_segments_png": "data/processed/previews/brt-006_segments_overlay.png", "preview_dsm_png": "data/processed/previews/brt-006_dsm_elevation.png", "preview_mask_png": "data/processed/previews/brt-006_roof_mask.png", "preview_flux_png": "data/processed/previews/brt-006_flux_heatmap.png" }, "geometry": { "type": "Point", "coordinates": [ 106.8196513, -6.3058255 ] } },
{ "type": "Feature", "properties": { "asset_id": "BRT-007", "asset_name": "Halte Kampung Melayu", "category": "brt", "category_display": "Halte BRT TransJakarta", "city_regency": "Jakarta Timur", "postal_code": "13310", "source_raw_file": "data/raw/transjakarta/transjakarta_stations.csv", "raw_lat": -6.22431, "raw_lon": 106.86698, "google_building_id": "buildings/ChIJb2nrRHjzaS4Rvnbh-sX56J0", "google_maps_url": "https://www.google.com/maps/search/?api=1&query=-6.224311,106.866983", "google_center_lat": -6.2243107, "google_center_lon": 106.8669829, "spatial_drift_meters": 0.33, "drift_status": "VALID (< 30m)", "imagery_date": "2024-10-26", "quality_tier": "BASE", "whole_roof_area_m2": 120.71, "max_roof_area_m2": 78.54, "roof_suitability_ratio_pct": 65.1, "building_footprint_m2": 193.74, "total_segments_count": 3, "pitch_range": "1.3° – 11.3°", "weighted_pitch_deg": 6.7, "max_panels_count": 40, "sunshine_hours_annual": 1581.41, "panel_capacity_wp": 400, "installed_capacity_kwp": 16.0, "google_dc_mwh": 23.98, "annual_generation_kwh": 20242.05, "annual_generation_mwh": 20.24, "carbon_offset_factor": 809.0, "ghg_reduction_tons_co2": 16.38, "path_dsm_geotiff": "data/raw/solar/data_layers/dsm/brt/brt-007_dsm.tif", "path_rgb_geotiff": "data/raw/solar/data_layers/rgb/brt/brt-007_rgb.tif", "path_mask_geotiff": "data/raw/solar/data_layers/mask/brt/brt-007_mask.tif", "path_flux_geotiff": "data/raw/solar/data_layers/annual_flux/brt/brt-007_annual_flux.tif", "preview_rgb_png": "data/processed/previews/brt-007_rgb.png", "preview_panels_png": "data/processed/previews/brt-007_panels_overlay.png", "preview_segments_png": "data/processed/previews/brt-007_segments_overlay.png", "preview_dsm_png": "data/processed/previews/brt-007_dsm_elevation.png", "preview_mask_png": "data/processed/previews/brt-007_roof_mask.png", "preview_flux_png": "data/processed/previews/brt-007_flux_heatmap.png" }, "geometry": { "type": "Point", "coordinates": [ 106.8669829, -6.2243107 ] } },
{ "type": "Feature", "properties": { "asset_id": "BRT-008", "asset_name": "Halte Pulo Gadung", "category": "brt", "category_display": "Halte BRT TransJakarta", "city_regency": "Jakarta Timur", "postal_code": "13260", "source_raw_file": "data/raw/transjakarta/transjakarta_stations.csv", "raw_lat": -6.1826, "raw_lon": 106.90904, "google_building_id": "buildings/ChIJxcoCXtL0aS4RGOVXc78a3ZQ", "google_maps_url": "https://www.google.com/maps/search/?api=1&query=-6.182595,106.909037", "google_center_lat": -6.1825946, "google_center_lon": 106.9090373, "spatial_drift_meters": 0.67, "drift_status": "VALID (< 30m)", "imagery_date": "2024-10-26", "quality_tier": "BASE", "whole_roof_area_m2": 559.06, "max_roof_area_m2": 390.75, "roof_suitability_ratio_pct": 69.9, "building_footprint_m2": 771.61, "total_segments_count": 10, "pitch_range": "19.2° – 30.5°", "weighted_pitch_deg": 27.9, "max_panels_count": 199, "sunshine_hours_annual": 1687.85, "panel_capacity_wp": 400, "installed_capacity_kwp": 79.6, "google_dc_mwh": 121.65, "annual_generation_kwh": 107482.49, "annual_generation_mwh": 107.48, "carbon_offset_factor": 809.0, "ghg_reduction_tons_co2": 86.95, "path_dsm_geotiff": "data/raw/solar/data_layers/dsm/brt/brt-008_dsm.tif", "path_rgb_geotiff": "data/raw/solar/data_layers/rgb/brt/brt-008_rgb.tif", "path_mask_geotiff": "data/raw/solar/data_layers/mask/brt/brt-008_mask.tif", "path_flux_geotiff": "data/raw/solar/data_layers/annual_flux/brt/brt-008_annual_flux.tif", "preview_rgb_png": "data/processed/previews/brt-008_rgb.png", "preview_panels_png": "data/processed/previews/brt-008_panels_overlay.png", "preview_segments_png": "data/processed/previews/brt-008_segments_overlay.png", "preview_dsm_png": "data/processed/previews/brt-008_dsm_elevation.png", "preview_mask_png": "data/processed/previews/brt-008_roof_mask.png", "preview_flux_png": "data/processed/previews/brt-008_flux_heatmap.png" }, "geometry": { "type": "Point", "coordinates": [ 106.9090373, -6.1825946 ] } },
{ "type": "Feature", "properties": { "asset_id": "KRL-032", "asset_name": "Stasiun KRL Manggarai Sentral", "category": "krl", "category_display": "KRL Commuter Line", "city_regency": "Jakarta Selatan", "postal_code": "12850", "source_raw_file": "data/raw/krl/krl_stations.csv", "raw_lat": -6.21017, "raw_lon": 106.849935, "google_building_id": "buildings/ChIJx6Y3I3H0aS4RMX7C5Jw8YAI", "google_maps_url": "https://www.google.com/maps/search/?api=1&query=-6.210189,106.849856", "google_center_lat": -6.2101892, "google_center_lon": 106.8498556, "spatial_drift_meters": 9.03, "drift_status": "VALID (< 30m)", "imagery_date": "2025-08-16", "quality_tier": "BASE", "whole_roof_area_m2": 9871.97, "max_roof_area_m2": 8696.58, "roof_suitability_ratio_pct": 88.1, "building_footprint_m2": 13129.91, "total_segments_count": 15, "pitch_range": "0.4° – 28.9°", "weighted_pitch_deg": 5.9, "max_panels_count": 4429, "sunshine_hours_annual": 1652.85, "panel_capacity_wp": 400, "installed_capacity_kwp": 1771.6, "google_dc_mwh": 2863.0, "annual_generation_kwh": 2342546.71, "annual_generation_mwh": 2342.55, "carbon_offset_factor": 809.0, "ghg_reduction_tons_co2": 1895.12, "path_dsm_geotiff": "data/raw/solar/data_layers/dsm/krl/krl-032_dsm.tif", "path_rgb_geotiff": "data/raw/solar/data_layers/rgb/krl/krl-032_rgb.tif", "path_mask_geotiff": "data/raw/solar/data_layers/mask/krl/krl-032_mask.tif", "path_flux_geotiff": "data/raw/solar/data_layers/annual_flux/krl/krl-032_annual_flux.tif", "preview_rgb_png": "data/processed/previews/krl-032_rgb.png", "preview_panels_png": "data/processed/previews/krl-032_panels_overlay.png", "preview_segments_png": "data/processed/previews/krl-032_segments_overlay.png", "preview_dsm_png": "data/processed/previews/krl-032_dsm_elevation.png", "preview_mask_png": "data/processed/previews/krl-032_roof_mask.png", "preview_flux_png": "data/processed/previews/krl-032_flux_heatmap.png" }, "geometry": { "type": "Point", "coordinates": [ 106.8498556, -6.2101892 ] } },
{ "type": "Feature", "properties": { "asset_id": "KRL-001", "asset_name": "Stasiun KRL Jakarta Kota", "category": "krl", "category_display": "KRL Commuter Line", "city_regency": "Jakarta Barat", "postal_code": "11110", "source_raw_file": "data/raw/krl/krl_stations.csv", "raw_lat": -6.137583, "raw_lon": 106.81462, "google_building_id": "buildings/ChIJj3l0NgD2aS4Rdf2IvAf8tzk", "google_maps_url": "https://www.google.com/maps/search/?api=1&query=-6.137362,106.815217", "google_center_lat": -6.1373618, "google_center_lon": 106.8152171, "spatial_drift_meters": 70.45, "drift_status": "REVIEW (> 30m)", "imagery_date": "2025-07-26", "quality_tier": "BASE", "whole_roof_area_m2": 10407.02, "max_roof_area_m2": 9242.45, "roof_suitability_ratio_pct": 88.8, "building_footprint_m2": 19764.63, "total_segments_count": 10, "pitch_range": "0.7° – 18.1°", "weighted_pitch_deg": 5.8, "max_panels_count": 4707, "sunshine_hours_annual": 1660.78, "panel_capacity_wp": 400, "installed_capacity_kwp": 1882.8, "google_dc_mwh": 2838.87, "annual_generation_kwh": 2501530.86, "annual_generation_mwh": 2501.53, "carbon_offset_factor": 809.0, "ghg_reduction_tons_co2": 2023.74, "path_dsm_geotiff": "data/raw/solar/data_layers/dsm/krl/krl-001_dsm.tif", "path_rgb_geotiff": "data/raw/solar/data_layers/rgb/krl/krl-001_rgb.tif", "path_mask_geotiff": "data/raw/solar/data_layers/mask/krl/krl-001_mask.tif", "path_flux_geotiff": "data/raw/solar/data_layers/annual_flux/krl/krl-001_annual_flux.tif", "preview_rgb_png": "data/processed/previews/krl-001_rgb.png", "preview_panels_png": "data/processed/previews/krl-001_panels_overlay.png", "preview_segments_png": "data/processed/previews/krl-001_segments_overlay.png", "preview_dsm_png": "data/processed/previews/krl-001_dsm_elevation.png", "preview_mask_png": "data/processed/previews/krl-001_roof_mask.png", "preview_flux_png": "data/processed/previews/krl-001_flux_heatmap.png" }, "geometry": { "type": "Point", "coordinates": [ 106.8152171, -6.1373618 ] } },
{ "type": "Feature", "properties": { "asset_id": "KRL-002", "asset_name": "Stasiun KRL Tanah Abang", "category": "krl", "category_display": "KRL Commuter Line", "city_regency": "Jakarta Pusat", "postal_code": "10250", "source_raw_file": "data/raw/krl/krl_stations.csv", "raw_lat": -6.185713, "raw_lon": 106.810894, "google_building_id": "buildings/ChIJ83wUloT2aS4RrCRDTmN5ahg", "google_maps_url": "https://www.google.com/maps/search/?api=1&query=-6.185491,106.810941", "google_center_lat": -6.1854914, "google_center_lon": 106.8109411, "spatial_drift_meters": 25.18, "drift_status": "VALID (< 30m)", "imagery_date": "2025-08-16", "quality_tier": "BASE", "whole_roof_area_m2": 2943.24, "max_roof_area_m2": 2534.95, "roof_suitability_ratio_pct": 86.1, "building_footprint_m2": 4578.0, "total_segments_count": 4, "pitch_range": "0.9° – 5.2°", "weighted_pitch_deg": 1.5, "max_panels_count": 1291, "sunshine_hours_annual": 1651.4, "panel_capacity_wp": 400, "installed_capacity_kwp": 516.4, "google_dc_mwh": 811.36, "annual_generation_kwh": 682227.32, "annual_generation_mwh": 682.23, "carbon_offset_factor": 809.0, "ghg_reduction_tons_co2": 551.92, "path_dsm_geotiff": "data/raw/solar/data_layers/dsm/krl/krl-002_dsm.tif", "path_rgb_geotiff": "data/raw/solar/data_layers/rgb/krl/krl-002_rgb.tif", "path_mask_geotiff": "data/raw/solar/data_layers/mask/krl/krl-002_mask.tif", "path_flux_geotiff": "data/raw/solar/data_layers/annual_flux/krl/krl-002_annual_flux.tif", "preview_rgb_png": "data/processed/previews/krl-002_rgb.png", "preview_panels_png": "data/processed/previews/krl-002_panels_overlay.png", "preview_segments_png": "data/processed/previews/krl-002_segments_overlay.png", "preview_dsm_png": "data/processed/previews/krl-002_dsm_elevation.png", "preview_mask_png": "data/processed/previews/krl-002_roof_mask.png", "preview_flux_png": "data/processed/previews/krl-002_flux_heatmap.png" }, "geometry": { "type": "Point", "coordinates": [ 106.8109411, -6.1854914 ] } },
{ "type": "Feature", "properties": { "asset_id": "KRL-003", "asset_name": "Stasiun KRL Pasar Senen", "category": "krl", "category_display": "KRL Commuter Line", "city_regency": "Jakarta Pusat", "postal_code": "10410", "source_raw_file": "data/raw/krl/krl_stations.csv", "raw_lat": -6.1755, "raw_lon": 106.84285, "google_building_id": "buildings/ChIJedPTNrX1aS4RVUQQZcDdvmQ", "google_maps_url": "https://www.google.com/maps/search/?api=1&query=-6.175399,106.842903", "google_center_lat": -6.1753986, "google_center_lon": 106.8429027, "spatial_drift_meters": 12.69, "drift_status": "VALID (< 30m)", "imagery_date": "2025-07-26", "quality_tier": "BASE", "whole_roof_area_m2": 870.14, "max_roof_area_m2": 757.93, "roof_suitability_ratio_pct": 87.1, "building_footprint_m2": 1465.56, "total_segments_count": 1, "pitch_range": "6.4° – 6.4°", "weighted_pitch_deg": 6.4, "max_panels_count": 386, "sunshine_hours_annual": 1643.51, "panel_capacity_wp": 400, "installed_capacity_kwp": 154.4, "google_dc_mwh": 248.6, "annual_generation_kwh": 203005.89, "annual_generation_mwh": 203.01, "carbon_offset_factor": 809.0, "ghg_reduction_tons_co2": 164.23, "path_dsm_geotiff": "data/raw/solar/data_layers/dsm/krl/krl-003_dsm.tif", "path_rgb_geotiff": "data/raw/solar/data_layers/rgb/krl/krl-003_rgb.tif", "path_mask_geotiff": "data/raw/solar/data_layers/mask/krl/krl-003_mask.tif", "path_flux_geotiff": "data/raw/solar/data_layers/annual_flux/krl/krl-003_annual_flux.tif", "preview_rgb_png": "data/processed/previews/krl-003_rgb.png", "preview_panels_png": "data/processed/previews/krl-003_panels_overlay.png", "preview_segments_png": "data/processed/previews/krl-003_segments_overlay.png", "preview_dsm_png": "data/processed/previews/krl-003_dsm_elevation.png", "preview_mask_png": "data/processed/previews/krl-003_roof_mask.png", "preview_flux_png": "data/processed/previews/krl-003_flux_heatmap.png" }, "geometry": { "type": "Point", "coordinates": [ 106.8429027, -6.1753986 ] } },
{ "type": "Feature", "properties": { "asset_id": "KRL-004", "asset_name": "Stasiun KRL Jatinegara", "category": "krl", "category_display": "KRL Commuter Line", "city_regency": "Jakarta Timur", "postal_code": "13110", "source_raw_file": "data/raw/krl/krl_stations.csv", "raw_lat": -6.214925, "raw_lon": 106.870339, "google_building_id": "buildings/ChIJ8ZSc8IH0aS4R4-Upw8xXxL0", "google_maps_url": "https://www.google.com/maps/search/?api=1&query=-6.214878,106.870573", "google_center_lat": -6.2148785, "google_center_lon": 106.8705735, "spatial_drift_meters": 26.43, "drift_status": "VALID (< 30m)", "imagery_date": "2025-08-16", "quality_tier": "BASE", "whole_roof_area_m2": 6413.09, "max_roof_area_m2": 5488.14, "roof_suitability_ratio_pct": 85.6, "building_footprint_m2": 12255.58, "total_segments_count": 14, "pitch_range": "0.2° – 8.1°", "weighted_pitch_deg": 2.5, "max_panels_count": 2795, "sunshine_hours_annual": 1646.43, "panel_capacity_wp": 400, "installed_capacity_kwp": 1118.0, "google_dc_mwh": 1777.37, "annual_generation_kwh": 1472568.87, "annual_generation_mwh": 1472.57, "carbon_offset_factor": 809.0, "ghg_reduction_tons_co2": 1191.31, "path_dsm_geotiff": "data/raw/solar/data_layers/dsm/krl/krl-004_dsm.tif", "path_rgb_geotiff": "data/raw/solar/data_layers/rgb/krl/krl-004_rgb.tif", "path_mask_geotiff": "data/raw/solar/data_layers/mask/krl/krl-004_mask.tif", "path_flux_geotiff": "data/raw/solar/data_layers/annual_flux/krl/krl-004_annual_flux.tif", "preview_rgb_png": "data/processed/previews/krl-004_rgb.png", "preview_panels_png": "data/processed/previews/krl-004_panels_overlay.png", "preview_segments_png": "data/processed/previews/krl-004_segments_overlay.png", "preview_dsm_png": "data/processed/previews/krl-004_dsm_elevation.png", "preview_mask_png": "data/processed/previews/krl-004_roof_mask.png", "preview_flux_png": "data/processed/previews/krl-004_flux_heatmap.png" }, "geometry": { "type": "Point", "coordinates": [ 106.8705735, -6.2148785 ] } },
{ "type": "Feature", "properties": { "asset_id": "KRL-005", "asset_name": "Stasiun KRL Sudirman", "category": "krl", "category_display": "KRL Commuter Line", "city_regency": "Jakarta Pusat", "postal_code": "10310", "source_raw_file": "data/raw/krl/krl_stations.csv", "raw_lat": -6.202408, "raw_lon": 106.823449, "google_building_id": "buildings/ChIJy66UBhz0aS4Rc0gvIpLJYa8", "google_maps_url": "https://www.google.com/maps/search/?api=1&query=-6.202400,106.823461", "google_center_lat": -6.2024, "google_center_lon": 106.8234605, "spatial_drift_meters": 1.55, "drift_status": "VALID (< 30m)", "imagery_date": "2025-08-16", "quality_tier": "BASE", "whole_roof_area_m2": 516.48, "max_roof_area_m2": 359.33, "roof_suitability_ratio_pct": 69.6, "building_footprint_m2": 631.86, "total_segments_count": 7, "pitch_range": "4.7° – 25.4°", "weighted_pitch_deg": 10.5, "max_panels_count": 183, "sunshine_hours_annual": 1653.49, "panel_capacity_wp": 400, "installed_capacity_kwp": 73.2, "google_dc_mwh": 117.22, "annual_generation_kwh": 96828.64, "annual_generation_mwh": 96.83, "carbon_offset_factor": 809.0, "ghg_reduction_tons_co2": 78.33, "path_dsm_geotiff": "data/raw/solar/data_layers/dsm/krl/krl-005_dsm.tif", "path_rgb_geotiff": "data/raw/solar/data_layers/rgb/krl/krl-005_rgb.tif", "path_mask_geotiff": "data/raw/solar/data_layers/mask/krl/krl-005_mask.tif", "path_flux_geotiff": "data/raw/solar/data_layers/annual_flux/krl/krl-005_annual_flux.tif", "preview_rgb_png": "data/processed/previews/krl-005_rgb.png", "preview_panels_png": "data/processed/previews/krl-005_panels_overlay.png", "preview_segments_png": "data/processed/previews/krl-005_segments_overlay.png", "preview_dsm_png": "data/processed/previews/krl-005_dsm_elevation.png", "preview_mask_png": "data/processed/previews/krl-005_roof_mask.png", "preview_flux_png": "data/processed/previews/krl-005_flux_heatmap.png" }, "geometry": { "type": "Point", "coordinates": [ 106.82346050000001, -6.2024 ] } },
{ "type": "Feature", "properties": { "asset_id": "KRL-006", "asset_name": "Stasiun KRL Duren Kalibata", "category": "krl", "category_display": "KRL Commuter Line", "city_regency": "Jakarta Selatan", "postal_code": "12750", "source_raw_file": "data/raw/krl/krl_stations.csv", "raw_lat": -6.25466, "raw_lon": 106.85534, "google_building_id": "buildings/ChIJJz_np63zaS4RmFcvoAS4UTk", "google_maps_url": "https://www.google.com/maps/search/?api=1&query=-6.254663,106.855337", "google_center_lat": -6.2546627, "google_center_lon": 106.8553369, "spatial_drift_meters": 0.46, "drift_status": "VALID (< 30m)", "imagery_date": "2025-08-16", "quality_tier": "BASE", "whole_roof_area_m2": 1100.68, "max_roof_area_m2": 901.27, "roof_suitability_ratio_pct": 81.9, "building_footprint_m2": 1769.41, "total_segments_count": 1, "pitch_range": "9.1° – 9.1°", "weighted_pitch_deg": 9.1, "max_panels_count": 459, "sunshine_hours_annual": 1568.29, "panel_capacity_wp": 400, "installed_capacity_kwp": 183.6, "google_dc_mwh": 265.1, "annual_generation_kwh": 230350.51, "annual_generation_mwh": 230.35, "carbon_offset_factor": 809.0, "ghg_reduction_tons_co2": 186.35, "path_dsm_geotiff": "data/raw/solar/data_layers/dsm/krl/krl-006_dsm.tif", "path_rgb_geotiff": "data/raw/solar/data_layers/rgb/krl/krl-006_rgb.tif", "path_mask_geotiff": "data/raw/solar/data_layers/mask/krl/krl-006_mask.tif", "path_flux_geotiff": "data/raw/solar/data_layers/annual_flux/krl/krl-006_annual_flux.tif", "preview_rgb_png": "data/processed/previews/krl-006_rgb.png", "preview_panels_png": "data/processed/previews/krl-006_panels_overlay.png", "preview_segments_png": "data/processed/previews/krl-006_segments_overlay.png", "preview_dsm_png": "data/processed/previews/krl-006_dsm_elevation.png", "preview_mask_png": "data/processed/previews/krl-006_roof_mask.png", "preview_flux_png": "data/processed/previews/krl-006_flux_heatmap.png" }, "geometry": { "type": "Point", "coordinates": [ 106.8553369, -6.2546627 ] } },
{ "type": "Feature", "properties": { "asset_id": "MRT-003", "asset_name": "Stasiun MRT Cipete Raya", "category": "mrt", "category_display": "MRT Jakarta", "city_regency": "Jakarta Selatan", "postal_code": "12420", "source_raw_file": "data/raw/mrt_lrt/mrt_stations.csv", "raw_lat": -6.278342, "raw_lon": 106.797326, "google_building_id": "buildings/ChIJpeCp35TxaS4RDUmeARBfs3I", "google_maps_url": "https://www.google.com/maps/search/?api=1&query=-6.278361,106.797312", "google_center_lat": -6.2783606, "google_center_lon": 106.7973123, "spatial_drift_meters": 2.56, "drift_status": "VALID (< 30m)", "imagery_date": "2025-08-16", "quality_tier": "BASE", "whole_roof_area_m2": 3850.96, "max_roof_area_m2": 3224.16, "roof_suitability_ratio_pct": 83.7, "building_footprint_m2": 4459.47, "total_segments_count": 12, "pitch_range": "2.0° – 23.9°", "weighted_pitch_deg": 15.7, "max_panels_count": 1642, "sunshine_hours_annual": 1645.6, "panel_capacity_wp": 400, "installed_capacity_kwp": 656.8, "google_dc_mwh": 1026.12, "annual_generation_kwh": 864661.49, "annual_generation_mwh": 864.66, "carbon_offset_factor": 809.0, "ghg_reduction_tons_co2": 699.51, "path_dsm_geotiff": "data/raw/solar/data_layers/dsm/mrt/mrt-003_dsm.tif", "path_rgb_geotiff": "data/raw/solar/data_layers/rgb/mrt/mrt-003_rgb.tif", "path_mask_geotiff": "data/raw/solar/data_layers/mask/mrt/mrt-003_mask.tif", "path_flux_geotiff": "data/raw/solar/data_layers/annual_flux/mrt/mrt-003_annual_flux.tif", "preview_rgb_png": "data/processed/previews/mrt-003_rgb.png", "preview_panels_png": "data/processed/previews/mrt-003_panels_overlay.png", "preview_segments_png": "data/processed/previews/mrt-003_segments_overlay.png", "preview_dsm_png": "data/processed/previews/mrt-003_dsm_elevation.png", "preview_mask_png": "data/processed/previews/mrt-003_roof_mask.png", "preview_flux_png": "data/processed/previews/mrt-003_flux_heatmap.png" }, "geometry": { "type": "Point", "coordinates": [ 106.7973123, -6.2783606 ] } },
{ "type": "Feature", "properties": { "asset_id": "LRT-014", "asset_name": "Stasiun LRT Dukuh Atas", "category": "lrt", "category_display": "LRT", "city_regency": "Jakarta Pusat", "postal_code": "12910", "source_raw_file": "data/raw/mrt_lrt/lrt_jabodebek_stations.geojson", "raw_lat": -6.204828, "raw_lon": 106.82553, "google_building_id": "buildings/ChIJlbC7BRv0aS4RB0sO1N-weGg", "google_maps_url": "https://www.google.com/maps/search/?api=1&query=-6.204863,106.825604", "google_center_lat": -6.2048629, "google_center_lon": 106.8256039, "spatial_drift_meters": 9.04, "drift_status": "VALID (< 30m)", "imagery_date": "2025-08-16", "quality_tier": "BASE", "whole_roof_area_m2": 1808.91, "max_roof_area_m2": 1525.68, "roof_suitability_ratio_pct": 84.3, "building_footprint_m2": 2909.96, "total_segments_count": 4, "pitch_range": "2.2° – 11.2°", "weighted_pitch_deg": 3.4, "max_panels_count": 777, "sunshine_hours_annual": 1638.0, "panel_capacity_wp": 400, "installed_capacity_kwp": 310.8, "google_dc_mwh": 501.27, "annual_generation_kwh": 407271.77, "annual_generation_mwh": 407.27, "carbon_offset_factor": 809.0, "ghg_reduction_tons_co2": 329.48, "path_dsm_geotiff": "data/raw/solar/data_layers/dsm/lrt/lrt-014_dsm.tif", "path_rgb_geotiff": "data/raw/solar/data_layers/rgb/lrt/lrt-014_rgb.tif", "path_mask_geotiff": "data/raw/solar/data_layers/mask/lrt/lrt-014_mask.tif", "path_flux_geotiff": "data/raw/solar/data_layers/annual_flux/lrt/lrt-014_annual_flux.tif", "preview_rgb_png": "data/processed/previews/lrt-014_rgb.png", "preview_panels_png": "data/processed/previews/lrt-014_panels_overlay.png", "preview_segments_png": "data/processed/previews/lrt-014_segments_overlay.png", "preview_dsm_png": "data/processed/previews/lrt-014_dsm_elevation.png", "preview_mask_png": "data/processed/previews/lrt-014_roof_mask.png", "preview_flux_png": "data/processed/previews/lrt-014_flux_heatmap.png" }, "geometry": { "type": "Point", "coordinates": [ 106.8256039, -6.2048629 ] } },
{ "type": "Feature", "properties": { "asset_id": "TERM-001", "asset_name": "Terminal Bus Tanjung Priok", "category": "terminal", "category_display": "Terminal Bus", "city_regency": "Jakarta Utara", "postal_code": "14310", "source_raw_file": "data/raw/osm/terminals_jakarta.geojson", "raw_lat": -6.112102, "raw_lon": 106.880937, "google_building_id": "buildings/ChIJO-tS67gfai4RO3TrPsNqK-0", "google_maps_url": "https://www.google.com/maps/search/?api=1&query=-6.112102,106.880936", "google_center_lat": -6.1121017, "google_center_lon": 106.8809365, "spatial_drift_meters": 0.06, "drift_status": "VALID (< 30m)", "imagery_date": "2025-07-26", "quality_tier": "BASE", "whole_roof_area_m2": 977.78, "max_roof_area_m2": 632.26, "roof_suitability_ratio_pct": 64.7, "building_footprint_m2": 1449.41, "total_segments_count": 12, "pitch_range": "1.0° – 13.4°", "weighted_pitch_deg": 3.0, "max_panels_count": 322, "sunshine_hours_annual": 1706.98, "panel_capacity_wp": 400, "installed_capacity_kwp": 128.8, "google_dc_mwh": 212.11, "annual_generation_kwh": 175887.57, "annual_generation_mwh": 175.89, "carbon_offset_factor": 809.0, "ghg_reduction_tons_co2": 142.29, "path_dsm_geotiff": "data/raw/solar/data_layers/dsm/terminal/term-001_dsm.tif", "path_rgb_geotiff": "data/raw/solar/data_layers/rgb/terminal/term-001_rgb.tif", "path_mask_geotiff": "data/raw/solar/data_layers/mask/terminal/term-001_mask.tif", "path_flux_geotiff": "data/raw/solar/data_layers/annual_flux/terminal/term-001_annual_flux.tif", "preview_rgb_png": "data/processed/previews/term-001_rgb.png", "preview_panels_png": "data/processed/previews/term-001_panels_overlay.png", "preview_segments_png": "data/processed/previews/term-001_segments_overlay.png", "preview_dsm_png": "data/processed/previews/term-001_dsm_elevation.png", "preview_mask_png": "data/processed/previews/term-001_roof_mask.png", "preview_flux_png": "data/processed/previews/term-001_flux_heatmap.png" }, "geometry": { "type": "Point", "coordinates": [ 106.8809365, -6.1121017 ] } },
{ "type": "Feature", "properties": { "asset_id": "AIR-001", "asset_name": "Bandara Soekarno-Hatta (Terminal 3)", "category": "airport", "category_display": "Bandara", "city_regency": "Kota Tangerang", "postal_code": "15126", "source_raw_file": "data/raw/osm/airports_jakarta.geojson", "raw_lat": -6.11993, "raw_lon": 106.662502, "google_building_id": "buildings/ChIJ-U7OnkICai4RhMxzhhHDMaA", "google_maps_url": "https://www.google.com/maps/search/?api=1&query=-6.119930,106.662502", "google_center_lat": -6.1199302, "google_center_lon": 106.662502, "spatial_drift_meters": 0.02, "drift_status": "VALID (< 30m)", "imagery_date": "2025-07-26", "quality_tier": "BASE", "whole_roof_area_m2": 1985.89, "max_roof_area_m2": 1596.37, "roof_suitability_ratio_pct": 80.4, "building_footprint_m2": 3053.39, "total_segments_count": 2, "pitch_range": "3.9° – 7.7°", "weighted_pitch_deg": 6.0, "max_panels_count": 813, "sunshine_hours_annual": 1705.36, "panel_capacity_wp": 400, "installed_capacity_kwp": 325.2, "google_dc_mwh": 528.14, "annual_generation_kwh": 443667.03, "annual_generation_mwh": 443.67, "carbon_offset_factor": 809.0, "ghg_reduction_tons_co2": 358.93, "path_dsm_geotiff": "data/raw/solar/data_layers/dsm/airport/air-001_dsm.tif", "path_rgb_geotiff": "data/raw/solar/data_layers/rgb/airport/air-001_rgb.tif", "path_mask_geotiff": "data/raw/solar/data_layers/mask/airport/air-001_mask.tif", "path_flux_geotiff": "data/raw/solar/data_layers/annual_flux/airport/air-001_annual_flux.tif", "preview_rgb_png": "data/processed/previews/air-001_rgb.png", "preview_panels_png": "data/processed/previews/air-001_panels_overlay.png", "preview_segments_png": "data/processed/previews/air-001_segments_overlay.png", "preview_dsm_png": "data/processed/previews/air-001_dsm_elevation.png", "preview_mask_png": "data/processed/previews/air-001_roof_mask.png", "preview_flux_png": "data/processed/previews/air-001_flux_heatmap.png" }, "geometry": { "type": "Point", "coordinates": [ 106.662502, -6.1199302 ] } },
{ "type": "Feature", "properties": { "asset_id": "PKG-001", "asset_name": "Gedung Parkir Binus University", "category": "parking", "category_display": "Gedung Parkir", "city_regency": "Jakarta Barat", "postal_code": "11530", "source_raw_file": "data/raw/osm/parking_jakarta.gpkg", "raw_lat": -6.202025, "raw_lon": 106.780171, "google_building_id": "buildings/ChIJ-ZqV8tz2aS4R66vud36uOOg", "google_maps_url": "https://www.google.com/maps/search/?api=1&query=-6.202051,106.780141", "google_center_lat": -6.202051, "google_center_lon": 106.7801414, "spatial_drift_meters": 4.37, "drift_status": "VALID (< 30m)", "imagery_date": "2024-10-26", "quality_tier": "BASE", "whole_roof_area_m2": 1805.56, "max_roof_area_m2": 1413.76, "roof_suitability_ratio_pct": 78.3, "building_footprint_m2": 2043.89, "total_segments_count": 11, "pitch_range": "0.2° – 10.6°", "weighted_pitch_deg": 2.7, "max_panels_count": 720, "sunshine_hours_annual": 1628.42, "panel_capacity_wp": 400, "installed_capacity_kwp": 288.0, "google_dc_mwh": 450.89, "annual_generation_kwh": 375187.25, "annual_generation_mwh": 375.19, "carbon_offset_factor": 809.0, "ghg_reduction_tons_co2": 303.53, "path_dsm_geotiff": "data/raw/solar/data_layers/dsm/parking/pkg-001_dsm.tif", "path_rgb_geotiff": "data/raw/solar/data_layers/rgb/parking/pkg-001_rgb.tif", "path_mask_geotiff": "data/raw/solar/data_layers/mask/parking/pkg-001_mask.tif", "path_flux_geotiff": "data/raw/solar/data_layers/annual_flux/parking/pkg-001_annual_flux.tif", "preview_rgb_png": "data/processed/previews/pkg-001_rgb.png", "preview_panels_png": "data/processed/previews/pkg-001_panels_overlay.png", "preview_segments_png": "data/processed/previews/pkg-001_segments_overlay.png", "preview_dsm_png": "data/processed/previews/pkg-001_dsm_elevation.png", "preview_mask_png": "data/processed/previews/pkg-001_roof_mask.png", "preview_flux_png": "data/processed/previews/pkg-001_flux_heatmap.png" }, "geometry": { "type": "Point", "coordinates": [ 106.7801414, -6.202051 ] } },
{ "type": "Feature", "properties": { "asset_id": "MALL-001", "asset_name": "Pondok Indah Mall 1", "category": "mall", "category_display": "Pusat Perbelanjaan / Mall", "city_regency": "Jakarta Selatan", "postal_code": "12310", "source_raw_file": "data/raw/osm/commercial_jakarta.geojson", "raw_lat": -6.265332, "raw_lon": 106.784584, "google_building_id": "buildings/ChIJnR66SqTxaS4Rb_d9QN6tw0Y", "google_maps_url": "https://www.google.com/maps/search/?api=1&query=-6.265363,106.784537", "google_center_lat": -6.2653632, "google_center_lon": 106.7845368, "spatial_drift_meters": 6.27, "drift_status": "VALID (< 30m)", "imagery_date": "2025-08-16", "quality_tier": "BASE", "whole_roof_area_m2": 15415.01, "max_roof_area_m2": 10667.99, "roof_suitability_ratio_pct": 69.2, "building_footprint_m2": 20001.64, "total_segments_count": 101, "pitch_range": "0.3° – 74.7°", "weighted_pitch_deg": 3.9, "max_panels_count": 5433, "sunshine_hours_annual": 1645.38, "panel_capacity_wp": 400, "installed_capacity_kwp": 2173.2, "google_dc_mwh": 3454.11, "annual_generation_kwh": 2860585.07, "annual_generation_mwh": 2860.59, "carbon_offset_factor": 809.0, "ghg_reduction_tons_co2": 2314.21, "path_dsm_geotiff": "data/raw/solar/data_layers/dsm/mall/mall-001_dsm.tif", "path_rgb_geotiff": "data/raw/solar/data_layers/rgb/mall/mall-001_rgb.tif", "path_mask_geotiff": "data/raw/solar/data_layers/mask/mall/mall-001_mask.tif", "path_flux_geotiff": "data/raw/solar/data_layers/annual_flux/mall/mall-001_annual_flux.tif", "preview_rgb_png": "data/processed/previews/mall-001_rgb.png", "preview_panels_png": "data/processed/previews/mall-001_panels_overlay.png", "preview_segments_png": "data/processed/previews/mall-001_segments_overlay.png", "preview_dsm_png": "data/processed/previews/mall-001_dsm_elevation.png", "preview_mask_png": "data/processed/previews/mall-001_roof_mask.png", "preview_flux_png": "data/processed/previews/mall-001_flux_heatmap.png" }, "geometry": { "type": "Point", "coordinates": [ 106.7845368, -6.2653632 ] } },
{ "type": "Feature", "properties": { "asset_id": "RS-007", "asset_name": "RSUD Tarakan Jakarta", "category": "hospital", "category_display": "Rumah Sakit", "city_regency": "Jakarta Pusat", "postal_code": "10150", "source_raw_file": "data/raw/osm/hospitals_jakarta.gpkg", "raw_lat": -6.17155, "raw_lon": 106.81025, "google_building_id": "buildings/ChIJ2Xm5Cnz2aS4RbXwtb-MNEeM", "google_maps_url": "https://www.google.com/maps/search/?api=1&query=-6.171636,106.810223", "google_center_lat": -6.1716364, "google_center_lon": 106.8102227, "spatial_drift_meters": 10.07, "drift_status": "VALID (< 30m)", "imagery_date": "2025-07-26", "quality_tier": "BASE", "whole_roof_area_m2": 1124.94, "max_roof_area_m2": 779.53, "roof_suitability_ratio_pct": 69.3, "building_footprint_m2": 1588.11, "total_segments_count": 14, "pitch_range": "3.4° – 27.7°", "weighted_pitch_deg": 9.4, "max_panels_count": 397, "sunshine_hours_annual": 1634.33, "panel_capacity_wp": 400, "installed_capacity_kwp": 158.8, "google_dc_mwh": 245.68, "annual_generation_kwh": 207625.09, "annual_generation_mwh": 207.63, "carbon_offset_factor": 809.0, "ghg_reduction_tons_co2": 167.97, "path_dsm_geotiff": "data/raw/solar/data_layers/dsm/hospital/rs-007_dsm.tif", "path_rgb_geotiff": "data/raw/solar/data_layers/rgb/hospital/rs-007_rgb.tif", "path_mask_geotiff": "data/raw/solar/data_layers/mask/hospital/rs-007_mask.tif", "path_flux_geotiff": "data/raw/solar/data_layers/annual_flux/hospital/rs-007_annual_flux.tif", "preview_rgb_png": "data/processed/previews/rs-007_rgb.png", "preview_panels_png": "data/processed/previews/rs-007_panels_overlay.png", "preview_segments_png": "data/processed/previews/rs-007_segments_overlay.png", "preview_dsm_png": "data/processed/previews/rs-007_dsm_elevation.png", "preview_mask_png": "data/processed/previews/rs-007_roof_mask.png", "preview_flux_png": "data/processed/previews/rs-007_flux_heatmap.png" }, "geometry": { "type": "Point", "coordinates": [ 106.8102227, -6.1716364 ] } },
{ "type": "Feature", "properties": { "asset_id": "MKT-001", "asset_name": "Pasar Mayestik Kebayoran Baru", "category": "market", "category_display": "Pasar Tradisional", "city_regency": "Jakarta Selatan", "postal_code": "12130", "source_raw_file": "data/raw/osm/markets_jakarta.geojson", "raw_lat": -6.24232, "raw_lon": 106.791039, "google_building_id": "buildings/ChIJv1nNXhTxaS4RTFcCeMRkSlM", "google_maps_url": "https://www.google.com/maps/search/?api=1&query=-6.242320,106.791039", "google_center_lat": -6.2423203, "google_center_lon": 106.7910394, "spatial_drift_meters": 0.06, "drift_status": "VALID (< 30m)", "imagery_date": "2025-08-16", "quality_tier": "BASE", "whole_roof_area_m2": 277.67, "max_roof_area_m2": 182.61, "roof_suitability_ratio_pct": 65.8, "building_footprint_m2": 343.29, "total_segments_count": 7, "pitch_range": "3.0° – 24.3°", "weighted_pitch_deg": 11.4, "max_panels_count": 93, "sunshine_hours_annual": 1644.29, "panel_capacity_wp": 400, "installed_capacity_kwp": 37.2, "google_dc_mwh": 57.37, "annual_generation_kwh": 48934.05, "annual_generation_mwh": 48.93, "carbon_offset_factor": 809.0, "ghg_reduction_tons_co2": 39.59, "path_dsm_geotiff": "data/raw/solar/data_layers/dsm/market/mkt-001_dsm.tif", "path_rgb_geotiff": "data/raw/solar/data_layers/rgb/market/mkt-001_rgb.tif", "path_mask_geotiff": "data/raw/solar/data_layers/mask/market/mkt-001_mask.tif", "path_flux_geotiff": "data/raw/solar/data_layers/annual_flux/market/mkt-001_annual_flux.tif", "preview_rgb_png": "data/processed/previews/mkt-001_rgb.png", "preview_panels_png": "data/processed/previews/mkt-001_panels_overlay.png", "preview_segments_png": "data/processed/previews/mkt-001_segments_overlay.png", "preview_dsm_png": "data/processed/previews/mkt-001_dsm_elevation.png", "preview_mask_png": "data/processed/previews/mkt-001_roof_mask.png", "preview_flux_png": "data/processed/previews/mkt-001_flux_heatmap.png" }, "geometry": { "type": "Point", "coordinates": [ 106.791039399999988, -6.2423203 ] } },
{ "type": "Feature", "properties": { "asset_id": "UNIV-001", "asset_name": "Perpustakaan Pusat UI Depok", "category": "university", "category_display": "Universitas / Kampus", "city_regency": "Kota Depok", "postal_code": "16424", "source_raw_file": "data/raw/osm/education_jakarta.geojson", "raw_lat": -6.364712, "raw_lon": 106.831379, "google_building_id": "buildings/ChIJaVTiNhfsaS4RQT6lXss0IFQ", "google_maps_url": "https://www.google.com/maps/search/?api=1&query=-6.364712,106.831379", "google_center_lat": -6.3647117, "google_center_lon": 106.8313788, "spatial_drift_meters": 0.04, "drift_status": "VALID (< 30m)", "imagery_date": "2024-02-22", "quality_tier": "BASE", "whole_roof_area_m2": 2699.74, "max_roof_area_m2": 2057.81, "roof_suitability_ratio_pct": 76.2, "building_footprint_m2": 3209.25, "total_segments_count": 29, "pitch_range": "18.5° – 38.1°", "weighted_pitch_deg": 29.7, "max_panels_count": 1048, "sunshine_hours_annual": 1612.27, "panel_capacity_wp": 400, "installed_capacity_kwp": 419.2, "google_dc_mwh": 602.35, "annual_generation_kwh": 540692.11, "annual_generation_mwh": 540.69, "carbon_offset_factor": 809.0, "ghg_reduction_tons_co2": 437.42, "path_dsm_geotiff": "data/raw/solar/data_layers/dsm/university/univ-001_dsm.tif", "path_rgb_geotiff": "data/raw/solar/data_layers/rgb/university/univ-001_rgb.tif", "path_mask_geotiff": "data/raw/solar/data_layers/mask/university/univ-001_mask.tif", "path_flux_geotiff": "data/raw/solar/data_layers/annual_flux/university/univ-001_annual_flux.tif", "preview_rgb_png": "data/processed/previews/univ-001_rgb.png", "preview_panels_png": "data/processed/previews/univ-001_panels_overlay.png", "preview_segments_png": "data/processed/previews/univ-001_segments_overlay.png", "preview_dsm_png": "data/processed/previews/univ-001_dsm_elevation.png", "preview_mask_png": "data/processed/previews/univ-001_roof_mask.png", "preview_flux_png": "data/processed/previews/univ-001_flux_heatmap.png" }, "geometry": { "type": "Point", "coordinates": [ 106.8313788, -6.3647117 ] } },
{ "type": "Feature", "properties": { "asset_id": "SCH-001", "asset_name": "SMAN 70 Jakarta Bulungan", "category": "school", "category_display": "Sekolah Menengah", "city_regency": "Jakarta Selatan", "postal_code": "12130", "source_raw_file": "data/raw/osm/education_jakarta.geojson", "raw_lat": -6.24169, "raw_lon": 106.79422, "google_building_id": "buildings/ChIJ7V7LLGvxaS4ReWmkrlWsBN8", "google_maps_url": "https://www.google.com/maps/search/?api=1&query=-6.241682,106.794237", "google_center_lat": -6.2416819, "google_center_lon": 106.7942367, "spatial_drift_meters": 2.05, "drift_status": "VALID (< 30m)", "imagery_date": "2025-08-16", "quality_tier": "BASE", "whole_roof_area_m2": 232.49, "max_roof_area_m2": 141.38, "roof_suitability_ratio_pct": 60.8, "building_footprint_m2": 301.61, "total_segments_count": 7, "pitch_range": "12.6° – 36.0°", "weighted_pitch_deg": 25.4, "max_panels_count": 72, "sunshine_hours_annual": 1612.46, "panel_capacity_wp": 400, "installed_capacity_kwp": 28.8, "google_dc_mwh": 42.97, "annual_generation_kwh": 37151.07, "annual_generation_mwh": 37.15, "carbon_offset_factor": 809.0, "ghg_reduction_tons_co2": 30.06, "path_dsm_geotiff": "data/raw/solar/data_layers/dsm/school/sch-001_dsm.tif", "path_rgb_geotiff": "data/raw/solar/data_layers/rgb/school/sch-001_rgb.tif", "path_mask_geotiff": "data/raw/solar/data_layers/mask/school/sch-001_mask.tif", "path_flux_geotiff": "data/raw/solar/data_layers/annual_flux/school/sch-001_annual_flux.tif", "preview_rgb_png": "data/processed/previews/sch-001_rgb.png", "preview_panels_png": "data/processed/previews/sch-001_panels_overlay.png", "preview_segments_png": "data/processed/previews/sch-001_segments_overlay.png", "preview_dsm_png": "data/processed/previews/sch-001_dsm_elevation.png", "preview_mask_png": "data/processed/previews/sch-001_roof_mask.png", "preview_flux_png": "data/processed/previews/sch-001_flux_heatmap.png" }, "geometry": { "type": "Point", "coordinates": [ 106.7942367, -6.2416819 ] } },
{ "type": "Feature", "properties": { "asset_id": "STD-001", "asset_name": "Istora Senayan GBK", "category": "stadium", "category_display": "Stadion & GOR", "city_regency": "Jakarta Pusat", "postal_code": "10270", "source_raw_file": "data/raw/osm/sports_jakarta.geojson", "raw_lat": -6.219799, "raw_lon": 106.804064, "google_building_id": "buildings/ChIJqdOsEU3xaS4RBzsj4T8eWaI", "google_maps_url": "https://www.google.com/maps/search/?api=1&query=-6.219818,106.804107", "google_center_lat": -6.2198185, "google_center_lon": 106.8041066, "spatial_drift_meters": 5.18, "drift_status": "VALID (< 30m)", "imagery_date": "2025-08-16", "quality_tier": "BASE", "whole_roof_area_m2": 1175.15, "max_roof_area_m2": 860.04, "roof_suitability_ratio_pct": 73.2, "building_footprint_m2": 1230.9, "total_segments_count": 7, "pitch_range": "0.9° – 9.0°", "weighted_pitch_deg": 3.8, "max_panels_count": 438, "sunshine_hours_annual": 1628.35, "panel_capacity_wp": 400, "installed_capacity_kwp": 175.2, "google_dc_mwh": 279.41, "annual_generation_kwh": 228229.96, "annual_generation_mwh": 228.23, "carbon_offset_factor": 809.0, "ghg_reduction_tons_co2": 184.64, "path_dsm_geotiff": "data/raw/solar/data_layers/dsm/stadium/std-001_dsm.tif", "path_rgb_geotiff": "data/raw/solar/data_layers/rgb/stadium/std-001_rgb.tif", "path_mask_geotiff": "data/raw/solar/data_layers/mask/stadium/std-001_mask.tif", "path_flux_geotiff": "data/raw/solar/data_layers/annual_flux/stadium/std-001_annual_flux.tif", "preview_rgb_png": "data/processed/previews/std-001_rgb.png", "preview_panels_png": "data/processed/previews/std-001_panels_overlay.png", "preview_segments_png": "data/processed/previews/std-001_segments_overlay.png", "preview_dsm_png": "data/processed/previews/std-001_dsm_elevation.png", "preview_mask_png": "data/processed/previews/std-001_roof_mask.png", "preview_flux_png": "data/processed/previews/std-001_flux_heatmap.png" }, "geometry": { "type": "Point", "coordinates": [ 106.8041066, -6.2198185 ] } }
]
}
