{
"type": "FeatureCollection",
"name": "target_100_titik",
"crs": { "type": "name", "properties": { "name": "urn:ogc:def:crs:OGC:1.3:CRS84" } },
"features": [
{ "type": "Feature", "properties": { "asset_id": "BRT-001", "asset_name": "Halte CSW Integrasi", "category": "brt", "category_display": "Halte BRT TransJakarta", "city_regency": "Jakarta Selatan", "latitude": -6.23994, "longitude": 106.79843, "radius_meters": 50, "source_reference": "data/raw/transjakarta/transjakarta_stations.csv", "description": "Simpul integrasi antarmoda layang BRT TransJakarta Koridor 13 dan MRT" }, "geometry": { "type": "Point", "coordinates": [ 106.79843, -6.23994 ] } },
{ "type": "Feature", "properties": { "asset_id": "BRT-002", "asset_name": "Halte Tosari", "category": "brt", "category_display": "Halte BRT TransJakarta", "city_regency": "Jakarta Pusat", "latitude": -6.19709, "longitude": 106.82306, "radius_meters": 50, "source_reference": "data/raw/transjakarta/transjakarta_stations.csv", "description": "Halte kapal pesiar ikonik Koridor 1 di kawasan Bundaran HI" }, "geometry": { "type": "Point", "coordinates": [ 106.82306, -6.19709 ] } },
{ "type": "Feature", "properties": { "asset_id": "BRT-003", "asset_name": "Halte Bundaran Senayan", "category": "brt", "category_display": "Halte BRT TransJakarta", "city_regency": "Jakarta Selatan", "latitude": -6.22787, "longitude": 106.80094, "radius_meters": 50, "source_reference": "data/raw/transjakarta/transjakarta_stations.csv", "description": "Halte transit utama kawasan bisnis Senayan Koridor 1" }, "geometry": { "type": "Point", "coordinates": [ 106.80094, -6.22787 ] } },
{ "type": "Feature", "properties": { "asset_id": "BRT-004", "asset_name": "Halte Monas", "category": "brt", "category_display": "Halte BRT TransJakarta", "city_regency": "Jakarta Pusat", "latitude": -6.17598, "longitude": 106.82329, "radius_meters": 50, "source_reference": "data/raw/transjakarta/transjakarta_stations.csv", "description": "Halte transit kawasan ring 1 Monumen Nasional" }, "geometry": { "type": "Point", "coordinates": [ 106.82329, -6.17598 ] } },
{ "type": "Feature", "properties": { "asset_id": "BRT-005", "asset_name": "Halte Harmoni", "category": "brt", "category_display": "Halte BRT TransJakarta", "city_regency": "Jakarta Pusat", "latitude": -6.16579, "longitude": 106.82042, "radius_meters": 55, "source_reference": "data/raw/transjakarta/transjakarta_stations.csv", "description": "Sentral transit multi-koridor Jakarta Pusat" }, "geometry": { "type": "Point", "coordinates": [ 106.82042, -6.16579 ] } },
{ "type": "Feature", "properties": { "asset_id": "BRT-006", "asset_name": "Halte Ragunan", "category": "brt", "category_display": "Halte BRT TransJakarta", "city_regency": "Jakarta Selatan", "latitude": -6.30583, "longitude": 106.81965, "radius_meters": 60, "source_reference": "data/raw/transjakarta/transjakarta_stations.csv", "description": "Terminus transit ujung selatan Koridor 6" }, "geometry": { "type": "Point", "coordinates": [ 106.81965, -6.30583 ] } },
{ "type": "Feature", "properties": { "asset_id": "BRT-007", "asset_name": "Halte Kampung Melayu", "category": "brt", "category_display": "Halte BRT TransJakarta", "city_regency": "Jakarta Timur", "latitude": -6.22431, "longitude": 106.86698, "radius_meters": 60, "source_reference": "data/raw/transjakarta/transjakarta_stations.csv", "description": "Hub transit antarmoda tersibuk koridor timur Jakarta" }, "geometry": { "type": "Point", "coordinates": [ 106.86698, -6.22431 ] } },
{ "type": "Feature", "properties": { "asset_id": "BRT-008", "asset_name": "Halte Pulo Gadung", "category": "brt", "category_display": "Halte BRT TransJakarta", "city_regency": "Jakarta Timur", "latitude": -6.1826, "longitude": 106.90904, "radius_meters": 70, "source_reference": "data/raw/transjakarta/transjakarta_stations.csv", "description": "Terminal transit koridor 2 dan 4 Jakarta Timur" }, "geometry": { "type": "Point", "coordinates": [ 106.90904, -6.1826 ] } },
{ "type": "Feature", "properties": { "asset_id": "KRL-032", "asset_name": "Stasiun KRL Manggarai Sentral", "category": "krl", "category_display": "KRL Commuter Line", "city_regency": "Jakarta Selatan", "latitude": -6.21017, "longitude": 106.849935, "radius_meters": 105, "source_reference": "data/raw/krl/krl_stations.csv", "description": "Stasiun sentral transit perkeretaapian terbesar Jabodetabek" }, "geometry": { "type": "Point", "coordinates": [ 106.849935, -6.21017 ] } },
{ "type": "Feature", "properties": { "asset_id": "KRL-001", "asset_name": "Stasiun KRL Jakarta Kota", "category": "krl", "category_display": "KRL Commuter Line", "city_regency": "Jakarta Barat", "latitude": -6.137583, "longitude": 106.81462, "radius_meters": 95, "source_reference": "data/raw/krl/krl_stations.csv", "description": "Stasiun cagar budaya terminus jalur utara Jakarta" }, "geometry": { "type": "Point", "coordinates": [ 106.81462, -6.137583 ] } },
{ "type": "Feature", "properties": { "asset_id": "KRL-002", "asset_name": "Stasiun KRL Tanah Abang", "category": "krl", "category_display": "KRL Commuter Line", "city_regency": "Jakarta Pusat", "latitude": -6.185713, "longitude": 106.810894, "radius_meters": 95, "source_reference": "data/raw/krl/krl_stations.csv", "description": "Simpul stasiun komuter transit lintas Rangkasbitung dan Cikarang" }, "geometry": { "type": "Point", "coordinates": [ 106.810894, -6.185713 ] } },
{ "type": "Feature", "properties": { "asset_id": "KRL-003", "asset_name": "Stasiun KRL Pasar Senen", "category": "krl", "category_display": "KRL Commuter Line", "city_regency": "Jakarta Pusat", "latitude": -6.1755, "longitude": 106.84285, "radius_meters": 95, "source_reference": "data/raw/krl/krl_stations.csv", "description": "Stasiun integrasi antarkota dan komuter Jakarta Pusat" }, "geometry": { "type": "Point", "coordinates": [ 106.84285, -6.1755 ] } },
{ "type": "Feature", "properties": { "asset_id": "KRL-004", "asset_name": "Stasiun KRL Jatinegara", "category": "krl", "category_display": "KRL Commuter Line", "city_regency": "Jakarta Timur", "latitude": -6.214925, "longitude": 106.870339, "radius_meters": 95, "source_reference": "data/raw/krl/krl_stations.csv", "description": "Hub transit kereta api utama jalur timur" }, "geometry": { "type": "Point", "coordinates": [ 106.870339, -6.214925 ] } },
{ "type": "Feature", "properties": { "asset_id": "KRL-005", "asset_name": "Stasiun KRL Sudirman", "category": "krl", "category_display": "KRL Commuter Line", "city_regency": "Jakarta Pusat", "latitude": -6.202408, "longitude": 106.823449, "radius_meters": 85, "source_reference": "data/raw/krl/krl_stations.csv", "description": "Stasiun komuter CBD terpadat terintegrasi Dukuh Atas" }, "geometry": { "type": "Point", "coordinates": [ 106.823449, -6.202408 ] } },
{ "type": "Feature", "properties": { "asset_id": "KRL-006", "asset_name": "Stasiun KRL Duren Kalibata", "category": "krl", "category_display": "KRL Commuter Line", "city_regency": "Jakarta Selatan", "latitude": -6.25466, "longitude": 106.85534, "radius_meters": 80, "source_reference": "data/raw/krl/krl_stations.csv", "description": "Stasiun perumahan padat komuter Jakarta Selatan" }, "geometry": { "type": "Point", "coordinates": [ 106.85534, -6.25466 ] } },
{ "type": "Feature", "properties": { "asset_id": "KRL-007", "asset_name": "Stasiun KRL Tanjung Priuk", "category": "krl", "category_display": "KRL Commuter Line", "city_regency": "Jakarta Utara", "latitude": -6.110941, "longitude": 106.881149, "radius_meters": 100, "source_reference": "data/raw/krl/krl_stations.csv", "description": "Stasiun cagar budaya bentang kubah megah pelabuhan Tanjung Priok" }, "geometry": { "type": "Point", "coordinates": [ 106.881149, -6.110941 ] } },
{ "type": "Feature", "properties": { "asset_id": "MRT-003", "asset_name": "Stasiun MRT Cipete Raya", "category": "mrt", "category_display": "MRT Jakarta", "city_regency": "Jakarta Selatan", "latitude": -6.278342, "longitude": 106.797326, "radius_meters": 95, "source_reference": "data/raw/mrt_lrt/mrt_stations.csv", "description": "Stasiun elevated layang koridor Fatmawati-Blok M" }, "geometry": { "type": "Point", "coordinates": [ 106.797326, -6.278342 ] } },
{ "type": "Feature", "properties": { "asset_id": "MRT-001", "asset_name": "Stasiun MRT Lebak Bulus", "category": "mrt", "category_display": "MRT Jakarta", "city_regency": "Jakarta Selatan", "latitude": -6.289354, "longitude": 106.774716, "radius_meters": 120, "source_reference": "data/raw/osm/stations_jakarta.gpkg", "description": "Stasiun terminus selatan dan depo MRT Jakarta" }, "geometry": { "type": "Point", "coordinates": [ 106.774716, -6.289354 ] } },
{ "type": "Feature", "properties": { "asset_id": "MRT-002", "asset_name": "Stasiun MRT Fatmawati", "category": "mrt", "category_display": "MRT Jakarta", "city_regency": "Jakarta Selatan", "latitude": -6.292482, "longitude": 106.792404, "radius_meters": 100, "source_reference": "data/raw/osm/stations_jakarta.gpkg", "description": "Stasiun elevated layang transit Tol JORR" }, "geometry": { "type": "Point", "coordinates": [ 106.792404, -6.292482 ] } },
{ "type": "Feature", "properties": { "asset_id": "MRT-004", "asset_name": "Stasiun MRT Blok M BCA", "category": "mrt", "category_display": "MRT Jakarta", "city_regency": "Jakarta Selatan", "latitude": -6.244462, "longitude": 106.798132, "radius_meters": 100, "source_reference": "data/raw/osm/stations_jakarta.gpkg", "description": "Stasiun sentral komersial Blok M terintegrasi transit" }, "geometry": { "type": "Point", "coordinates": [ 106.798132, -6.244462 ] } },
{ "type": "Feature", "properties": { "asset_id": "MRT-005", "asset_name": "Stasiun MRT ASEAN", "category": "mrt", "category_display": "MRT Jakarta", "city_regency": "Jakarta Selatan", "latitude": -6.238814, "longitude": 106.798379, "radius_meters": 100, "source_reference": "data/raw/osm/stations_jakarta.gpkg", "description": "Stasiun integrasi layang dengan Halte CSW" }, "geometry": { "type": "Point", "coordinates": [ 106.798379, -6.238814 ] } },
{ "type": "Feature", "properties": { "asset_id": "MRT-006", "asset_name": "Stasiun MRT Senayan", "category": "mrt", "category_display": "MRT Jakarta", "city_regency": "Jakarta Pusat", "latitude": -6.226, "longitude": 106.8035, "radius_meters": 60, "source_reference": "data/raw/osm/stations_jakarta.gpkg", "description": "Stasiun bawah tanah koridor Sudirman (kanopi akses entrance GBK)" }, "geometry": { "type": "Point", "coordinates": [ 106.8035, -6.226 ] } },
{ "type": "Feature", "properties": { "asset_id": "MRT-007", "asset_name": "Stasiun MRT Dukuh Atas BNI", "category": "mrt", "category_display": "MRT Jakarta", "city_regency": "Jakarta Pusat", "latitude": -6.200796, "longitude": 106.822788, "radius_meters": 60, "source_reference": "data/raw/osm/stations_jakarta.gpkg", "description": "Stasiun bawah tanah simpul 5 moda Dukuh Atas (kanopi akses entrance)" }, "geometry": { "type": "Point", "coordinates": [ 106.822788, -6.200796 ] } },
{ "type": "Feature", "properties": { "asset_id": "MRT-008", "asset_name": "Stasiun MRT Bundaran HI", "category": "mrt", "category_display": "MRT Jakarta", "city_regency": "Jakarta Pusat", "latitude": -6.191864, "longitude": 106.823008, "radius_meters": 60, "source_reference": "data/raw/osm/stations_jakarta.gpkg", "description": "Stasiun bawah tanah Bundaran HI (paviliun kaca akses entrance)" }, "geometry": { "type": "Point", "coordinates": [ 106.823008, -6.191864 ] } },
{ "type": "Feature", "properties": { "asset_id": "LRT-014", "asset_name": "Stasiun LRT Dukuh Atas", "category": "lrt", "category_display": "LRT", "city_regency": "Jakarta Pusat", "latitude": -6.204828, "longitude": 106.82553, "radius_meters": 95, "source_reference": "data/raw/mrt_lrt/lrt_jabodebek_stations.geojson", "description": "Simpul stasiun terminus barat LRT Jabodebek di CBD" }, "geometry": { "type": "Point", "coordinates": [ 106.82553, -6.204828 ] } },
{ "type": "Feature", "properties": { "asset_id": "LRT-001", "asset_name": "Stasiun LRT Rasuna Said", "category": "lrt", "category_display": "LRT", "city_regency": "Jakarta Selatan", "latitude": -6.221588, "longitude": 106.832289, "radius_meters": 90, "source_reference": "data/raw/osm/stations_jakarta.gpkg", "description": "Stasiun layang koridor diplomatik Kuningan" }, "geometry": { "type": "Point", "coordinates": [ 106.832289, -6.221588 ] } },
{ "type": "Feature", "properties": { "asset_id": "LRT-002", "asset_name": "Stasiun LRT Pancoran", "category": "lrt", "category_display": "LRT", "city_regency": "Jakarta Selatan", "latitude": -6.242099, "longitude": 106.838562, "radius_meters": 90, "source_reference": "data/raw/osm/stations_jakarta.gpkg", "description": "Stasiun layang perempatan strategis Pancoran" }, "geometry": { "type": "Point", "coordinates": [ 106.838562, -6.242099 ] } },
{ "type": "Feature", "properties": { "asset_id": "LRT-003", "asset_name": "Stasiun LRT Cikoko", "category": "lrt", "category_display": "LRT", "city_regency": "Jakarta Selatan", "latitude": -6.244038, "longitude": 106.858026, "radius_meters": 100, "source_reference": "data/raw/osm/stations_jakarta.gpkg", "description": "Stasiun integrasi LRT Jabodebek dan KRL Cawang dengan concourse atap terpadu" }, "geometry": { "type": "Point", "coordinates": [ 106.858026, -6.244038 ] } },
{ "type": "Feature", "properties": { "asset_id": "LRT-004", "asset_name": "Stasiun LRT Cawang", "category": "lrt", "category_display": "LRT", "city_regency": "Jakarta Timur", "latitude": -6.245892, "longitude": 106.871254, "radius_meters": 120, "source_reference": "data/raw/osm/stations_jakarta.gpkg", "description": "Simpul persimpangan jalur Bekasi dan Cibubur" }, "geometry": { "type": "Point", "coordinates": [ 106.871254, -6.245892 ] } },
{ "type": "Feature", "properties": { "asset_id": "LRT-005", "asset_name": "Stasiun LRT Halim", "category": "lrt", "category_display": "LRT", "city_regency": "Jakarta Timur", "latitude": -6.245851, "longitude": 106.887328, "radius_meters": 100, "source_reference": "data/raw/osm/stations_jakarta.gpkg", "description": "Stasiun koneksi integrasi Kereta Cepat Whoosh" }, "geometry": { "type": "Point", "coordinates": [ 106.887328, -6.245851 ] } },
{ "type": "Feature", "properties": { "asset_id": "LRT-006", "asset_name": "Stasiun LRT Velodrome Jakarta", "category": "lrt", "category_display": "LRT", "city_regency": "Jakarta Timur", "latitude": -6.191892, "longitude": 106.891147, "radius_meters": 100, "source_reference": "data/raw/mrt_lrt/lrt_jkt_stations.geojson", "description": "Stasiun terminus selatan LRT Jakarta koridor Rawamangun dengan kanopi peron melengkung" }, "geometry": { "type": "Point", "coordinates": [ 106.891147, -6.191892 ] } },
{ "type": "Feature", "properties": { "asset_id": "LRT-007", "asset_name": "Stasiun LRT Pegangsaan Dua", "category": "lrt", "category_display": "LRT", "city_regency": "Jakarta Utara", "latitude": -6.157856, "longitude": 106.915232, "radius_meters": 105, "source_reference": "data/raw/mrt_lrt/lrt_jkt_stations.geojson", "description": "Stasiun depo dan terminus utara LRT Jakarta di Kelapa Gading" }, "geometry": { "type": "Point", "coordinates": [ 106.915232, -6.157856 ] } },
{ "type": "Feature", "properties": { "asset_id": "TERM-001", "asset_name": "Terminal Bus Tanjung Priok", "category": "terminal", "category_display": "Terminal Bus", "city_regency": "Jakarta Utara", "latitude": -6.112102, "longitude": 106.880937, "radius_meters": 50, "source_reference": "data/raw/osm/terminals_jakarta.geojson", "description": "Terminal bus transit logistik dan komuter pesisir utara" }, "geometry": { "type": "Point", "coordinates": [ 106.880937, -6.112102 ] } },
{ "type": "Feature", "properties": { "asset_id": "TERM-002", "asset_name": "Terminal Terpadu Rawamangun", "category": "terminal", "category_display": "Terminal Bus", "city_regency": "Jakarta Timur", "latitude": -6.1963, "longitude": 106.8856, "radius_meters": 80, "source_reference": "OSM Node / BPTJ / Dishub DKI", "description": "Terminal bus tipe A di Rawamangun Jakarta Timur dengan fasilitas concourse atap modern" }, "geometry": { "type": "Point", "coordinates": [ 106.8856, -6.1963 ] } },
{ "type": "Feature", "properties": { "asset_id": "TERM-003", "asset_name": "Terminal Kampung Rambutan", "category": "terminal", "category_display": "Terminal Bus", "city_regency": "Jakarta Timur", "latitude": -6.312118, "longitude": 106.885193, "radius_meters": 100, "source_reference": "OSM Way / Dishub DKI", "description": "Hub terminal bus antarkota AKAP jalur selatan Jawa (gedung terminal utama)" }, "geometry": { "type": "Point", "coordinates": [ 106.885193, -6.312118 ] } },
{ "type": "Feature", "properties": { "asset_id": "TERM-004", "asset_name": "Terminal Kalideres", "category": "terminal", "category_display": "Terminal Bus", "city_regency": "Jakarta Barat", "latitude": -6.154446, "longitude": 106.705697, "radius_meters": 80, "source_reference": "OSM Way / Dishub DKI", "description": "Terminal bus tipe A gerbang barat lintas Sumatera" }, "geometry": { "type": "Point", "coordinates": [ 106.705697, -6.154446 ] } },
{ "type": "Feature", "properties": { "asset_id": "TERM-005", "asset_name": "Terminal Baranangsiang Bogor", "category": "terminal", "category_display": "Terminal Bus", "city_regency": "Kota Bogor", "latitude": -6.604245, "longitude": 106.806041, "radius_meters": 80, "source_reference": "OSM Node / BPTJ", "description": "Terminal bus utama transit komuter Kota Bogor" }, "geometry": { "type": "Point", "coordinates": [ 106.806041, -6.604245 ] } },
{ "type": "Feature", "properties": { "asset_id": "TERM-006", "asset_name": "Terminal Jatijajar Depok", "category": "terminal", "category_display": "Terminal Bus", "city_regency": "Kota Depok", "latitude": -6.426272, "longitude": 106.858721, "radius_meters": 100, "source_reference": "OSM Node / BPTJ", "description": "Terminal bus tipe A terpadu Kota Depok" }, "geometry": { "type": "Point", "coordinates": [ 106.858721, -6.426272 ] } },
{ "type": "Feature", "properties": { "asset_id": "TERM-007", "asset_name": "Terminal Poris Plawad Tangerang", "category": "terminal", "category_display": "Terminal Bus", "city_regency": "Kota Tangerang", "latitude": -6.173007, "longitude": 106.664461, "radius_meters": 100, "source_reference": "OSM Node / Dishub Kota Tangerang", "description": "Terminal bus utama antarkota terintegrasi KRL Batu Ceper" }, "geometry": { "type": "Point", "coordinates": [ 106.664461, -6.173007 ] } },
{ "type": "Feature", "properties": { "asset_id": "TERM-008", "asset_name": "Terminal Induk Kota Bekasi", "category": "terminal", "category_display": "Terminal Bus", "city_regency": "Kota Bekasi", "latitude": -6.249067, "longitude": 107.014729, "radius_meters": 80, "source_reference": "OSM Way / Dishub Kota Bekasi", "description": "Terminal bus tipe A pusat mobilitas antarkota Bekasi Timur (kanopi terminal peron)" }, "geometry": { "type": "Point", "coordinates": [ 107.014729, -6.249067 ] } },
{ "type": "Feature", "properties": { "asset_id": "AIR-001", "asset_name": "Bandara Soekarno-Hatta (Terminal 3)", "category": "airport", "category_display": "Bandara", "city_regency": "Kota Tangerang", "latitude": -6.11993, "longitude": 106.662502, "radius_meters": 150, "source_reference": "data/raw/osm/airports_jakarta.geojson", "description": "Terminal internasional modern dengan bentang mega-atap kanopi" }, "geometry": { "type": "Point", "coordinates": [ 106.662502, -6.11993 ] } },
{ "type": "Feature", "properties": { "asset_id": "AIR-002", "asset_name": "Bandara Soekarno-Hatta (Terminal 2)", "category": "airport", "category_display": "Bandara", "city_regency": "Kota Tangerang", "latitude": -6.127129, "longitude": 106.652921, "radius_meters": 130, "source_reference": "OSM Aeroway / PT Angkasa Pura II", "description": "Terminal arsitektur Paul Andreu dengan modul atap joglo" }, "geometry": { "type": "Point", "coordinates": [ 106.652921, -6.127129 ] } },
{ "type": "Feature", "properties": { "asset_id": "AIR-003", "asset_name": "Bandara Soekarno-Hatta (Terminal 1)", "category": "airport", "category_display": "Bandara", "city_regency": "Kota Tangerang", "latitude": -6.130116, "longitude": 106.656915, "radius_meters": 130, "source_reference": "OSM Aeroway / PT Angkasa Pura II", "description": "Terminal domestik Paul Andreu bentang melengkung (pier keberangkatan)" }, "geometry": { "type": "Point", "coordinates": [ 106.656915, -6.130116 ] } },
{ "type": "Feature", "properties": { "asset_id": "AIR-004", "asset_name": "Bandara Halim Perdanakusuma", "category": "airport", "category_display": "Bandara", "city_regency": "Jakarta Timur", "latitude": -6.26095, "longitude": 106.897272, "radius_meters": 120, "source_reference": "OSM Aeroway / PT Angkasa Pura II", "description": "Terminal bandara komersial & kenegaraan dalam kota Jakarta (kompleks terminal & hanggar utama)" }, "geometry": { "type": "Point", "coordinates": [ 106.897272, -6.26095 ] } },
{ "type": "Feature", "properties": { "asset_id": "PKG-001", "asset_name": "Gedung Parkir Binus University", "category": "parking", "category_display": "Gedung Parkir", "city_regency": "Jakarta Barat", "latitude": -6.202025, "longitude": 106.780171, "radius_meters": 60, "source_reference": "data/raw/osm/parking_jakarta.gpkg", "description": "Gedung parkir vertikal kampus dengan dak terbuka luas" }, "geometry": { "type": "Point", "coordinates": [ 106.780171, -6.202025 ] } },
{ "type": "Feature", "properties": { "asset_id": "PKG-002", "asset_name": "Lippo Mall Puri 1 Multilevel Parking", "category": "parking", "category_display": "Gedung Parkir", "city_regency": "Jakarta Barat", "latitude": -6.190303, "longitude": 106.739152, "radius_meters": 75, "source_reference": "data/raw/osm/parking_jakarta.gpkg", "description": "Dek parkir bertingkat terisolasi kawasan Puri Indah" }, "geometry": { "type": "Point", "coordinates": [ 106.739152, -6.190303 ] } },
{ "type": "Feature", "properties": { "asset_id": "PKG-003", "asset_name": "Gedung Parkir Sarinah", "category": "parking", "category_display": "Gedung Parkir", "city_regency": "Jakarta Pusat", "latitude": -6.188265, "longitude": 106.824655, "radius_meters": 55, "source_reference": "data/raw/osm/parking_jakarta.gpkg", "description": "Gedung parkir modern kawasan ritel cagar budaya Thamrin" }, "geometry": { "type": "Point", "coordinates": [ 106.824655, -6.188265 ] } },
{ "type": "Feature", "properties": { "asset_id": "PKG-004", "asset_name": "Gedung Parkir Central Park Mall", "category": "parking", "category_display": "Gedung Parkir", "city_regency": "Jakarta Barat", "latitude": -6.174033, "longitude": 106.791709, "radius_meters": 65, "source_reference": "data/raw/osm/parking_jakarta.gpkg", "description": "Gedung parkir mandiri kawasan terpadu Podomoro City" }, "geometry": { "type": "Point", "coordinates": [ 106.791709, -6.174033 ] } },
{ "type": "Feature", "properties": { "asset_id": "PKG-005", "asset_name": "Gedung Parkir Kejaksaan Agung", "category": "parking", "category_display": "Gedung Parkir", "city_regency": "Jakarta Selatan", "latitude": -6.240563, "longitude": 106.796498, "radius_meters": 55, "source_reference": "data/raw/osm/parking_jakarta.gpkg", "description": "Gedung parkir vertikal instansi pemerintahan Blok M" }, "geometry": { "type": "Point", "coordinates": [ 106.796498, -6.240563 ] } },
{ "type": "Feature", "properties": { "asset_id": "PKG-006", "asset_name": "Gedung Parkir DIPO Tower", "category": "parking", "category_display": "Gedung Parkir", "city_regency": "Jakarta Barat", "latitude": -6.202536, "longitude": 106.800984, "radius_meters": 65, "source_reference": "data/raw/osm/parking_jakarta.gpkg", "description": "Struktur dak parkir bertingkat perkantoran Slipi" }, "geometry": { "type": "Point", "coordinates": [ 106.800984, -6.202536 ] } },
{ "type": "Feature", "properties": { "asset_id": "PKG-007", "asset_name": "Gedung Parkir Epicentrum Walk", "category": "parking", "category_display": "Gedung Parkir", "city_regency": "Jakarta Selatan", "latitude": -6.217873, "longitude": 106.835464, "radius_meters": 60, "source_reference": "data/raw/osm/parking_jakarta.gpkg", "description": "Dek parkir kawasan komersial Rasuna Epicentrum" }, "geometry": { "type": "Point", "coordinates": [ 106.835464, -6.217873 ] } },
{ "type": "Feature", "properties": { "asset_id": "PKG-008", "asset_name": "Gedung Parkir Mega Mall Pluit", "category": "parking", "category_display": "Gedung Parkir", "city_regency": "Jakarta Utara", "latitude": -6.11552, "longitude": 106.786193, "radius_meters": 65, "source_reference": "data/raw/osm/parking_jakarta.gpkg", "description": "Dek parkir bertingkat kawasan komersial Pluit Village" }, "geometry": { "type": "Point", "coordinates": [ 106.786193, -6.11552 ] } },
{ "type": "Feature", "properties": { "asset_id": "MALL-001", "asset_name": "Pondok Indah Mall 1", "category": "mall", "category_display": "Pusat Perbelanjaan / Mall", "city_regency": "Jakarta Selatan", "latitude": -6.265332, "longitude": 106.784584, "radius_meters": 175, "source_reference": "data/raw/osm/commercial_jakarta.geojson", "description": "Mall ritel legendaris Jakarta Selatan dengan bentang atap dak datar 10.000 m²" }, "geometry": { "type": "Point", "coordinates": [ 106.784584, -6.265332 ] } },
{ "type": "Feature", "properties": { "asset_id": "MALL-002", "asset_name": "Grand Indonesia Shopping Town", "category": "mall", "category_display": "Pusat Perbelanjaan / Mall", "city_regency": "Jakarta Pusat", "latitude": -6.195288, "longitude": 106.820549, "radius_meters": 160, "source_reference": "OSM Way / Djarum Group", "description": "Mega-mall sentral Jakarta di Bundaran HI dengan atap podium luas (West Mall)" }, "geometry": { "type": "Point", "coordinates": [ 106.820549, -6.195288 ] } },
{ "type": "Feature", "properties": { "asset_id": "MALL-003", "asset_name": "Senayan City", "category": "mall", "category_display": "Pusat Perbelanjaan / Mall", "city_regency": "Jakarta Pusat", "latitude": -6.22734, "longitude": 106.797246, "radius_meters": 130, "source_reference": "OSM Way / Agung Podomoro Land", "description": "Pusat belanja mewah koridor Senayan-Asia Afrika" }, "geometry": { "type": "Point", "coordinates": [ 106.797246, -6.22734 ] } },
{ "type": "Feature", "properties": { "asset_id": "MALL-004", "asset_name": "Summarecon Mall Kelapa Gading", "category": "mall", "category_display": "Pusat Perbelanjaan / Mall", "city_regency": "Jakarta Utara", "latitude": -6.157399, "longitude": 106.908366, "radius_meters": 170, "source_reference": "OSM Way / Summarecon Agung", "description": "Kompleks mall horizontal terluas Jakarta Utara (MKG 1-5)" }, "geometry": { "type": "Point", "coordinates": [ 106.908366, -6.157399 ] } },
{ "type": "Feature", "properties": { "asset_id": "MALL-005", "asset_name": "Central Park Mall", "category": "mall", "category_display": "Pusat Perbelanjaan / Mall", "city_regency": "Jakarta Barat", "latitude": -6.17762, "longitude": 106.790668, "radius_meters": 150, "source_reference": "OSM Way / Agung Podomoro Land", "description": "Pusat komersial terkemuka Jakarta Barat dengan taman atap & dak podium masif" }, "geometry": { "type": "Point", "coordinates": [ 106.790668, -6.17762 ] } },
{ "type": "Feature", "properties": { "asset_id": "MALL-006", "asset_name": "Kota Kasablanka", "category": "mall", "category_display": "Pusat Perbelanjaan / Mall", "city_regency": "Jakarta Selatan", "latitude": -6.223255, "longitude": 106.842697, "radius_meters": 150, "source_reference": "OSM Way / Pakuwon Jati", "description": "Mall superblok koridor Casablanca Tebet dengan atap podium masif" }, "geometry": { "type": "Point", "coordinates": [ 106.842697, -6.223255 ] } },
{ "type": "Feature", "properties": { "asset_id": "MALL-007", "asset_name": "Summarecon Mall Serpong", "category": "mall", "category_display": "Pusat Perbelanjaan / Mall", "city_regency": "Kab. Tangerang", "latitude": -6.240672, "longitude": 106.628575, "radius_meters": 140, "source_reference": "OSM Way / Summarecon Agung", "description": "Pusat gaya hidup terkemuka kawasan kota mandiri Gading Serpong" }, "geometry": { "type": "Point", "coordinates": [ 106.628575, -6.240672 ] } },
{ "type": "Feature", "properties": { "asset_id": "MALL-008", "asset_name": "Gandaria City Mall", "category": "mall", "category_display": "Pusat Perbelanjaan / Mall", "city_regency": "Jakarta Selatan", "latitude": -6.244332, "longitude": 106.783551, "radius_meters": 160, "source_reference": "OSM Way / Pakuwon Jati", "description": "Mega-mall superblok terkemuka Jakarta Selatan dengan bentang atap podium masif" }, "geometry": { "type": "Point", "coordinates": [ 106.783551, -6.244332 ] } },
{ "type": "Feature", "properties": { "asset_id": "RS-007", "asset_name": "RSUD Tarakan Jakarta", "category": "hospital", "category_display": "Rumah Sakit", "city_regency": "Jakarta Pusat", "latitude": -6.17155, "longitude": 106.81025, "radius_meters": 65, "source_reference": "data/raw/osm/hospitals_jakarta.gpkg", "description": "RSUD rujukan vertikal Jakarta Pusat dengan dak beton bertingkat" }, "geometry": { "type": "Point", "coordinates": [ 106.81025, -6.17155 ] } },
{ "type": "Feature", "properties": { "asset_id": "RS-001", "asset_name": "RSUPN Dr. Cipto Mangunkusumo", "category": "hospital", "category_display": "Rumah Sakit", "city_regency": "Jakarta Pusat", "latitude": -6.197071, "longitude": 106.847492, "radius_meters": 100, "source_reference": "data/raw/osm/hospitals_jakarta.gpkg", "description": "Rumah sakit rujukan nasional utama (RSCM) dengan kompleks dak luas (Gedung Kirana / Kanari)" }, "geometry": { "type": "Point", "coordinates": [ 106.847492, -6.197071 ] } },
{ "type": "Feature", "properties": { "asset_id": "RS-002", "asset_name": "RSAB Harapan Kita", "category": "hospital", "category_display": "Rumah Sakit", "city_regency": "Jakarta Barat", "latitude": -6.184767, "longitude": 106.798546, "radius_meters": 95, "source_reference": "data/raw/osm/hospitals_jakarta.gpkg", "description": "Pusat rujukan kesehatan anak dan bunda terkemuka Slipi" }, "geometry": { "type": "Point", "coordinates": [ 106.798546, -6.184767 ] } },
{ "type": "Feature", "properties": { "asset_id": "RS-003", "asset_name": "RSUP Fatmawati", "category": "hospital", "category_display": "Rumah Sakit", "city_regency": "Jakarta Selatan", "latitude": -6.295996, "longitude": 106.796709, "radius_meters": 90, "source_reference": "data/raw/osm/hospitals_jakarta.gpkg", "description": "Rumah sakit umum pusat rujukan Jakarta Selatan (Gedung Teratai)" }, "geometry": { "type": "Point", "coordinates": [ 106.796709, -6.295996 ] } },
{ "type": "Feature", "properties": { "asset_id": "RS-004", "asset_name": "RSUD Pasar Minggu", "category": "hospital", "category_display": "Rumah Sakit", "city_regency": "Jakarta Selatan", "latitude": -6.294071, "longitude": 106.81988, "radius_meters": 80, "source_reference": "data/raw/osm/hospitals_jakarta.gpkg", "description": "RSUD modern kelas B dengan fasilitas gedung tinggi terpadu" }, "geometry": { "type": "Point", "coordinates": [ 106.81988, -6.294071 ] } },
{ "type": "Feature", "properties": { "asset_id": "RS-005", "asset_name": "RSUD Koja", "category": "hospital", "category_display": "Rumah Sakit", "city_regency": "Jakarta Utara", "latitude": -6.108769, "longitude": 106.900075, "radius_meters": 80, "source_reference": "data/raw/osm/hospitals_jakarta.gpkg", "description": "RSUD rujukan utama kawasan pelabuhan pesisir Jakarta Utara (Gedung Blok B)" }, "geometry": { "type": "Point", "coordinates": [ 106.900075, -6.108769 ] } },
{ "type": "Feature", "properties": { "asset_id": "RS-006", "asset_name": "RSUD Cengkareng", "category": "hospital", "category_display": "Rumah Sakit", "city_regency": "Jakarta Barat", "latitude": -6.142965, "longitude": 106.734887, "radius_meters": 80, "source_reference": "data/raw/osm/hospitals_jakarta.gpkg", "description": "RSUD regional pintu barat Jakarta dengan area atap datar masif" }, "geometry": { "type": "Point", "coordinates": [ 106.734887, -6.142965 ] } },
{ "type": "Feature", "properties": { "asset_id": "RS-008", "asset_name": "RS Pusat Pertamina", "category": "hospital", "category_display": "Rumah Sakit", "city_regency": "Jakarta Selatan", "latitude": -6.240166, "longitude": 106.792968, "radius_meters": 85, "source_reference": "data/raw/osm/hospitals_jakarta.gpkg", "description": "Rumah sakit BUMN ternama di kawasan Kebayoran Baru" }, "geometry": { "type": "Point", "coordinates": [ 106.792968, -6.240166 ] } },
{ "type": "Feature", "properties": { "asset_id": "MKT-001", "asset_name": "Pasar Mayestik Kebayoran Baru", "category": "market", "category_display": "Pasar Tradisional", "city_regency": "Jakarta Selatan", "latitude": -6.24232, "longitude": 106.791039, "radius_meters": 50, "source_reference": "data/raw/osm/markets_jakarta.geojson", "description": "Pasar tradisional modern bertingkat Perumda Pasar Jaya" }, "geometry": { "type": "Point", "coordinates": [ 106.791039, -6.24232 ] } },
{ "type": "Feature", "properties": { "asset_id": "MKT-002", "asset_name": "Pasar Tanah Abang (Blok A)", "category": "market", "category_display": "Pasar Tradisional", "city_regency": "Jakarta Pusat", "latitude": -6.188291, "longitude": 106.818495, "radius_meters": 80, "source_reference": "OSM Way / Perumda Pasar Jaya", "description": "Pusat grosir tekstil terbesar se-Asia Tenggara dengan dak beton raksasa" }, "geometry": { "type": "Point", "coordinates": [ 106.818495, -6.188291 ] } },
{ "type": "Feature", "properties": { "asset_id": "MKT-003", "asset_name": "Pasar Induk Kramat Jati", "category": "market", "category_display": "Pasar Tradisional", "city_regency": "Jakarta Timur", "latitude": -6.294296, "longitude": 106.871321, "radius_meters": 110, "source_reference": "OSM Way / Perumda Pasar Jaya", "description": "Pasar induk komoditas pangan utama Jakarta seluas puluhan hektar (hanggar utama sayur/buah)" }, "geometry": { "type": "Point", "coordinates": [ 106.871321, -6.294296 ] } },
{ "type": "Feature", "properties": { "asset_id": "MKT-004", "asset_name": "Pasar Senen (Blok III)", "category": "market", "category_display": "Pasar Tradisional", "city_regency": "Jakarta Pusat", "latitude": -6.174303, "longitude": 106.844168, "radius_meters": 80, "source_reference": "OSM Way / Perumda Pasar Jaya", "description": "Gedung pasar modern berkanopi luas di simpul transit Senen (Gedung Utama Blok III)" }, "geometry": { "type": "Point", "coordinates": [ 106.844168, -6.174303 ] } },
{ "type": "Feature", "properties": { "asset_id": "MKT-005", "asset_name": "Pasar Glodok", "category": "market", "category_display": "Pasar Tradisional", "city_regency": "Jakarta Barat", "latitude": -6.142718, "longitude": 106.814121, "radius_meters": 60, "source_reference": "OSM Way / Perumda Pasar Jaya", "description": "Sentra perdagangan elektronik legendaris kawasan pecinan" }, "geometry": { "type": "Point", "coordinates": [ 106.814121, -6.142718 ] } },
{ "type": "Feature", "properties": { "asset_id": "MKT-006", "asset_name": "Pasar Santa", "category": "market", "category_display": "Pasar Tradisional", "city_regency": "Jakarta Selatan", "latitude": -6.2397, "longitude": 106.811324, "radius_meters": 55, "source_reference": "OSM Way / Perumda Pasar Jaya", "description": "Pasar komunitas kreatif dan kuliner Kebayoran Baru" }, "geometry": { "type": "Point", "coordinates": [ 106.811324, -6.2397 ] } },
{ "type": "Feature", "properties": { "asset_id": "MKT-007", "asset_name": "Pasar Jatinegara", "category": "market", "category_display": "Pasar Tradisional", "city_regency": "Jakarta Timur", "latitude": -6.215726, "longitude": 106.866321, "radius_meters": 65, "source_reference": "OSM Way / Perumda Pasar Jaya", "description": "Pusat perniagaan tradisional bersejarah Meester Cornelis" }, "geometry": { "type": "Point", "coordinates": [ 106.866321, -6.215726 ] } },
{ "type": "Feature", "properties": { "asset_id": "MKT-008", "asset_name": "Pasar Baru", "category": "market", "category_display": "Pasar Tradisional", "city_regency": "Jakarta Pusat", "latitude": -6.164901, "longitude": 106.833467, "radius_meters": 60, "source_reference": "OSM Way / Perumda Pasar Jaya", "description": "Kawasan perbelanjaan komersial tertua di Jakarta" }, "geometry": { "type": "Point", "coordinates": [ 106.833467, -6.164901 ] } },
{ "type": "Feature", "properties": { "asset_id": "UNIV-001", "asset_name": "Perpustakaan Pusat UI Depok", "category": "university", "category_display": "Universitas / Kampus", "city_regency": "Kota Depok", "latitude": -6.364712, "longitude": 106.831379, "radius_meters": 65, "source_reference": "data/raw/osm/education_jakarta.geojson", "description": "Arsitektur kristal ramah lingkungan 'The Crystal of Knowledge' UI" }, "geometry": { "type": "Point", "coordinates": [ 106.831379, -6.364712 ] } },
{ "type": "Feature", "properties": { "asset_id": "UNIV-002", "asset_name": "Institut Pertanian Bogor Dramaga", "category": "university", "category_display": "Universitas / Kampus", "city_regency": "Kab. Bogor", "latitude": -6.555272, "longitude": 106.725016, "radius_meters": 85, "source_reference": "OSM Way / IPB University", "description": "Gedung Rektorat Andi Hakim Nasoetion dan kampus hijau IPB" }, "geometry": { "type": "Point", "coordinates": [ 106.725016, -6.555272 ] } },
{ "type": "Feature", "properties": { "asset_id": "UNIV-003", "asset_name": "Universitas Trisakti Grogol", "category": "university", "category_display": "Universitas / Kampus", "city_regency": "Jakarta Barat", "latitude": -6.168517, "longitude": 106.790388, "radius_meters": 85, "source_reference": "OSM Way / Universitas Trisakti", "description": "Kampus reformasi Trisakti Kyai Tapa dengan blok gedung perkuliahan utama" }, "geometry": { "type": "Point", "coordinates": [ 106.790388, -6.168517 ] } },
{ "type": "Feature", "properties": { "asset_id": "UNIV-004", "asset_name": "Universitas Tarumanagara Kampus 1", "category": "university", "category_display": "Universitas / Kampus", "city_regency": "Jakarta Barat", "latitude": -6.168867, "longitude": 106.790254, "radius_meters": 80, "source_reference": "OSM Way / UNTAR", "description": "Gedung utama perkuliahan Untar Grogol dengan atap beton datar" }, "geometry": { "type": "Point", "coordinates": [ 106.790254, -6.168867 ] } },
{ "type": "Feature", "properties": { "asset_id": "UNIV-005", "asset_name": "Universitas Bina Nusantara Anggrek", "category": "university", "category_display": "Universitas / Kampus", "city_regency": "Jakarta Barat", "latitude": -6.201942, "longitude": 106.781169, "radius_meters": 75, "source_reference": "OSM Way / BINUS University", "description": "Kampus utama teknologi Binus Anggrek Kebon Jeruk" }, "geometry": { "type": "Point", "coordinates": [ 106.781169, -6.201942 ] } },
{ "type": "Feature", "properties": { "asset_id": "UNIV-006", "asset_name": "Universitas Negeri Jakarta Rawamangun", "category": "university", "category_display": "Universitas / Kampus", "city_regency": "Jakarta Timur", "latitude": -6.194784, "longitude": 106.87819, "radius_meters": 85, "source_reference": "OSM Way / UNJ", "description": "Kampus A UNJ Rawamangun pusat pendidikan keguruan" }, "geometry": { "type": "Point", "coordinates": [ 106.87819, -6.194784 ] } },
{ "type": "Feature", "properties": { "asset_id": "UNIV-007", "asset_name": "UIN Syarif Hidayatullah Jakarta", "category": "university", "category_display": "Universitas / Kampus", "city_regency": "Kota Tangerang Selatan", "latitude": -6.306743, "longitude": 106.754542, "radius_meters": 80, "source_reference": "OSM Way / UIN Jakarta", "description": "Kampus perguruan tinggi Islam negeri terkemuka Ciputat" }, "geometry": { "type": "Point", "coordinates": [ 106.754542, -6.306743 ] } },
{ "type": "Feature", "properties": { "asset_id": "UNIV-008", "asset_name": "Universitas Multimedia Nusantara", "category": "university", "category_display": "Universitas / Kampus", "city_regency": "Kab. Tangerang", "latitude": -6.25687, "longitude": 106.61831, "radius_meters": 80, "source_reference": "OSM Way / Kompas Gramedia", "description": "Gedung ikonik New Media Tower hemat energi berarsitektur futuristik" }, "geometry": { "type": "Point", "coordinates": [ 106.61831, -6.25687 ] } },
{ "type": "Feature", "properties": { "asset_id": "SCH-001", "asset_name": "SMAN 70 Jakarta Bulungan", "category": "school", "category_display": "Sekolah Menengah", "city_regency": "Jakarta Selatan", "latitude": -6.24169, "longitude": 106.79422, "radius_meters": 50, "source_reference": "data/raw/osm/education_jakarta.geojson", "description": "SMA unggulan berorientasi atap pelana panjang mengelilingi lapangan" }, "geometry": { "type": "Point", "coordinates": [ 106.79422, -6.24169 ] } },
{ "type": "Feature", "properties": { "asset_id": "SCH-002", "asset_name": "SMAN 8 Jakarta Bukit Duri", "category": "school", "category_display": "Sekolah Menengah", "city_regency": "Jakarta Selatan", "latitude": -6.217768, "longitude": 106.859227, "radius_meters": 55, "source_reference": "OSM Way / Disdik DKI", "description": "SMA negeri unggulan sains dan akademik terdepan di Tebet" }, "geometry": { "type": "Point", "coordinates": [ 106.859227, -6.217768 ] } },
{ "type": "Feature", "properties": { "asset_id": "SCH-003", "asset_name": "SMAN 68 Jakarta Salemba", "category": "school", "category_display": "Sekolah Menengah", "city_regency": "Jakarta Pusat", "latitude": -6.197655, "longitude": 106.850902, "radius_meters": 50, "source_reference": "OSM Way / Disdik DKI", "description": "Gedung sekolah bertingkat kawasan pendidikan Salemba" }, "geometry": { "type": "Point", "coordinates": [ 106.850902, -6.197655 ] } },
{ "type": "Feature", "properties": { "asset_id": "SCH-004", "asset_name": "SMAN 28 Jakarta Pasar Minggu", "category": "school", "category_display": "Sekolah Menengah", "city_regency": "Jakarta Selatan", "latitude": -6.285829, "longitude": 106.833357, "radius_meters": 50, "source_reference": "OSM Way / Disdik DKI", "description": "SMA negeri favorit kawasan Ragunan dan Pasar Minggu" }, "geometry": { "type": "Point", "coordinates": [ 106.833357, -6.285829 ] } },
{ "type": "Feature", "properties": { "asset_id": "SCH-005", "asset_name": "SMAN 3 Jakarta Setiabudi", "category": "school", "category_display": "Sekolah Menengah", "city_regency": "Jakarta Selatan", "latitude": -6.209867, "longitude": 106.825664, "radius_meters": 50, "source_reference": "OSM Way / Disdik DKI", "description": "SMA legendaris Teladan di kawasan Setiabudi" }, "geometry": { "type": "Point", "coordinates": [ 106.825664, -6.209867 ] } },
{ "type": "Feature", "properties": { "asset_id": "SCH-006", "asset_name": "SMKN 26 Jakarta Rawamangun", "category": "school", "category_display": "Sekolah Menengah", "city_regency": "Jakarta Timur", "latitude": -6.194564, "longitude": 106.887387, "radius_meters": 55, "source_reference": "OSM Way / Disdik DKI", "description": "SMK Negeri Pembangunan bidang teknik dengan kompleks bengkel dan dak luas" }, "geometry": { "type": "Point", "coordinates": [ 106.887387, -6.194564 ] } },
{ "type": "Feature", "properties": { "asset_id": "SCH-007", "asset_name": "SMAN 1 Bogor Paledang", "category": "school", "category_display": "Sekolah Menengah", "city_regency": "Kota Bogor", "latitude": -6.597328, "longitude": 106.79335, "radius_meters": 50, "source_reference": "OSM Way / Disdik Jabar", "description": "SMA negeri tertua dan terkemuka di Kota Bogor" }, "geometry": { "type": "Point", "coordinates": [ 106.79335, -6.597328 ] } },
{ "type": "Feature", "properties": { "asset_id": "SCH-008", "asset_name": "SMAN 1 Depok Nusantara", "category": "school", "category_display": "Sekolah Menengah", "city_regency": "Kota Depok", "latitude": -6.395384, "longitude": 106.814397, "radius_meters": 50, "source_reference": "OSM Way / Disdik Jabar", "description": "SMA negeri rujukan pertama di Kota Depok" }, "geometry": { "type": "Point", "coordinates": [ 106.814397, -6.395384 ] } },
{ "type": "Feature", "properties": { "asset_id": "STD-001", "asset_name": "Istora Senayan GBK", "category": "stadium", "category_display": "Stadion & GOR", "city_regency": "Jakarta Pusat", "latitude": -6.219799, "longitude": 106.804064, "radius_meters": 60, "source_reference": "data/raw/osm/sports_jakarta.geojson", "description": "Istana olahraga indoor legendaris dengan bentang kubah melengkung" }, "geometry": { "type": "Point", "coordinates": [ 106.804064, -6.219799 ] } },
{ "type": "Feature", "properties": { "asset_id": "STD-002", "asset_name": "Stadion Utama Gelora Bung Karno", "category": "stadium", "category_display": "Stadion & GOR", "city_regency": "Jakarta Pusat", "latitude": -6.218596, "longitude": 106.802607, "radius_meters": 140, "source_reference": "OSM Way / PPK GBK", "description": "Stadion kebanggaan nasional dengan mega-atap lingkar 'temu gelang' 65.000 m²" }, "geometry": { "type": "Point", "coordinates": [ 106.802607, -6.218596 ] } },
{ "type": "Feature", "properties": { "asset_id": "STD-003", "asset_name": "Jakarta International Stadium", "category": "stadium", "category_display": "Stadion & GOR", "city_regency": "Jakarta Utara", "latitude": -6.125075, "longitude": 106.860201, "radius_meters": 150, "source_reference": "OSM Way / PT Jakpro", "description": "Stadion bertaraf FIFA dengan retractable roof modern terbesar" }, "geometry": { "type": "Point", "coordinates": [ 106.860201, -6.125075 ] } },
{ "type": "Feature", "properties": { "asset_id": "STD-004", "asset_name": "Stadion Madya GBK", "category": "stadium", "category_display": "Stadion & GOR", "city_regency": "Jakarta Pusat", "latitude": -6.217281, "longitude": 106.799508, "radius_meters": 95, "source_reference": "OSM Way / PPK GBK", "description": "Stadion atletik sekunder kompleks Gelora Bung Karno" }, "geometry": { "type": "Point", "coordinates": [ 106.799508, -6.217281 ] } },
{ "type": "Feature", "properties": { "asset_id": "STD-005", "asset_name": "Jakarta International Velodrome", "category": "stadium", "category_display": "Stadion & GOR", "city_regency": "Jakarta Timur", "latitude": -6.190896, "longitude": 106.890101, "radius_meters": 90, "source_reference": "OSM Way / PT Jakpro", "description": "Gelanggang balap sepeda indoor bertaraf Olimpiade di Rawamangun" }, "geometry": { "type": "Point", "coordinates": [ 106.890101, -6.190896 ] } },
{ "type": "Feature", "properties": { "asset_id": "STD-006", "asset_name": "Gelanggang Remaja Bulungan", "category": "stadium", "category_display": "Stadion & GOR", "city_regency": "Jakarta Selatan", "latitude": -6.242763, "longitude": 106.797342, "radius_meters": 55, "source_reference": "OSM Way / Dispora DKI", "description": "GOR olahraga dan kepemudaan sentral Blok M" }, "geometry": { "type": "Point", "coordinates": [ 106.797342, -6.242763 ] } },
{ "type": "Feature", "properties": { "asset_id": "STD-007", "asset_name": "Stadion Pakansari Cibinong", "category": "stadium", "category_display": "Stadion & GOR", "city_regency": "Kab. Bogor", "latitude": -6.495967, "longitude": 106.833084, "radius_meters": 130, "source_reference": "OSM Way / Dispora Kab. Bogor", "description": "Stadion olimpiade megah kapasitas 30.000 penonton di Cibinong" }, "geometry": { "type": "Point", "coordinates": [ 106.833084, -6.495967 ] } },
{ "type": "Feature", "properties": { "asset_id": "STD-008", "asset_name": "Stadion Soemantri Brodjonegoro", "category": "stadium", "category_display": "Stadion & GOR", "city_regency": "Jakarta Selatan", "latitude": -6.221108, "longitude": 106.833243, "radius_meters": 120, "source_reference": "OSM Way / Dispora DKI", "description": "Stadion olahraga bersejarah terpadu di koridor bisnis Rasuna Said Kuningan" }, "geometry": { "type": "Point", "coordinates": [ 106.833243, -6.221108 ] } }
]
}
